{"pharmacies":[{"pharmacy":"Rexall","address":"372 Queen Street East","city":"Acton, ON","postal_code":"L7J 2Y5"},{"pharmacy":"Shoppers Drug Mart","address":"252 Queen Street","city":"Acton, ON","postal_code":"L7J 1P6"},{"pharmacy":"Ajax Pharmachoice","address":"901 Harwood Avenue North, Unit 101","city":"Ajax, ON","postal_code":"L1Z 0T4"},{"pharmacy":"Bowen'S Pharmacy","address":"88 Harwood Avenue South","city":"Ajax, ON","postal_code":"L1S 2H6"},{"pharmacy":"Costco Pharmacy","address":"150 Kingston Road East","city":"Ajax, ON","postal_code":"L1Z 1E5"},{"pharmacy":"Food Basics Pharmacy","address":"280 Harwood Avenue South","city":"Ajax, ON","postal_code":"L1S 2J1"},{"pharmacy":"Health-Rite Pharmacy","address":"75 Bayly Street West","city":"Ajax, ON","postal_code":"L1S 7K7"},{"pharmacy":"Loblaw Pharmacy","address":"30 Kingston Road West","city":"Ajax, ON","postal_code":"L1T 4K8"},{"pharmacy":"Rexall","address":"240 Harwood Avenue South","city":"Ajax, ON","postal_code":"L1S 2H6"},{"pharmacy":"Rexall","address":"475 Westney Road North, Unit 17","city":"Ajax, ON","postal_code":"L1T 3H4"},{"pharmacy":"Rexall","address":"955 Westney Road South, Unit 7","city":"Ajax, ON","postal_code":"L1S 3K7"},{"pharmacy":"Shoppers Drug Mart","address":"1971 Salem Road North","city":"Ajax, ON","postal_code":"L1T 0J9"},{"pharmacy":"Shoppers Drug Mart","address":"15 Westney Road North","city":"Ajax, ON","postal_code":"L1T 1P4"},{"pharmacy":"Shoppers Drug Mart","address":"314 Harwood Avenue South","city":"Ajax, ON","postal_code":"L1S 2J1"},{"pharmacy":"Shoppers Drug Mart","address":"95 Williamson Drive West","city":"Ajax, ON","postal_code":"L1T 0K9"},{"pharmacy":"Sobeys Pharmacy","address":"260 Kingston Road West","city":"Ajax, ON","postal_code":"L1T 4E4"},{"pharmacy":"Wal-Mart Pharmacy","address":"270 Kingston Road East","city":"Ajax, ON","postal_code":"L1Z 1G1"},{"pharmacy":"Wynplus Pharmacy","address":"81 Middlecote Drive, Unit A7","city":"Ajax, ON","postal_code":"L1T 0K3"},{"pharmacy":"Rexall","address":"149 Young Street","city":"Alliston, ON","postal_code":"L9R 2A9"},{"pharmacy":"Shoppers Drug Mart","address":"376 Ottawa Street","city":"Almonte, ON","postal_code":"K0A 1A0"},{"pharmacy":"Rexall","address":"71 Sandwich Street South","city":"Amherstburg, ON","postal_code":"N9V 1Z5"},{"pharmacy":"Shoppers Drug Mart","address":"199 Sandwich Street South","city":"Amherstburg, ON","postal_code":"N9V 1Z9"},{"pharmacy":"Wal-Mart Pharmacy","address":"400 Sandwich Street South","city":"Amherstburg, ON","postal_code":"N9V 3L4"},{"pharmacy":"Pharmasave Loyalist Pharmacy","address":"200 Speers Boulevard","city":"Amherstview, ON","postal_code":"K7N 1Y7"},{"pharmacy":"Shoppers Drug Mart","address":"15 Sherwood Avenue","city":"Amherstview, ON","postal_code":"K7N 1N1"},{"pharmacy":"Costco Pharmacy","address":"100 Legend Court","city":"Ancaster, ON","postal_code":"L9K 1J3"},{"pharmacy":"Drugstore Pharmacy","address":"54 Wilson Street West","city":"Ancaster, ON","postal_code":"L9G 1N2"},{"pharmacy":"Rastin's Wilson St. Pharmacy","address":"323 Wilson Street East","city":"Ancaster, ON","postal_code":"L9G 4A8"},{"pharmacy":"Shoppers Drug Mart","address":"47 Wilson Street West","city":"Ancaster, ON","postal_code":"L9G 1N1"},{"pharmacy":"Sobeys Pharmacy","address":"977 Golf Links Road","city":"Ancaster, ON","postal_code":"L9K 1K1"},{"pharmacy":"Angus Borden Guardian Pharmacy","address":"6 River Drive, Unit 1","city":"Angus, ON","postal_code":"L0M 1B2"},{"pharmacy":"Excellent Care Pharmacy","address":"386 Daniel Street South","city":"Arnprior, ON","postal_code":"K7S 3G9"},{"pharmacy":"Rexall","address":"22 Baskin Drive East","city":"Arnprior, ON","postal_code":"K7S 3G8"},{"pharmacy":"Shoppers Drug Mart","address":"55 Elgin Street West","city":"Arnprior, ON","postal_code":"K7S 1N6"},{"pharmacy":"Walsh's IDA Pharmacy","address":"200 George Street","city":"Arthur, ON","postal_code":"N0G 1A0"},{"pharmacy":"Aurora IDA Pharmacy","address":"25 William Graham Drive, Unit B1","city":"Aurora, ON","postal_code":"L4G 3G3"},{"pharmacy":"Care Drugs","address":"24 Orchard Heights Boulevard, Unit 103","city":"Aurora, ON","postal_code":"L4G 3W3"},{"pharmacy":"Family Drug Mart","address":"9 Borealis Avenue, Unit 5","city":"Aurora, ON","postal_code":"L4G 0R5"},{"pharmacy":"Loblaw Pharmacy","address":"15900 Bayview Avenue","city":"Aurora, ON","postal_code":"L4G 7Y3"},{"pharmacy":"Pharmasave Aurora","address":"126 Wellington Street West, Unit 105","city":"Aurora, ON","postal_code":"L4G 2N9"},{"pharmacy":"Shoppers Drug Mart","address":"14729 Yonge Street","city":"Aurora, ON","postal_code":"L4G 1N1"},{"pharmacy":"Shoppers Drug Mart","address":"446 Hollandview Trail","city":"Aurora, ON","postal_code":"L4G 3H1"},{"pharmacy":"Sobeys Pharmacy","address":"15500 Bayview Avenue","city":"Aurora, ON","postal_code":"L4G 7J1"},{"pharmacy":"Wal-Mart Pharmacy","address":"135 First Commerce Drive","city":"Aurora, ON","postal_code":"L4G 0G2"},{"pharmacy":"Wellington Pharmacy","address":"300 Wellington Street East, Unit 2","city":"Aurora, ON","postal_code":"L4G 1J5"},{"pharmacy":"Wellness Clinical Pharmacy","address":"15450 Yonge Street, Unit 2","city":"Aurora, ON","postal_code":"L4G 0K1"},{"pharmacy":"Hills Clinic Pharmacy","address":"420 Talbot Street West","city":"Aylmer, ON","postal_code":"N5H 1K9"},{"pharmacy":"No Frills","address":"657 John Street","city":"Aylmer, ON","postal_code":"N5H 3J1"},{"pharmacy":"Baden Village Pharmacy","address":"18 Snyders Road, Unit 6A","city":"Baden, ON","postal_code":"N3A 0A7"},{"pharmacy":"North Hastings Family Pharmacy","address":"217 Hastings Street North","city":"Bancroft, ON","postal_code":"K0L 1C0"},{"pharmacy":"Shoppers Drug Mart","address":"118 Hastings Street North","city":"Bancroft, ON","postal_code":"K0L 1C0"},{"pharmacy":"Costco Pharmacy","address":"41 Maple View Drive East","city":"Barrie, ON","postal_code":"L4N 9A9"},{"pharmacy":"Drugstore Pharmacy","address":"620 Yonge Street","city":"Barrie, ON","postal_code":"L4N 4E5"},{"pharmacy":"Loblaw Pharmacy","address":"472 Bayfield Street","city":"Barrie, ON","postal_code":"L4M 5A2"},{"pharmacy":"Prohealth Pharmacy","address":"480 Mapleton Avenue, Unit 5","city":"Barrie, ON","postal_code":"L4N 9C2"},{"pharmacy":"Purehealth Pharmacy","address":"201 Georgian Drive","city":"Barrie, ON","postal_code":"L4M 6M2"},{"pharmacy":"Rexall","address":"353 Duckworth Street","city":"Barrie, ON","postal_code":"L4M 3X8"},{"pharmacy":"Rexall","address":"320 Bayfield Street","city":"Barrie, ON","postal_code":"L4M 3B9"},{"pharmacy":"Rexall Pharma Plus","address":"567 Essa Road","city":"Barrie, ON","postal_code":"L4N 6A9"},{"pharmacy":"Shoppers Drug Mart","address":"509 Bayfield Street, Unit C2","city":"Barrie, ON","postal_code":"L4M 4Z8"},{"pharmacy":"Shoppers Drug Mart","address":"524 Bayfield Street North","city":"Barrie, ON","postal_code":"L4M 5A2"},{"pharmacy":"Shoppers Drug Mart","address":"420 Essa Road","city":"Barrie, ON","postal_code":"L4N 9J7"},{"pharmacy":"Shoppers Drug Mart","address":"165 Wellington Street West","city":"Barrie, ON","postal_code":"L4N 1L7"},{"pharmacy":"Springwater Pharmacy","address":"1017 Carson Road","city":"Barrie, ON","postal_code":"L4M 0K1"},{"pharmacy":"Wal-Mart Pharmacy","address":"450 Bayfield Street","city":"Barrie, ON","postal_code":"L4M 5A2"},{"pharmacy":"Bath Family Pharmacy","address":"220 Main Street, Unit 1","city":"Bath, ON","postal_code":"K0H 1G0"},{"pharmacy":"Pharmasave Michael's Pharmacy","address":"2 Main Street South","city":"Bayfield, ON","postal_code":"N0M 1G0"},{"pharmacy":"Rexall","address":"4486 Ontario Street","city":"Beamsville, ON","postal_code":"L0R 1B5"},{"pharmacy":"Shoppers Drug Mart","address":"5005 Serena Drive","city":"Beamsville, ON","postal_code":"L0R 1B4"},{"pharmacy":"Drug Store Pharmacy","address":"30B Beaver Avenue","city":"Beaverton, ON","postal_code":"L0K 1A0"},{"pharmacy":"Bradys Drug Store Belle River","address":"190 Chisholm Street","city":"Belle River, ON","postal_code":"N0R 1A0"},{"pharmacy":"Shoppers Drug Mart","address":"330 Notre Dame Street","city":"Belle River, ON","postal_code":"N0R 1A0"},{"pharmacy":"Kelly's Drug Store","address":"411 Bridge Street East","city":"Belleville, ON","postal_code":"K8N 1P7"},{"pharmacy":"Metro Pharmacy","address":"110 North Front Street","city":"Belleville, ON","postal_code":"K8P 3B6"},{"pharmacy":"Pharma Xpress","address":"161 Bridge Street West","city":"Belleville, ON","postal_code":"K8P 1K2"},{"pharmacy":"Rexall","address":"173 Dundas Street East","city":"Belleville, ON","postal_code":"K8N 1C9"},{"pharmacy":"Rossmore Pharmacy","address":"5503 Highway 62 South","city":"Belleville, ON","postal_code":"K8N 0L5"},{"pharmacy":"Shoppers Drug Mart","address":"390 Front Street North","city":"Belleville, ON","postal_code":"K8P 3E1"},{"pharmacy":"Shoppers Drug Mart","address":"405 Dundas Street East","city":"Belleville, ON","postal_code":"K8N 1E7"},{"pharmacy":"Shoppers Drug Mart","address":"150 Sidney Street","city":"Belleville, ON","postal_code":"K8P 5E2"},{"pharmacy":"Belmont Pharmacy","address":"14091 Belmont Road","city":"Belmont, ON","postal_code":"N0L 1B0"},{"pharmacy":"Binbrook Pharmacy","address":"3011 Highway 56","city":"Binbrook, ON","postal_code":"L0R 1C0"},{"pharmacy":"Wellness Sheild","address":"14020 Old Scugog Road","city":"Blackstock, ON","postal_code":"L0B 1B0"},{"pharmacy":"Shoppers Drug Mart","address":"85 Bolton Street","city":"Bobcaygeon, ON","postal_code":"K0M 1A0"},{"pharmacy":"Village Gate Pharmasave","address":"101 East Street","city":"Bobcaygeon, ON","postal_code":"K0M 1A0"},{"pharmacy":"Bolton Pharmacy & Health Centre","address":"8 Queen Street North","city":"Bolton, ON","postal_code":"L7E 1C8"},{"pharmacy":"Rexall","address":"405 Queen Street South","city":"Bolton, ON","postal_code":"L7E 2B5"},{"pharmacy":"Shoppers Drug Mart","address":"1 Queensgate Boulevard","city":"Bolton, ON","postal_code":"L7E 2X7"},{"pharmacy":"Wal-Mart Pharmacy","address":"150 McEwan Drive East","city":"Bolton, ON","postal_code":"L7E 2Y3"},{"pharmacy":"Zehrs Markets","address":"487 Queen Street South","city":"Bolton, ON","postal_code":"L7E 2B4"},{"pharmacy":"Loblaw","address":"2375 Highway 2","city":"Bowmanville, ON","postal_code":"L1C 5A3"},{"pharmacy":"Metro Pharmacy","address":"243 King Street East","city":"Bowmanville, ON","postal_code":"L1C 3X1"},{"pharmacy":"Pharmasave Medicine Chest Pharmacy","address":"221 King Street East, Unit 2","city":"Bowmanville, ON","postal_code":"L1C 1P7"},{"pharmacy":"Shoppers Drug Mart","address":"2401 Highway 2, Unit 3","city":"Bowmanville, ON","postal_code":"L1C 4V4"},{"pharmacy":"Shoppers Drug Mart","address":"570 Longworth Avenue","city":"Bowmanville, ON","postal_code":"L1C 0H4"},{"pharmacy":"Rexall","address":"55 Highway 118 West","city":"Bracebridge, ON","postal_code":"P1L 1T2"},{"pharmacy":"Holland Street Pharmacy","address":"484 Holland Street West, Unit B3","city":"Bradford, ON","postal_code":"L3Z 0A2"},{"pharmacy":"Loblaw Pharmacy","address":"500 Holland Street West","city":"Bradford, ON","postal_code":"L3Z 0A2"},{"pharmacy":"Pharmalink IDA Phamracy","address":"456 Holland Street West, Unit 2","city":"Bradford, ON","postal_code":"L3Z 0G1"},{"pharmacy":"Pharmasave","address":"305 Barrie Street, Unit 6A","city":"Bradford, ON","postal_code":"L3Z 2B1"},{"pharmacy":"Rexall","address":"461 Holland Street West","city":"Bradford, ON","postal_code":"L3Z 0C1"},{"pharmacy":"Shoppers Drug Mart","address":"140 Holland Street West","city":"Bradford, ON","postal_code":"L3Z 1R7"},{"pharmacy":"Simcoe Square Pharmacy","address":"157 Holland Street East, Unit 9","city":"Bradford, ON","postal_code":"L3Z 2B2"},{"pharmacy":"Sobeys Pharmacy","address":"40 Melbourne Drive","city":"Bradford, ON","postal_code":"L3Z 2B1"},{"pharmacy":"Wal-Mart Pharmacy","address":"545 Holland Street West","city":"Bradford, ON","postal_code":"L3Z 0C1"},{"pharmacy":"BramCity Pharmasave","address":"14 Lisa Street","city":"Brampton, ON","postal_code":"L6T 4W2"},{"pharmacy":"Brameast Pharmacy","address":"2130 North Park Drive, Unit 43-44","city":"Brampton, ON","postal_code":"L6S 0C9"},{"pharmacy":"Brampton Community Pharmacy","address":"3975 Cottrelle Boulevard, Unit 12","city":"Brampton, ON","postal_code":"L6P 2P9"},{"pharmacy":"Bramqueen Pharmacy","address":"490 Bramalea Road, Unit 3","city":"Brampton, ON","postal_code":"L6T 0G1"},{"pharmacy":"Charlolais Pharmacy","address":"305 Charolais Boulevard","city":"Brampton, ON","postal_code":"L6Y 2R2"},{"pharmacy":"Copper Ridge IDA Pharmacy","address":"8015 Financial Drive, Unit B2","city":"Brampton, ON","postal_code":"L6Y 0B4"},{"pharmacy":"Costco Pharmacy","address":"100 Biscayne Crescent","city":"Brampton, ON","postal_code":"L6W 4S1"},{"pharmacy":"Credit Ridge Remedy’s Rx Pharmacy","address":"9525 Mississauga Road, Unit 7","city":"Brampton, ON","postal_code":"L6X 0Z8"},{"pharmacy":"Creditview IDA Pharmacy","address":"11210 Creditview Road, Unit D","city":"Brampton, ON","postal_code":"L7A 4X3"},{"pharmacy":"Cumberland Pharmacy","address":"131 Kennedy Road North, Unit 2","city":"Brampton, ON","postal_code":"L6V 1X9"},{"pharmacy":"Drug Store Pharmacy","address":"35 Worthington Avenue","city":"Brampton, ON","postal_code":"L7A 2Y7"},{"pharmacy":"Drugstore Pharmacy","address":"55 Mountainash Road","city":"Brampton, ON","postal_code":"L6R 1W4"},{"pharmacy":"Drugstore Pharmacy","address":"60 Quarry Edge Drive","city":"Brampton, ON","postal_code":"L6V 1K2"},{"pharmacy":"Dukh Bhanjan Pharmacy","address":"475 Charolais Boulevard, Unit B5","city":"Brampton, ON","postal_code":"L6Y 0M2"},{"pharmacy":"Father Tobin Pharmacy","address":"105 Father Tobin Road","city":"Brampton, ON","postal_code":"L6R 0W9"},{"pharmacy":"Freshco","address":"3998 Cottrelle Boulevard","city":"Brampton, ON","postal_code":"L6P 2R1"},{"pharmacy":"Gateway Medical Plex Pharmacy","address":"25 Gateway Boulevard","city":"Brampton, ON","postal_code":"L6T 0H8"},{"pharmacy":"Gore Pharmacy IDA","address":"4515 Ebenezer Road, Suite 110","city":"Brampton, ON","postal_code":"L6P 2K7"},{"pharmacy":"James Potter Road Pharmacy","address":"9715 James Potter Road, Unit 101","city":"Brampton, ON","postal_code":"L6X 3B9"},{"pharmacy":"Kensington Pharmacy","address":"18 Kensington Road","city":"Brampton, ON","postal_code":"L6T 4S5"},{"pharmacy":"Lacoste Pharmacy Pharmasave","address":"60 Lacoste Boulevard, Unit 104","city":"Brampton, ON","postal_code":"L6P 2K2"},{"pharmacy":"Lionhead Pharmacy","address":"8405 Financial Drive, Unit 5&6","city":"Brampton, ON","postal_code":"L6Y 1M1"},{"pharmacy":"Loblaw Pharmacy","address":"85 Steeles Avenue West","city":"Brampton, ON","postal_code":"L6Y 0K3"},{"pharmacy":"Metro Pharmacy","address":"20 Great Lakes Drive","city":"Brampton, ON","postal_code":"L6R 2K7"},{"pharmacy":"Metro Pharmacy","address":"25 Peel Centre Drive","city":"Brampton, ON","postal_code":"L6T 3R5"},{"pharmacy":"Midha Pharmacy Inc","address":"15 Fandor Way, Unit 1A","city":"Brampton, ON","postal_code":"L7A 4S2"},{"pharmacy":"No Frills","address":"295 Queen Street East","city":"Brampton, ON","postal_code":"L6W 3R1"},{"pharmacy":"No Frills","address":"70 Clementine Drive","city":"Brampton, ON","postal_code":"L6Y 0L8"},{"pharmacy":"Pharmasave Bovaird Spingdale","address":"2250 Bovaird Drive, Unit 101 & 102","city":"Brampton, ON","postal_code":"L6R 0W3"},{"pharmacy":"Potters Wheel Pharmacy","address":"10725 Mclaughlin Road, Unit 3","city":"Brampton, ON","postal_code":"L7A 3E5"},{"pharmacy":"Pulse Pharmacy","address":"11755 Bramalea Road, Unit 4","city":"Brampton, ON","postal_code":"L6R 3S9"},{"pharmacy":"Queen Hansen Pharmacy","address":"284 Queen Street East, Unit 116","city":"Brampton, ON","postal_code":"L6V 1C2"},{"pharmacy":"Rexall","address":"398 Queen Street West","city":"Brampton, ON","postal_code":"L6X 1B3"},{"pharmacy":"Rexall","address":"227 Vodden Street East","city":"Brampton, ON","postal_code":"L6V 1N2"},{"pharmacy":"Rexall","address":"2100 Bovaird Drive","city":"Brampton, ON","postal_code":"L6R 3J7"},{"pharmacy":"Rexall","address":"499 Main Street South","city":"Brampton, ON","postal_code":"L6Y 1N7"},{"pharmacy":"Rexall","address":"10035 Hurontario Street, Units 13-15","city":"Brampton, ON","postal_code":"L6Z 0E6"},{"pharmacy":"Rexall","address":"545 Steeles Avenue West, Unit A01","city":"Brampton, ON","postal_code":"L6Y 4E7"},{"pharmacy":"Shoppers Drug Mart","address":"180 Sandalwood Parkway","city":"Brampton, ON","postal_code":"L6Z 1Y4"},{"pharmacy":"Shoppers Drug Mart","address":"25 Peel Centre Drive, Unit 379","city":"Brampton, ON","postal_code":"L6T 3R5"},{"pharmacy":"Shoppers Drug Mart","address":"520 Charolais Boulevard","city":"Brampton, ON","postal_code":"L6Y 0R5"},{"pharmacy":"Shoppers Drug Mart","address":"25 Great Lakes Drive","city":"Brampton, ON","postal_code":"L6R 2S5"},{"pharmacy":"Shoppers Drug Mart","address":"49 Mountainash Road","city":"Brampton, ON","postal_code":"L6R 1W4"},{"pharmacy":"Shoppers Drug Mart","address":"930 North Park Drive","city":"Brampton, ON","postal_code":"L6S 3Y5"},{"pharmacy":"Shoppers Drug Mart","address":"980 Central Park Drive","city":"Brampton, ON","postal_code":"L6S 3L7"},{"pharmacy":"Shoppers Drug Mart","address":"10661 Chinguacousy Road, Bldg. C, Fletchers Meadow","city":"Brampton, ON","postal_code":"L7A 0N5"},{"pharmacy":"Shoppers Drug Mart","address":"10970 Airport Road","city":"Brampton, ON","postal_code":"L6R 0E1"},{"pharmacy":"Shoppers Drug Mart","address":"8965 Chinguacousy Road","city":"Brampton, ON","postal_code":"L6Y 0J2"},{"pharmacy":"Shoppers Drug Mart","address":"11965 Hurontario Street","city":"Brampton, ON","postal_code":"L6Z 4P7"},{"pharmacy":"Shoppers Drug Mart","address":"3938 Cottrelle Boulevard","city":"Brampton, ON","postal_code":"L6P 2R1"},{"pharmacy":"Shoppers Drug Mart","address":"1 Kennedy Road South","city":"Brampton, ON","postal_code":"L6W 3C9"},{"pharmacy":"Shoppers Drug Mart","address":"10088 McLaughlin Road","city":"Brampton, ON","postal_code":"L7A 2X6"},{"pharmacy":"Shoppers Drug Mart","address":"366 Main Street North","city":"Brampton, ON","postal_code":"L6V 1P8"},{"pharmacy":"Shoppers Drug Mart","address":"34 A Avondale Boulevard","city":"Brampton, ON","postal_code":"L6T 1H3"},{"pharmacy":"Shoppers Drug Mart","address":"10665 Bramalea Road","city":"Brampton, ON","postal_code":"L6R 3P4"},{"pharmacy":"Shoppers Drug Mart","address":"160 Main Street South","city":"Brampton, ON","postal_code":"L6W 2E1"},{"pharmacy":"Shoppers Simply Pharmacy","address":"380 Bovaird Drive East, Unit 26","city":"Brampton, ON","postal_code":"L6Z 2S8"},{"pharmacy":"Sobeys Pharmacy","address":"8975 Chinguacousy Road","city":"Brampton, ON","postal_code":"L6Y 0J2"},{"pharmacy":"Springdale Pharmacy","address":"630 Peter Robertson Boulevard","city":"Brampton, ON","postal_code":"L6R 1T4"},{"pharmacy":"Wal-Mart Pharmacy","address":"30 Coventry Road","city":"Brampton, ON","postal_code":"L6T 5P9"},{"pharmacy":"Wal-Mart Pharmacy","address":"5085 Mayfield Road","city":"Brampton, ON","postal_code":"L6R 3S9"},{"pharmacy":"Drugstore Pharmacy","address":"410 Fairview Drive","city":"Brantford, ON","postal_code":"N3R 7N7"},{"pharmacy":"Zehrs Markets","address":"290 King George Road","city":"Brantford, ON","postal_code":"N3R 5L8"},{"pharmacy":"Brechin Pharmacy","address":"2280 Highway 12","city":"Brechin, ON","postal_code":"L0K 1B0"},{"pharmacy":"Breslau Pharmacy & Wellness Centre","address":"11 Woolwich Street North","city":"Breslau, ON","postal_code":"N0B 1M0"},{"pharmacy":"Brighton Remedy's Rx","address":"24 Main Street","city":"Brighton, ON","postal_code":"K0K 2H0"},{"pharmacy":"Bright's Grove Family Pharmacy","address":"2670 New Lakeshore Road","city":"Brights Grove, ON","postal_code":"N0N 1C0"},{"pharmacy":"Parkedale Pharmacy","address":"2235 Parkedale Avenue","city":"Brockville, ON","postal_code":"K6V 6B2"},{"pharmacy":"Rexall","address":"30 Pearl Street West","city":"Brockville, ON","postal_code":"K6V 4B5"},{"pharmacy":"Shoppers Drug Mart","address":"2399 Parkdale Avenue, Unit 27","city":"Brockville, ON","postal_code":"K6V 3G9"},{"pharmacy":"Wal-Mart Pharmacy","address":"1942 Parkdale Avenue","city":"Brockville, ON","postal_code":"K6V 7N4"},{"pharmacy":"Shoppers Drug Mart","address":"5979 Baldwin Street South","city":"Brooklin, ON","postal_code":"L1M 2J7"},{"pharmacy":"Brussels Pharmacy","address":"453 Turnberry Street","city":"Brussels, ON","postal_code":"N0G 1H0"},{"pharmacy":"Brant Arts Dispensary","address":"672 Brant Street","city":"Burlington, ON","postal_code":"L7R 2H3"},{"pharmacy":"Costco Pharmacy","address":"1225 Brant Street","city":"Burlington, ON","postal_code":"L7P 1X7"},{"pharmacy":"Fortinos","address":"5111 New Street","city":"Burlington, ON","postal_code":"L7L 1V2"},{"pharmacy":"Fortinos","address":"2515 Appleby Line","city":"Burlington, ON","postal_code":"L7L 0B6"},{"pharmacy":"Fortinos","address":"2025 Guelph Line","city":"Burlington, ON","postal_code":"L7P 4M8"},{"pharmacy":"Metro Pharmacy","address":"2010 Appleby Line","city":"Burlington, ON","postal_code":"L7L 6M6"},{"pharmacy":"Millcroft Pharmacy","address":"2500 Appleby Line, Unit D10","city":"Burlington, ON","postal_code":"L7L 0A2"},{"pharmacy":"Mount Royal Pharmacy Ltd","address":"2047 Mount Forest Drive","city":"Burlington, ON","postal_code":"L7P 1H4"},{"pharmacy":"Mountainside Pharmacy","address":"1900 Walkers Line","city":"Burlington, ON","postal_code":"L7M 4W5"},{"pharmacy":"Plains Road West Pharmacy","address":"29 Plains Road West","city":"Burlington, ON","postal_code":"L7T 1E8"},{"pharmacy":"Rexall","address":"2400 Guelph Line","city":"Burlington, ON","postal_code":"L7P 4M7"},{"pharmacy":"Rexall","address":"2201 Brant Street","city":"Burlington, ON","postal_code":"L7P 3N8"},{"pharmacy":"Rexall","address":"5061 New Street","city":"Burlington, ON","postal_code":"L7L 1V2"},{"pharmacy":"Shoppers Drug Mart","address":"1450 Headon Road","city":"Burlington, ON","postal_code":"L7M 3Z5"},{"pharmacy":"Shoppers Drug Mart","address":"777 Guelph Line, Unit D001","city":"Burlington, ON","postal_code":"L7R 3N2"},{"pharmacy":"Shoppers Drug Mart","address":"2211 Brant Street","city":"Burlington, ON","postal_code":"L7P 0A1"},{"pharmacy":"Shoppers Drug Mart","address":"5353 Lakeshore Road","city":"Burlington, ON","postal_code":"L7L 1C8"},{"pharmacy":"Shoppers Drug Mart","address":"503 Plains Road East, Unit 501","city":"Burlington, ON","postal_code":"L7T 2E2"},{"pharmacy":"Shoppers Drug Mart","address":"3051 Walkers Line","city":"Burlington, ON","postal_code":"L7M 0W3"},{"pharmacy":"Shoppers Drug Mart","address":"3035 Appleby Line","city":"Burlington, ON","postal_code":"L7M 0V7"},{"pharmacy":"Shoppers Drug Mart","address":"2080 Appleby Line","city":"Burlington, ON","postal_code":"L7L 6M6"},{"pharmacy":"Shoppers Drug Mart","address":"4524 New Street","city":"Burlington, ON","postal_code":"L7L 2X8"},{"pharmacy":"Shoppers Drug Mart","address":"3023 New Street","city":"Burlington, ON","postal_code":"L7R 1K3"},{"pharmacy":"Sobeys Pharmacy","address":"1250 Brant Street","city":"Burlington, ON","postal_code":"L7P 1X8"},{"pharmacy":"Wal-Mart Pharmacy","address":"2065 Fairview Street","city":"Burlington, ON","postal_code":"L7R 0B4"},{"pharmacy":"Wal-Mart Pharmacy","address":"4515 Dundas Street West","city":"Burlington, ON","postal_code":"L7M 5B4"},{"pharmacy":"Pharmasave","address":"15955 Airport Road, Unit 102","city":"Caledon, ON","postal_code":"L7C 1H9"},{"pharmacy":"Southfields Pharmasave Pharm","address":"12531 Kennedy Road","city":"Caledon, ON","postal_code":"L7C 3T6"},{"pharmacy":"Bishop Pharmacy Pharmachoice","address":"1515 King Street East, Unit 111","city":"Cambridge, ON","postal_code":"N3H 3R6"},{"pharmacy":"Hespeler Pharmacy","address":"100 Jamieson Parkway, Unit 13","city":"Cambridge, ON","postal_code":"N3C 4B3"},{"pharmacy":"Langs Medical Pharmacy","address":"1145 Concession Road","city":"Cambridge, ON","postal_code":"N3H 4L5"},{"pharmacy":"Med Health Pharmacy","address":"614 Coronation Boulevard","city":"Cambridge, ON","postal_code":"N1R 3E8"},{"pharmacy":"Preston Medical Pharmacy","address":"125 Waterloo Street South","city":"Cambridge, ON","postal_code":"N3H 1N3"},{"pharmacy":"Rexall","address":"350 Conestoga Boulevard","city":"Cambridge, ON","postal_code":"N1R 7L7"},{"pharmacy":"Shoppers Drug Mart","address":"115 Dundas Street, Unit 1","city":"Cambridge, ON","postal_code":"N1R 5T8"},{"pharmacy":"Shoppers Drug Mart","address":"1500 King Street East","city":"Cambridge, ON","postal_code":"N3H 3R5"},{"pharmacy":"Wal-Mart Pharmacy","address":"22 Pinebush Road","city":"Cambridge, ON","postal_code":"N1R 8A9"},{"pharmacy":"Zehrs Markets","address":"400 Conestoga Boulevard","city":"Cambridge, ON","postal_code":"N1R 7L7"},{"pharmacy":"Zehrs Markets","address":"200 Franklin Boulevard","city":"Cambridge, ON","postal_code":"N1R 5S6"},{"pharmacy":"MacLaren Pharmacy","address":"79 Bridge Street East","city":"Campbellford, ON","postal_code":"K0L 1L0"},{"pharmacy":"Rx Drug Mart","address":"16 Grand Road","city":"Campbellford, ON","postal_code":"K0L 1L0"},{"pharmacy":"Campbellville Pharmacy","address":"35 Crawford Crescent","city":"Campbellville, ON","postal_code":"L0P 1B0"},{"pharmacy":"Rexall","address":"2100 Dundas Street","city":"Cardinal, ON","postal_code":"K0E 1E0"},{"pharmacy":"Carleton Place IDA Drug Mart","address":"47 Lansdowne Avenue","city":"Carleton Place, ON","postal_code":"K7C 3S9"},{"pharmacy":"Shoppers Drug Mart","address":"299 Lake Avenue East","city":"Carleton Place, ON","postal_code":"K7C 1J3"},{"pharmacy":"West Carlton Drug Mart","address":"461 Donald B. Munro Drive","city":"Carp, ON","postal_code":"K0A 1L0"},{"pharmacy":"Rexall","address":"401 St. Clair Street","city":"Chatham, ON","postal_code":"N7L 3K3"},{"pharmacy":"Shoppers Drug Mart","address":"420 Queen Street","city":"Chatham, ON","postal_code":"N7M 2J2"},{"pharmacy":"Coby Pharmacy","address":"Main Street 6662 Highway 35","city":"Coboconk, ON","postal_code":"K0M 1K0"},{"pharmacy":"Pharmacy 101","address":"464 Division Street","city":"Cobourg, ON","postal_code":"K9A 3S2"},{"pharmacy":"Shoppers Drug Mart","address":"270 Spring Street","city":"Cobourg, ON","postal_code":"K9A 3K2"},{"pharmacy":"Wal-Mart Pharmacy","address":"73 Strathy Road","city":"Cobourg, ON","postal_code":"K9A 5J7"},{"pharmacy":"Wallace Drug Store","address":"109 6th Avenue","city":"Cochrane, ON","postal_code":"P0L 1C0"},{"pharmacy":"Shoppers Drug Mart","address":"175 First Street","city":"Collingwood, ON","postal_code":"L9Y 1A5"},{"pharmacy":"Cookstown Pharmasave","address":"52 Queen Street West","city":"Cookstown, ON","postal_code":"L0L 1L0"},{"pharmacy":"FreshCo Pharmacy","address":"525 Ninth Street East","city":"Cornwall, ON","postal_code":"K6H 0A3"},{"pharmacy":"Shoppers Drug Mart","address":"1236 Brookdale Avenue","city":"Cornwall, ON","postal_code":"K6J 4P8"},{"pharmacy":"Courtice Pharmasave","address":"2727 Courtice Road","city":"Courtice, ON","postal_code":"L1E 3A2"},{"pharmacy":"Health Centre Pharmacy","address":"1450 Highway 2","city":"Courtice, ON","postal_code":"L1E 3C3"},{"pharmacy":"Shoppers Drug Mart","address":"1428 Highway 2","city":"Courtice, ON","postal_code":"L1E 2J5"},{"pharmacy":"Cahoon's Pharmacy","address":"95 Deep River Road","city":"Deep River, ON","postal_code":"K0J 1P0"},{"pharmacy":"Delaware Pharmacy","address":"11569 Longwoods Road","city":"Delaware, ON","postal_code":"N0L 1E0"},{"pharmacy":"Shoppers Drug Mart","address":"2300 Dorchester Road","city":"Dorchester, ON","postal_code":"N0L 1G3"},{"pharmacy":"Pharma Trust Drug Mart","address":"1935 Sheppard Avenue West","city":"Downsview, ON","postal_code":"M3L 1Y8"},{"pharmacy":"Drayton Pharmacy","address":"10 Wellington Street North","city":"Drayton, ON","postal_code":"N0G 1P0"},{"pharmacy":"Mactavish Pharmacy","address":"480 St. George Street","city":"Dresden, ON","postal_code":"N0P 1M0"},{"pharmacy":"Drumbo Pharmacy","address":"4 Wilmot Street North","city":"Drumbo, ON","postal_code":"N0J 1G0"},{"pharmacy":"Shoppers Drug Mart","address":"25 Duke Street","city":"Dryden, ON","postal_code":"P8N 1E6"},{"pharmacy":"Dundalk Village Pharmacy","address":"1 Main Street East","city":"Dundalk, ON","postal_code":"N0C 1B0"},{"pharmacy":"Pharmasave","address":"105 King Street West, Unit B","city":"Dundas, ON","postal_code":"L9H 1V1"},{"pharmacy":"Rexall","address":"60 Hatt Street","city":"Dundas, ON","postal_code":"L9H 7T6"},{"pharmacy":"Shoppers Drug Mart","address":"133 King Street West","city":"Dundas, ON","postal_code":"L9H 1V3"},{"pharmacy":"Shoppers Drug Mart","address":"101 Osler Drive, Unit 102","city":"Dundas, ON","postal_code":"L9H 4H4"},{"pharmacy":"Hausers Pharmacy","address":"140 Broad Street East","city":"Dunnville, ON","postal_code":"N1A 1E9"},{"pharmacy":"Rx Drug Mart","address":"207 Garafraxa Street North, Unit 203","city":"Durham, ON","postal_code":"N0G 1R0"},{"pharmacy":"Costco Pharmacy","address":"18182 Yonge Street","city":"East Gwillimbury, ON","postal_code":"L9N 0J3"},{"pharmacy":"I CARE Pharmacy Services","address":"2 Thorncliffe Park Drive, Unit 26-27","city":"East York, ON","postal_code":"M4H 1H2"},{"pharmacy":"Shoppers Drug Mart","address":"1601 Bayview Avenue","city":"East York, ON","postal_code":"M4G 3B5"},{"pharmacy":"Elgin Drugs","address":"14 Main Street","city":"Elgin, ON","postal_code":"K0G 1E0"},{"pharmacy":"Shoppers Drug Mart","address":"220 Ontario Avenue","city":"Elliot Lake, ON","postal_code":"P5A 1Y5"},{"pharmacy":"Shoppers Drug Mart","address":"11 Arthur Street North","city":"Elmira, ON","postal_code":"N3B 1Z4"},{"pharmacy":"Whitfield Guardian","address":"16 Queen Street West","city":"Elmvale, ON","postal_code":"L0L 1P0"},{"pharmacy":"Elora Apothecary","address":"115 Geddes Street, Unit B","city":"Elora, ON","postal_code":"N0B 1S0"},{"pharmacy":"Embrun Remedy's Rx","address":"753 Notre Dame Street","city":"Embrun, ON","postal_code":"K0A 1W0"},{"pharmacy":"Rexall","address":"123 Main Street","city":"Erin, ON","postal_code":"N0B 1T0"},{"pharmacy":"Brady's Drug Store","address":"186 Talbot Street South","city":"Essex, ON","postal_code":"N8M 1B6"},{"pharmacy":"Shoppers Drug Mart","address":"5 Talbot Street South","city":"Essex, ON","postal_code":"N8M 1A6"},{"pharmacy":"Clinicplus I.D.A. Pharmacy","address":"10 Neighbourhood Lane, Unit 103","city":"Etobicoke, ON","postal_code":"M8Y 0C5"},{"pharmacy":"Costco Pharmacy","address":"50 Queen Elizabeth Boulevard","city":"Etobicoke, ON","postal_code":"M8Z 1M1"},{"pharmacy":"Drug Store Pharmacy","address":"1530 Albion Road","city":"Etobicoke, ON","postal_code":"M9V 1B4"},{"pharmacy":"Fortinos","address":"330 Queens Plate Drive","city":"Etobicoke, ON","postal_code":"M9W 7J7"},{"pharmacy":"Glen Cade Pharmacy","address":"290 The West Mall","city":"Etobicoke, ON","postal_code":"M9C 1C6"},{"pharmacy":"Kipling & Queensway Pharmacy","address":"1255 The Queensway, Unit 20","city":"Etobicoke, ON","postal_code":"M8Z 1S1"},{"pharmacy":"Lakeside Pharmacy","address":"2438 Lake Shore Boulevard West","city":"Etobicoke, ON","postal_code":"M8V 1C4"},{"pharmacy":"Loblaws","address":"380 The East Mall","city":"Etobicoke, ON","postal_code":"M9B 6L5"},{"pharmacy":"Loblaws","address":"3671 Dundas Street West","city":"Etobicoke, ON","postal_code":"M6S 2T3"},{"pharmacy":"One Eva Pharmacy","address":"1 Eva Road","city":"Etobicoke, ON","postal_code":"M9C 4Z5"},{"pharmacy":"Rexall","address":"250 The East Mall","city":"Etobicoke, ON","postal_code":"M9B 3Y8"},{"pharmacy":"Rexall","address":"4890 Dundas Street West","city":"Etobicoke, ON","postal_code":"M9A 1B5"},{"pharmacy":"Shoppers Drug Mart","address":"415 The Westway","city":"Etobicoke, ON","postal_code":"M9R 1H5"},{"pharmacy":"Shoppers Drug Mart","address":"666 Burnhamthorpe Road","city":"Etobicoke, ON","postal_code":"M9C 2Z4"},{"pharmacy":"Shoppers Drug Mart","address":"270 The Kingsway","city":"Etobicoke, ON","postal_code":"M9A 3T7"},{"pharmacy":"Shoppers Drug Mart","address":"600 The East Mall, Unit 1","city":"Etobicoke, ON","postal_code":"M9B 4S1"},{"pharmacy":"Shoppers Drug Mart","address":"3730 Lake Shore Boulevard West, Unit 102","city":"Etobicoke, ON","postal_code":"M8W 1N6"},{"pharmacy":"Shoppers Drug Mart","address":"5230 Dundas Street West","city":"Etobicoke, ON","postal_code":"M9B 1A8"},{"pharmacy":"Shoppers Drug Mart","address":"3010 Bloor Street West","city":"Etobicoke, ON","postal_code":"M8X 1C2"},{"pharmacy":"Shoppers Drug Mart","address":"125 The Queensway","city":"Etobicoke, ON","postal_code":"M8Y 1H6"},{"pharmacy":"Shoppers Drug Mart","address":"2206 Lake Shore Boulevard West","city":"Etobicoke, ON","postal_code":"M8V 1A4"},{"pharmacy":"Shoppers Drug Mart","address":"123 Rexdale Boulevard","city":"Etobicoke, ON","postal_code":"M9W 1P1"},{"pharmacy":"The Drugstore Pharmcy","address":"220 Royal York Road","city":"Etobicoke, ON","postal_code":"M8V 2V7"},{"pharmacy":"Unicare Pharmacy","address":"3170 Lakeshore Boulevard West","city":"Etobicoke, ON","postal_code":"M8V 3X8"},{"pharmacy":"Wal-Mart Pharmacy","address":"165 North Queen Street","city":"Etobicoke, ON","postal_code":"M9C 1A7"},{"pharmacy":"Drug Store Pharmacy","address":"62 Thames Road East","city":"Exeter, ON","postal_code":"N0M 1S3"},{"pharmacy":"Exeter Guardian Pharmacy","address":"44 Thames Road East, Unit 38","city":"Exeter, ON","postal_code":"N0M 1S3"},{"pharmacy":"Fenelon Falls Pharmacy","address":"53 Colborne Street","city":"Fenelon Falls, ON","postal_code":"K0M 1N0"},{"pharmacy":"Shoppers Drug Mart","address":"710 Tower Street South","city":"Fergus, ON","postal_code":"N1M 2R3"},{"pharmacy":"Trailside Pharmacy","address":"6420 Beatty Line North, Suite 101","city":"Fergus, ON","postal_code":"N1M 2W3"},{"pharmacy":"Zehrs Markets","address":"800 Towers Street South","city":"Fergus, ON","postal_code":"N1M 2R3"},{"pharmacy":"Boggio Fonthill Pharmacy IDA","address":"155 Highway 20 West","city":"Fonthill, ON","postal_code":"L0S 1E0"},{"pharmacy":"Family Health Pharmacy Pelham","address":"130 Hwy 20, Unit A6","city":"Fonthill, ON","postal_code":"L0S 1E6"},{"pharmacy":"Shoppers Drug Mart","address":"20 Highway 20 East","city":"Fonthill, ON","postal_code":"L0S 1E0"},{"pharmacy":"Forest Pharmacy","address":"19 King Street West","city":"Forest, ON","postal_code":"N0N 1J0"},{"pharmacy":"Crescent Park Pharmacy","address":"1264 Garrison Road, Unit 5","city":"Fort Erie, ON","postal_code":"L2A 1P1"},{"pharmacy":"Rexall","address":"310 Garrison Road, Unit C","city":"Fort Erie, ON","postal_code":"L2A 1M7"},{"pharmacy":"Pharmasave Fort Frances","address":"140 Scott Street","city":"Fort Frances, ON","postal_code":"P9A 1G6"},{"pharmacy":"Shoppers Drug Mart","address":"615 King Street East","city":"Gananoque, ON","postal_code":"K7G 1H4"},{"pharmacy":"Georgetown Pharmacy","address":"118 Mill Street, Unit 101","city":"Georgetown, ON","postal_code":"L7G 2C5"},{"pharmacy":"Loblaw Pharmacy","address":"171 Guelph Street","city":"Georgetown, ON","postal_code":"L7G 4A1"},{"pharmacy":"Medtrust Pharmacy Pharmasave","address":"280 Guelph Street, Unit 23","city":"Georgetown, ON","postal_code":"L7G 4B1"},{"pharmacy":"Metro Pharmacy","address":"367 Mountainview Road South","city":"Georgetown, ON","postal_code":"L7G 5X3"},{"pharmacy":"Mountainview Guardian Pharmacy","address":"378 Mountainview Road South, Unit 11","city":"Georgetown, ON","postal_code":"L7G 0L5"},{"pharmacy":"Shoppers Drug Mart","address":"265 Guelph Street","city":"Georgetown, ON","postal_code":"L7G 4B3"},{"pharmacy":"Wal-Mart Pharmacy","address":"300 Guelph Street","city":"Georgetown, ON","postal_code":"L7G 4B1"},{"pharmacy":"Young's Pharmacy And Homecare","address":"47 Main Street South","city":"Georgetown, ON","postal_code":"L7G 3G2"},{"pharmacy":"Bridle Path Pharmacy","address":"4000 Bridle Path Drive, Unit 6","city":"Gloucester, ON","postal_code":"K1T 2C4"},{"pharmacy":"Costco Pharmacy","address":"1405 Blair Towers Place","city":"Gloucester, ON","postal_code":"K1J 1A5"},{"pharmacy":"Good Health Pharmasave","address":"4188 Spratt Road, Unit 2","city":"Gloucester, ON","postal_code":"K1V 0Z6"},{"pharmacy":"No Frills","address":"1226 Orleans Place Drive","city":"Gloucester, ON","postal_code":"K1C 1L2"},{"pharmacy":"Rexall","address":"1980 Ogilvie Road, Unit 144","city":"Gloucester, ON","postal_code":"K1J 9L3"},{"pharmacy":"Shoppers Drug Mart","address":"2638 Innes Road","city":"Gloucester, ON","postal_code":"K1B 4Z5"},{"pharmacy":"The Drug Store Pharmacy","address":"1619 Orleans Boulevard","city":"Gloucester, ON","postal_code":"K1C 7E2"},{"pharmacy":"Wal-Mart Pharmacy","address":"1980 Ogilvie Road, Unit 171","city":"Gloucester, ON","postal_code":"K1J 9L3"},{"pharmacy":"Your Independent Grocer","address":"671 River Road","city":"Gloucester, ON","postal_code":"K1V 2G2"},{"pharmacy":"Pharma Plus","address":"67 Kingston Street","city":"Goderich, ON","postal_code":"N7A 3K3"},{"pharmacy":"Pharmasave Michael's Pharmacy","address":"181 Cambria Road North","city":"Goderich, ON","postal_code":"N7A 2R2"},{"pharmacy":"Wal-Mart Pharmacy","address":"35400 Huron Road","city":"Goderich, ON","postal_code":"N7A 3X8"},{"pharmacy":"Zehrs Markets","address":"35400 Hurdon Road","city":"Goderich, ON","postal_code":"N7A 3X8"},{"pharmacy":"Golden Lake Pharmasave","address":"11188 Highway 60","city":"Golden Lake, ON","postal_code":"K0J 1X0"},{"pharmacy":"Shoppers Drug Mart","address":"65 Main Street East","city":"Grand Bend, ON","postal_code":"N0M 1T0"},{"pharmacy":"Gravenhurst IDA Pharmacy","address":"180 Brock Street","city":"Gravenhurst, ON","postal_code":"P1P 1X2"},{"pharmacy":"Real Canadian Superstore","address":"361 South Service Road","city":"Grimsby, ON","postal_code":"L3M 4E8"},{"pharmacy":"Shoppers Drug Mart","address":"150 Main Street East","city":"Grimsby, ON","postal_code":"L3M 1P1"},{"pharmacy":"Shoppers Drug Mart","address":"42 St. Andrews Avenue, Unit 1","city":"Grimsby, ON","postal_code":"L3M 3S2"},{"pharmacy":"Costco Pharmacy","address":"19 Elmira Road South","city":"Guelph, ON","postal_code":"N1K 0B6"},{"pharmacy":"Drugstore Pharmacy","address":"1045 Paisley Road","city":"Guelph, ON","postal_code":"N1K 1X6"},{"pharmacy":"Drugstore Pharmacy","address":"160 Kortright Road West","city":"Guelph, ON","postal_code":"N1G 4W2"},{"pharmacy":"Gordon Pharmasave Pharmacy","address":"1515 Gordon Street","city":"Guelph, ON","postal_code":"N1G 1X3"},{"pharmacy":"Kortright Pharmacy","address":"570 Kortright Road West","city":"Guelph, ON","postal_code":"N1G 3W8"},{"pharmacy":"Rexall","address":"265 Eramosa Road","city":"Guelph, ON","postal_code":"N1E 2M7"},{"pharmacy":"Rexall","address":"666 Woolwich Street, Unit 140","city":"Guelph, ON","postal_code":"N1H 7G5"},{"pharmacy":"Royal City Pharmacy","address":"84 Gordon Street","city":"Guelph, ON","postal_code":"N1H 4H6"},{"pharmacy":"Shoppers Drug Mart","address":"104 Silver Creek Parkway","city":"Guelph, ON","postal_code":"N1H 7B4"},{"pharmacy":"Shoppers Drug Mart","address":"7 Clair Road West","city":"Guelph, ON","postal_code":"N1L 0A6"},{"pharmacy":"University Square Pharmacy","address":"987 Gordon Street, Unit 8","city":"Guelph, ON","postal_code":"N1G 4W3"},{"pharmacy":"Wal-Mart Pharmacy","address":"11 Woodlawn Road West","city":"Guelph, ON","postal_code":"N1H 1G8"},{"pharmacy":"Westminster Square Remedy's Rx","address":"33 Farley Drive, Unit 4","city":"Guelph, ON","postal_code":"N1L 0B7"},{"pharmacy":"Zehrs Markets","address":"124 Clair Road East","city":"Guelph, ON","postal_code":"N1L 0G6"},{"pharmacy":"Zehrs Markets","address":"297 Eramosa Road","city":"Guelph, ON","postal_code":"N1E 2M7"},{"pharmacy":"Smallman Pharmacy","address":"368 Main Street","city":"Haileybury, ON","postal_code":"P0J 1K0"},{"pharmacy":"Rexall","address":"224 Highland Street","city":"Haliburton, ON","postal_code":"K0M 1S0"},{"pharmacy":"Shoppers Drug Mart","address":"186 Highland Street","city":"Haliburton, ON","postal_code":"K0M 1S0"},{"pharmacy":"Your Independent Grocer","address":"5121 County Road 21","city":"Haliburton, ON","postal_code":"K0M 1S0"},{"pharmacy":"Axis Health Care Plus Pharmacy","address":"1079 Barton Street East","city":"Hamilton, ON","postal_code":"L8L 3E2"},{"pharmacy":"Axis Health Care Plus Pharmacy","address":"908 Garth Street","city":"Hamilton, ON","postal_code":"L9C 4L2"},{"pharmacy":"First Place Pharmacy","address":"350 King Street East, Unit 117","city":"Hamilton, ON","postal_code":"L8N 3Y3"},{"pharmacy":"Food Basics Pharmacy","address":"751 Upper James Street","city":"Hamilton, ON","postal_code":"L9C 3A1"},{"pharmacy":"Fortinos","address":"75 Centennial Parkway North","city":"Hamilton, ON","postal_code":"L8E 2P2"},{"pharmacy":"Fortinos","address":"50 Dundurn Street","city":"Hamilton, ON","postal_code":"L8P 4W3"},{"pharmacy":"Loblaw Pharmacy","address":"1579 Main Street West","city":"Hamilton, ON","postal_code":"L8S 1E6"},{"pharmacy":"Marchese Pharmacy","address":"316 James Street North","city":"Hamilton, ON","postal_code":"L8L 1H2"},{"pharmacy":"Metro Pharmacy","address":"1161 Barton Street East","city":"Hamilton, ON","postal_code":"L8H 2V2"},{"pharmacy":"People's Pharmachoice","address":"30 Rymal Road East, Unit 4","city":"Hamilton, ON","postal_code":"L9B 1T7"},{"pharmacy":"Rexall","address":"447 Main Street East","city":"Hamilton, ON","postal_code":"L8N 1K1"},{"pharmacy":"Rexall","address":"126 Queenston Road","city":"Hamilton, ON","postal_code":"L8K 1G4"},{"pharmacy":"Rexall","address":"2 King Street West, Unit 18","city":"Hamilton, ON","postal_code":"L8P 1A1"},{"pharmacy":"Rexall","address":"505 Rymal Road East","city":"Hamilton, ON","postal_code":"L8W 3X1"},{"pharmacy":"Rexall","address":"640 Mohawk Road West, Unit 21","city":"Hamilton, ON","postal_code":"L9C 1X6"},{"pharmacy":"Rexall","address":"1395 Upper Ottawa Street","city":"Hamilton, ON","postal_code":"L8W 3L5"},{"pharmacy":"Rexall","address":"1119 Fennell Avenue","city":"Hamilton, ON","postal_code":"L8T 1S2"},{"pharmacy":"Rexall","address":"930 Upper Paradise Road 13","city":"Hamilton, ON","postal_code":"L9B 2N1"},{"pharmacy":"Rexall Dell Pharmacy","address":"730 Upper James Street","city":"Hamilton, ON","postal_code":"L9C 2Z9"},{"pharmacy":"Rymal Gage Pharmacy","address":"905 Rymal Road East, Unit 153","city":"Hamilton, ON","postal_code":"L8W 3M2"},{"pharmacy":"Sherman IDA Pharmacy","address":"675 Rymal Road East","city":"Hamilton, ON","postal_code":"L8W 1B5"},{"pharmacy":"Shoppers Drug Mart","address":"1411 Upper Sherman Avenue","city":"Hamilton, ON","postal_code":"L8W 1C4"},{"pharmacy":"Shoppers Drug Mart","address":"661 Upper James Street","city":"Hamilton, ON","postal_code":"L9C 5R8"},{"pharmacy":"Shoppers Drug Mart","address":"801 Mohawk Road West","city":"Hamilton, ON","postal_code":"L9C 6C2"},{"pharmacy":"Shoppers Drug Mart","address":"1341 Main Street West","city":"Hamilton, ON","postal_code":"L8S 1C6"},{"pharmacy":"Shoppers Drug Mart","address":"1300 Garth Street","city":"Hamilton, ON","postal_code":"L9C 4L7"},{"pharmacy":"Shoppers Drug Mart","address":"232 Cannon Street East","city":"Hamilton, ON","postal_code":"L8L 0A9"},{"pharmacy":"Shoppers Drug Mart","address":"75 Centennial Parkway North","city":"Hamilton, ON","postal_code":"L8E 2P2"},{"pharmacy":"Shoppers Drug Mart","address":"2110 Rymal Road East","city":"Hamilton, ON","postal_code":"L0R 1P0"},{"pharmacy":"Stonechurch Pharmacy","address":"25 Redmond Drive, Unit 3","city":"Hamilton, ON","postal_code":"L8W 3K7"},{"pharmacy":"Sutherland's Pharmacy Limited","address":"180 James Street South","city":"Hamilton, ON","postal_code":"L8P 4V1"},{"pharmacy":"Wal-Mart Pharmacy","address":"1115 Barton Street East","city":"Hamilton, ON","postal_code":"L8H 2V2"},{"pharmacy":"Wal-Mart Pharmacy","address":"675 Upper James Street","city":"Hamilton, ON","postal_code":"L9C 2Z5"},{"pharmacy":"Wal-Mart Pharmacy","address":"499 Mohawk Road East","city":"Hamilton, ON","postal_code":"L8V 4L7"},{"pharmacy":"Westmount Pharmacy","address":"723 Rymal Road West, Unit 200","city":"Hamilton, ON","postal_code":"L9B 2N9"},{"pharmacy":"Shoppers Drug Mart","address":"895 10th Street","city":"Hanover, ON","postal_code":"N4N 1S4"},{"pharmacy":"Shoppers Drug Mart","address":"69 King Street East","city":"Harrow, ON","postal_code":"N0R 1G0"},{"pharmacy":"Harrowsmith Pharmacy","address":"4937 Highway 38, Unit 2","city":"Harrowsmith, ON","postal_code":"K0H 1V0"},{"pharmacy":"Pharmacie Jean Coutu","address":"80 Main Street East","city":"Hawkesbury, ON","postal_code":"K6A 1A3"},{"pharmacy":"Shoppers Drug Mart","address":"51 King William Street","city":"Huntsville, ON","postal_code":"P1H 1G4"},{"pharmacy":"Your Independent Grocer","address":"131 Howland Drive","city":"Huntsville, ON","postal_code":"P1H 2P7"},{"pharmacy":"Ilderton Medical Pharmacy","address":"13187 Ilderton Road, Unit 1","city":"Ilderton, ON","postal_code":"N0M 2A0"},{"pharmacy":"Ingersoll Pharmasave","address":"19 King Street, Unit 1","city":"Ingersoll, ON","postal_code":"N5C 1G3"},{"pharmacy":"Ingersoll Remedy's Rx","address":"273 King Street West","city":"Ingersoll, ON","postal_code":"N5C 2K9"},{"pharmacy":"Shoppers Drug Mart","address":"120 Thames Street North","city":"Ingersoll, ON","postal_code":"N5C 4B1"},{"pharmacy":"Alcona Pharmacy","address":"1070 Innisfil Beach Road, Unit 14","city":"Innisfil, ON","postal_code":"L9S 4T9"},{"pharmacy":"Rexall Pharma Plus","address":"7975 Yonge Street","city":"Innisfil, ON","postal_code":"L9S 1A8"},{"pharmacy":"Sandycove Drug Store","address":"902 Lockhart Road, Unit 3","city":"Innisfil, ON","postal_code":"L9S 4V2"},{"pharmacy":"Inverary Pharmasave","address":"3810 Perth Road, Unit 1B","city":"Inverary, ON","postal_code":"K0H 1X0"},{"pharmacy":"Eustace Pharmasave","address":"936 Lake Drive East","city":"Jackson's Point, ON","postal_code":"L0E 1L0"},{"pharmacy":"Costco Pharmacy","address":"770 Silver Seven Road","city":"Kanata, ON","postal_code":"K2V 1A5"},{"pharmacy":"Kanata Compounding Pharmacy","address":"150 Katimavik Road, Unit 46 Level 1","city":"Kanata, ON","postal_code":"K2L 2N2"},{"pharmacy":"Kanata Pharmasave","address":"99 Kakulu Road, Unit 101","city":"Kanata, ON","postal_code":"K2L 3C8"},{"pharmacy":"Real Canadian Superstore","address":"760 Eagleson Road","city":"Kanata, ON","postal_code":"K2M 0A7"},{"pharmacy":"Rexall","address":"832 March Road","city":"Kanata, ON","postal_code":"K2W 0C9"},{"pharmacy":"Rexall","address":"300 Eagleson Road","city":"Kanata, ON","postal_code":"K2M 1C9"},{"pharmacy":"Rexall","address":"4048 Carling Avenue","city":"Kanata, ON","postal_code":"K2K 1Y1"},{"pharmacy":"Shoppers Drug Mart","address":"680 Eagleson Road","city":"Kanata, ON","postal_code":"K2M 2G9"},{"pharmacy":"Shoppers Drug Mart","address":"499 Terry Fox Drive, Unit 10","city":"Kanata, ON","postal_code":"K2T 1H7"},{"pharmacy":"Sobeys Pharmacy","address":"840 March Road","city":"Kanata, ON","postal_code":"K2K 1X7"},{"pharmacy":"Sobeys Pharmacy","address":"700 Terry Fox Drive","city":"Kanata, ON","postal_code":"K2L 4H4"},{"pharmacy":"Wal-Mart Pharmacy","address":"5357 Fernbank Road","city":"Kanata, ON","postal_code":"K2S 0T7"},{"pharmacy":"Rexall","address":"142 Progress Crescent","city":"Kapuskasing, ON","postal_code":"P5N 3H6"},{"pharmacy":"Kemptville Drugmart","address":"2600 Highway 43, Unit 19-20","city":"Kemptville, ON","postal_code":"K0G 1J0"},{"pharmacy":"Shoppers Drug Mart","address":"2727 Country Road 43","city":"Kemptville, ON","postal_code":"K0G 1J0"},{"pharmacy":"Wal-Mart Pharmacy","address":"340 Colonnade Drive","city":"Kemptville, ON","postal_code":"K0G 1J0"},{"pharmacy":"Your Independent Grocer","address":"2600 Hwy 43 West, Unit 1","city":"Kemptville, ON","postal_code":"K0G 1J0"},{"pharmacy":"Loblaw Pharmacy","address":"538 Park Street","city":"Kenora, ON","postal_code":"P9N 1A1"},{"pharmacy":"DrugSmart Pharmacy","address":"234 Dovedale Drive","city":"Keswick, ON","postal_code":"L4P 0H3"},{"pharmacy":"Rexall","address":"76 Arlington Drive, Unit C","city":"Keswick, ON","postal_code":"L4P 0A9"},{"pharmacy":"Shoppers Drug Mart","address":"411 The Queensway South","city":"Keswick, ON","postal_code":"L4P 2C7"},{"pharmacy":"Wal-Mart Pharmacy","address":"23550 Woodbine Avenue","city":"Keswick, ON","postal_code":"L4P 3E9"},{"pharmacy":"Zehrs Markets","address":"24018 Woodbine Avenue","city":"Keswick, ON","postal_code":"L4P 3E9"},{"pharmacy":"Gordon Pharmasave","address":"767 Queen Street","city":"Kincardine, ON","postal_code":"N2Z 2Z4"},{"pharmacy":"Mckechnie Pharmacy","address":"1201 Queen Street","city":"Kincardine, ON","postal_code":"N2Z 3C1"},{"pharmacy":"Rexall","address":"1116 Sutton Street","city":"Kincardine, ON","postal_code":"N2Z 2C6"},{"pharmacy":"King City Guardian Drugs","address":"1700 King Road, Unit 27","city":"King City, ON","postal_code":"L7B 0N1"},{"pharmacy":"Shoppers Drug Mart","address":"2140 King Road","city":"King City, ON","postal_code":"L7B 1L5"},{"pharmacy":"Amherstview Drugs","address":"4499 Bath Road","city":"Kingston, ON","postal_code":"K7N 1A6"},{"pharmacy":"Barriefield Pharmasave","address":"760 Highway 15, Unit 13","city":"Kingston, ON","postal_code":"K7L 0C3"},{"pharmacy":"CATP Kingston","address":"7 Hickson Avenue","city":"Kingston, ON","postal_code":"K7K 2N4"},{"pharmacy":"Clinic Pharmacy","address":"76 Stuart Street","city":"Kingston, ON","postal_code":"K7L 2V7"},{"pharmacy":"Costco Pharmacy","address":"1015 Centennial Drive","city":"Kingston, ON","postal_code":"K7P 3B7"},{"pharmacy":"Division Pharmacy","address":"472 Division Street, Unit 2","city":"Kingston, ON","postal_code":"K7K 4B1"},{"pharmacy":"FreshCo Pharmacy Princess","address":"2327 Princess Street","city":"Kingston, ON","postal_code":"K7M 3G1"},{"pharmacy":"Frontenac Medical Pharmacy","address":"789 Princess Street","city":"Kingston, ON","postal_code":"K7L 1E9"},{"pharmacy":"Gardiner's Pharmasave","address":"500 Gardiners Road","city":"Kingston, ON","postal_code":"K7M 7W9"},{"pharmacy":"Loblaws","address":"1048 Midland Avenue","city":"Kingston, ON","postal_code":"K7P 2X9"},{"pharmacy":"Loblaws","address":"1100 Princess Street","city":"Kingston, ON","postal_code":"K7L 5G8"},{"pharmacy":"Lovell Drugs","address":"166 Brock Street","city":"Kingston, ON","postal_code":"K7L 3E2"},{"pharmacy":"Med+ Pharmacy","address":"277 Bath Road","city":"Kingston, ON","postal_code":"K7M 2X6"},{"pharmacy":"Medical Arts Pharmacy","address":"800 Princess Street","city":"Kingston, ON","postal_code":"K7L 5E4"},{"pharmacy":"Medical Tree","address":"795 Gardiners Road, Unit 6","city":"Kingston, ON","postal_code":"K7M 7E6"},{"pharmacy":"Milford Pharmacy","address":"728 Milford Drive","city":"Kingston, ON","postal_code":"K7P 1C6"},{"pharmacy":"Nofrills","address":"1162 Division Street","city":"Kingston, ON","postal_code":"K7K 0C3"},{"pharmacy":"Nofrills","address":"1030 Coverdale Drive","city":"Kingston, ON","postal_code":"K7M 8X7"},{"pharmacy":"Peters Drugs PharmaChoice","address":"640 King Street West","city":"Kingston, ON","postal_code":"K7M 2E5"},{"pharmacy":"Rexall","address":"240 Montreal Street","city":"Kingston, ON","postal_code":"K7K 3G8"},{"pharmacy":"Rexall","address":"1036 Princess Street","city":"Kingston, ON","postal_code":"K7L 1H2"},{"pharmacy":"Rexall","address":"817 Edgar Street","city":"Kingston, ON","postal_code":"K7M 8Y4"},{"pharmacy":"Shoppers Drug Mart","address":"945 Gardiners Road, Unit L074","city":"Kingston, ON","postal_code":"K7M 7H4"},{"pharmacy":"Shoppers Drug Mart","address":"797 Princess Street","city":"Kingston, ON","postal_code":"K7L 1G1"},{"pharmacy":"Shoppers Drug Mart","address":"105 Sutherland Drive","city":"Kingston, ON","postal_code":"K7K 5V6"},{"pharmacy":"Shoppers Drug Mart","address":"775 Strand Boulevard","city":"Kingston, ON","postal_code":"K7P 2S7"},{"pharmacy":"Shoppers Drug Mart","address":"1011 Princess Street","city":"Kingston, ON","postal_code":"K7L 1H3"},{"pharmacy":"Shoppers Drug Mart","address":"2437 Princess Street, Unit 100","city":"Kingston, ON","postal_code":"K7M 3G1"},{"pharmacy":"Shoppers Drug Mart","address":"136 Princess Street","city":"Kingston, ON","postal_code":"K7L 1A7"},{"pharmacy":"Shoppers Drug Mart","address":"445 Princess Street","city":"Kingston, ON","postal_code":"K7L 1C3"},{"pharmacy":"Shoppers Drug Mart","address":"1875 Bath Road","city":"Kingston, ON","postal_code":"K7M 4Y3"},{"pharmacy":"Shoppers Drug Mart","address":"823 Highway 15","city":"Kingston, ON","postal_code":"K7L 4V3"},{"pharmacy":"Shoppers Drug Mart","address":"1201 Division Street","city":"Kingston, ON","postal_code":"K7K 6X4"},{"pharmacy":"Wal-Mart Pharmacy","address":"1130 Midland Avenue","city":"Kingston, ON","postal_code":"K7P 2X9"},{"pharmacy":"Weller Pharmacy","address":"263 Weller Avenue, Unit  2","city":"Kingston, ON","postal_code":"K7K 2V4"},{"pharmacy":"Kingsville IDA Pharmacy","address":"271 Main Street East","city":"Kingsville, ON","postal_code":"N9Y 1A7"},{"pharmacy":"Shoppers Drug Mart","address":"370 Main Street East","city":"Kingsville, ON","postal_code":"N9Y 0C1"},{"pharmacy":"Zehrs","address":"300 Main Street South","city":"Kingsville, ON","postal_code":"N9Y 3S9"},{"pharmacy":"Kirkland Pharmacy","address":"38 Government Road West","city":"Kirkland Lake, ON","postal_code":"P2N 2E2"},{"pharmacy":"Belgage Pharmacy","address":"525 Belmont Avenue West, Unit 211","city":"Kitchener, ON","postal_code":"N2M 5E2"},{"pharmacy":"Cook's Pharmacy","address":"1450 Block Line Road, Unit 201","city":"Kitchener, ON","postal_code":"N2C 0A5"},{"pharmacy":"Costco Pharmacy","address":"4438 King Street East","city":"Kitchener, ON","postal_code":"N2P 2G4"},{"pharmacy":"Country Hills Pharmacy","address":"153 Country Hill Drive, Unit 5","city":"Kitchener, ON","postal_code":"N2E 2G7"},{"pharmacy":"Doon Mills Pharmacy","address":"260 Doon South Drive, Unit 4","city":"Kitchener, ON","postal_code":"N2P 2L8"},{"pharmacy":"Fairway Lackner Pharmacy","address":"900 Fairway Crescent, Unit 5","city":"Kitchener, ON","postal_code":"N2A 0A1"},{"pharmacy":"Food Basics Pharmacy","address":"370 Highland Road West","city":"Kitchener, ON","postal_code":"N2M 3C7"},{"pharmacy":"Food Basics Pharmacy","address":"655 Fairway Road South","city":"Kitchener, ON","postal_code":"N2C 1X4"},{"pharmacy":"Food Basics Pharmacy","address":"1405 Ottawa Street North","city":"Kitchener, ON","postal_code":"N2A 1H3"},{"pharmacy":"Frederick Mall Pharmacy","address":"385 Frederick Street, Unit 15","city":"Kitchener, ON","postal_code":"N2H 2P2"},{"pharmacy":"Pharmasave","address":"1144 Courtland Avenue East","city":"Kitchener, ON","postal_code":"N2C 2H5"},{"pharmacy":"Real Canadian Superstore","address":"875 Highland Road West","city":"Kitchener, ON","postal_code":"N2N 2Y2"},{"pharmacy":"Rexall","address":"537 Frederick Street","city":"Kitchener, ON","postal_code":"N2B 2A7"},{"pharmacy":"Rexall","address":"851 Fischer-Hallman Road","city":"Kitchener, ON","postal_code":"N2M 5J8"},{"pharmacy":"Rexall","address":"324 Highland Road West","city":"Kitchener, ON","postal_code":"N2M 5G2"},{"pharmacy":"Rexall","address":"1405 Ottawa Street North, Unit 16","city":"Kitchener, ON","postal_code":"N2A 3Z1"},{"pharmacy":"Rockway Pharmacy","address":"815 Weber Street East, Unit 5","city":"Kitchener, ON","postal_code":"N2H 1H5"},{"pharmacy":"Shoppers Drug Mart","address":"563 Highland Road West","city":"Kitchener, ON","postal_code":"N2M 5K2"},{"pharmacy":"Shoppers Drug Mart","address":"310 Fairway Road South","city":"Kitchener, ON","postal_code":"N2C 1X3"},{"pharmacy":"Shoppers Drug Mart","address":"123 Pioneer Drive","city":"Kitchener, ON","postal_code":"N2P 2A3"},{"pharmacy":"Shoppers Drug Mart","address":"235 Ira Needles Boulevard","city":"Kitchener, ON","postal_code":"N2N 0B2"},{"pharmacy":"Sobeys Pharmacy","address":"1187 Fischer Hallman Road","city":"Kitchener, ON","postal_code":"N2E 4H9"},{"pharmacy":"Wal-Mart Pharmacy","address":"1400 Ottawa Street South","city":"Kitchener, ON","postal_code":"N2E 4E2"},{"pharmacy":"Wal-Mart Pharmacy","address":"2960 Kingsway Drive","city":"Kitchener, ON","postal_code":"N2C 1X1"},{"pharmacy":"Williamsburg Pharmacy","address":"1187 Fischer Hallman Road, Unit 440","city":"Kitchener, ON","postal_code":"N2E 4H9"},{"pharmacy":"Zehrs Markets","address":"1375 Weber Street East","city":"Kitchener, ON","postal_code":"N2A 2Y7"},{"pharmacy":"Zehrs Markets","address":"750 Ottawa Street South","city":"Kitchener, ON","postal_code":"N2E 1B6"},{"pharmacy":"Komoka Pharmacy","address":"9952 Glendon Drive, Unit 3","city":"Komoka, ON","postal_code":"N0L 1R0"},{"pharmacy":"Rexall","address":"5881 Malden Road","city":"LaSalle, ON","postal_code":"N9H 1S5"},{"pharmacy":"Rob's Whole Health Pharmacy","address":"1765 Sprucewood, Unit 250","city":"LaSalle, ON","postal_code":"N9J 1X7"},{"pharmacy":"Shoppers Drug Mart","address":"2125 Front Road","city":"LaSalle, ON","postal_code":"N9J 2C1"},{"pharmacy":"Shoppers Drug Mart","address":"6020 Malden Road","city":"LaSalle, ON","postal_code":"N9H 1S8"},{"pharmacy":"Zehrs","address":"5890 Malden Road","city":"LaSalle, ON","postal_code":"N9H 1S4"},{"pharmacy":"Sobeys Pharmacy Lakeshore","address":"19 Amy Croft Drive","city":"Lakeshore, ON","postal_code":"N9K 1C7"},{"pharmacy":"Central Drug Mart Pharmachoice","address":"250 Erie Street South","city":"Leamington, ON","postal_code":"N8H 3C2"},{"pharmacy":"Real Canadian Superstore","address":"201 Talbot Street East","city":"Leamington, ON","postal_code":"N8H 3X5"},{"pharmacy":"Shoppers Drug Mart","address":"269 Erie Street South","city":"Leamington, ON","postal_code":"N8H 3C4"},{"pharmacy":"Wal-Mart Pharmacy","address":"288 Erie Street South","city":"Leamington, ON","postal_code":"N8H 3C5"},{"pharmacy":"Kawartha Lakes Pharmacy","address":"55 Angeline Street North, Unit 4A","city":"Lindsay, ON","postal_code":"K9V 5B7"},{"pharmacy":"Loblaw","address":"400 Kent Street West","city":"Lindsay, ON","postal_code":"K9V 6K2"},{"pharmacy":"Pharma Plus","address":"401 Kent Street West","city":"Lindsay, ON","postal_code":"K9V 4Z1"},{"pharmacy":"R.X Drug Mart","address":"51 Kent Street West","city":"Lindsay, ON","postal_code":"K9V 2X9"},{"pharmacy":"Rexall Pharma Plus","address":"86 Angeline Street South","city":"Lindsay, ON","postal_code":"K9V 6C5"},{"pharmacy":"Shoppers Drug Mart","address":"343 Kent Street West, Unit 341","city":"Lindsay, ON","postal_code":"K9B 2Z7"},{"pharmacy":"Listowel Remedy's Rx","address":"600 Mitchell Road","city":"Listowel, ON","postal_code":"N4W 3T1"},{"pharmacy":"Walden Family Drugstore","address":"135 Regional Road 24, Unit 14","city":"Lively, ON","postal_code":"P3Y 1J1"},{"pharmacy":"Bellwood Pharmacy","address":"900 Oxford Street East, Unit 14B","city":"London, ON","postal_code":"N5Y 5A1"},{"pharmacy":"Costco Pharmacy","address":"4313 Wellington Road South","city":"London, ON","postal_code":"N6E 2Z8"},{"pharmacy":"Costco Pharmacy","address":"693 Wonderland Road North","city":"London, ON","postal_code":"N6H 4L1"},{"pharmacy":"Coulter's Guardian Pharmacy","address":"1709 Dundas Street","city":"London, ON","postal_code":"N5W 3E1"},{"pharmacy":"Dini IDA Pharmacy","address":"785 Wonderland Road South, Unit C2","city":"London, ON","postal_code":"N6K 1M6"},{"pharmacy":"Loblaw","address":"3040 Wonderland Road South","city":"London, ON","postal_code":"N6L 1A6"},{"pharmacy":"Medpoint Care Pharmacy","address":"355 Wellington Street, Unit 169","city":"London, ON","postal_code":"N6A 3N7"},{"pharmacy":"No Frills","address":"635 Southdale Road East","city":"London, ON","postal_code":"N6E 3W6"},{"pharmacy":"No Frills","address":"599 Fanshawe Park Road West","city":"London, ON","postal_code":"N6G 5B3"},{"pharmacy":"No Frills","address":"7 Baseline Road East","city":"London, ON","postal_code":"N6C 5Z8"},{"pharmacy":"Real Canadian Superstore","address":"825 Oxford Street East","city":"London, ON","postal_code":"N5Y 3J8"},{"pharmacy":"Rexall","address":"1505 Highbury Avenue North","city":"London, ON","postal_code":"N5Y 0A9"},{"pharmacy":"Rexall","address":"1795 Ernest Avenue","city":"London, ON","postal_code":"N6E 2V5"},{"pharmacy":"Rexall","address":"1375 Beaverbrook Avenue","city":"London, ON","postal_code":"N6H 0J1"},{"pharmacy":"Rexall","address":"1593 Adelaide Street North","city":"London, ON","postal_code":"N5X 4E8"},{"pharmacy":"Rexall","address":"740 Hyde Park Road","city":"London, ON","postal_code":"N6H 5W9"},{"pharmacy":"Rexall","address":"1240 Commissioners Road West","city":"London, ON","postal_code":"N6K 1C7"},{"pharmacy":"Shoppers Drug Mart","address":"759 Adelaide Street North","city":"London, ON","postal_code":"N5Y 2L7"},{"pharmacy":"Shoppers Drug Mart","address":"301 Oxford Street West","city":"London, ON","postal_code":"N6H 1S6"},{"pharmacy":"Shoppers Drug Mart","address":"467 Wharncliffe Road South","city":"London, ON","postal_code":"N6J 2M8"},{"pharmacy":"Shoppers Drug Mart","address":"142 Clarke Road","city":"London, ON","postal_code":"N5W 5E1"},{"pharmacy":"Shoppers Drug Mart","address":"1105 Wellington Road","city":"London, ON","postal_code":"N6E 1V4"},{"pharmacy":"Shoppers Drug Mart","address":"431 Richmond Street, Unit 100","city":"London, ON","postal_code":"N6A 6E2"},{"pharmacy":"Shoppers Drug Mart","address":"1186 Oxford Street West","city":"London, ON","postal_code":"N6H 2N2"},{"pharmacy":"Shoppers Drug Mart","address":"1680 Richmond Street North, Unit L104","city":"London, ON","postal_code":"N6G 3Y9"},{"pharmacy":"Shoppers Drug Mart","address":"1365 Huron Street","city":"London, ON","postal_code":"N5V 2E3"},{"pharmacy":"Shoppers Drug Mart","address":"510 Hamilton Road","city":"London, ON","postal_code":"N5Z 1S4"},{"pharmacy":"Shoppers Drug Mart","address":"1657 Dundas Street East","city":"London, ON","postal_code":"N5W 3C6"},{"pharmacy":"Shoppers Drug Mart","address":"1224 Commissioners Road West","city":"London, ON","postal_code":"N6K 1C7"},{"pharmacy":"Shoppers Drug Mart","address":"1118 Adelaide Street North","city":"London, ON","postal_code":"N5Y 2N5"},{"pharmacy":"Shoppers Drug Mart","address":"603 Fanshawe Park Road West","city":"London, ON","postal_code":"N6G 5B3"},{"pharmacy":"Shoppers Drug Mart","address":"3090 Colonel Talbot Road","city":"London, ON","postal_code":"N6P 0B3"},{"pharmacy":"TMC Pharmacy","address":"990 Gainsborough Road","city":"London, ON","postal_code":"N6H 5L4"},{"pharmacy":"Wal-Mart Pharmacy","address":"1105 Wellington Road South","city":"London, ON","postal_code":"N6E 1V4"},{"pharmacy":"Wal-Mart Pharmacy","address":"1280 Fanshawe Park Road West","city":"London, ON","postal_code":"N6G 5B1"},{"pharmacy":"Wal-Mart Pharmacy","address":"330 Clarke Road","city":"London, ON","postal_code":"N5W 6G4"},{"pharmacy":"Lucknow Pharmasave","address":"622 Campbell Street","city":"Lucknow, ON","postal_code":"N0G 2H0"},{"pharmacy":"Wal-Mart Pharmacy","address":"7333 Goreway Drive","city":"Malton, ON","postal_code":"L4T 2T8"},{"pharmacy":"Paul's Pharmasave","address":"990 River Road","city":"Manotick, ON","postal_code":"K4M 1B9"},{"pharmacy":"Rexall","address":"1160 Beaverwood Road","city":"Manotick, ON","postal_code":"K4M 1A3"},{"pharmacy":"Drugcare Pharmacy","address":"2563 Major Mackenzie Drive, Unit 10","city":"Maple, ON","postal_code":"L6A 2E8"},{"pharmacy":"Shoppers Drug Mart","address":"2943 Major Mackenzie Drive","city":"Maple, ON","postal_code":"L6A 3N9"},{"pharmacy":"Shoppers Drug Mart","address":"2266 Major Mackenzie Drive","city":"Maple, ON","postal_code":"L6A 3Y7"},{"pharmacy":"Shoppers Drug Mart","address":"9980 Dufferin Street","city":"Maple, ON","postal_code":"L6A 4K5"},{"pharmacy":"Markdale Pharmacy","address":"29 Toronto Street North","city":"Markdale, ON","postal_code":"N0C 1H0"},{"pharmacy":"Costco Pharmacy","address":"1 Yorktech Drive","city":"Markham, ON","postal_code":"L6G 1A6"},{"pharmacy":"Costco Pharmacy","address":"65 Kirkham Drive","city":"Markham, ON","postal_code":"L3S 0A9"},{"pharmacy":"Dales Pharmacy","address":"377 Church Street","city":"Markham, ON","postal_code":"L6B 1A1"},{"pharmacy":"Drug Store Pharmacy","address":"9305 Highway 48","city":"Markham, ON","postal_code":"L6E 0E6"},{"pharmacy":"Focus Drug Mart","address":"3000 Highway 7 East","city":"Markham, ON","postal_code":"L3R 6E1"},{"pharmacy":"Freshco Pharmacy","address":"9580 McCowan Road","city":"Markham, ON","postal_code":"L3P 3J3"},{"pharmacy":"Hillcroft Pharmacy","address":"5 Hillcroft Drive, Unit 7","city":"Markham, ON","postal_code":"L3S 1R7"},{"pharmacy":"Loblaw","address":"200 Bullock Drive","city":"Markham, ON","postal_code":"L3P 1W2"},{"pharmacy":"Markham Healthplex Pharmacy","address":"5995 14th Avenue, Unit A2B","city":"Markham, ON","postal_code":"L3S 0A2"},{"pharmacy":"Morelli's Pharmacy","address":"98 Copper Creek Drive","city":"Markham, ON","postal_code":"L6B 0P2"},{"pharmacy":"No Frills","address":"7075 Markham Road","city":"Markham, ON","postal_code":"L3S 3J9"},{"pharmacy":"No Frills","address":"8601 Warden Avenue","city":"Markham, ON","postal_code":"L3R 0B5"},{"pharmacy":"Pharmagreen Pharmacy","address":"10 Greensborough Village Circle, Unit 11","city":"Markham, ON","postal_code":"L6E 1M4"},{"pharmacy":"Rexall","address":"90 Copper Creek Drive","city":"Markham, ON","postal_code":"L6B 0P2"},{"pharmacy":"Rexall Guardian Markhamack Pharnacy","address":"9889 Highway 48, Unit 7","city":"Markham, ON","postal_code":"L6E 0B7"},{"pharmacy":"Safa Pharmacy","address":"16A Main Street North","city":"Markham, ON","postal_code":"L3P 1X2"},{"pharmacy":"Shoppers Drug Mart","address":"5762 Highway 7, Unit 1","city":"Markham, ON","postal_code":"L3P 1A8"},{"pharmacy":"Shoppers Drug Mart","address":"5000 Highway 7 East, Unit 2015","city":"Markham, ON","postal_code":"L3R 4M9"},{"pharmacy":"Shoppers Drug Mart","address":"1661 Denison Street, Unit T13","city":"Markham, ON","postal_code":"L3R 6E4"},{"pharmacy":"Shoppers Drug Mart","address":"7700 Markham Road","city":"Markham, ON","postal_code":"L3S 3K5"},{"pharmacy":"Shoppers Drug Mart","address":"9255 Woodbine Avenue","city":"Markham, ON","postal_code":"L6C 1Y9"},{"pharmacy":"Shoppers Drug Mart","address":"8601 Warden Avenue","city":"Markham, ON","postal_code":"L3R 8W3"},{"pharmacy":"Shoppers Drug Mart","address":"7060 Warden Avenue","city":"Markham, ON","postal_code":"L3R 5Y2"},{"pharmacy":"Shoppers Drug Mart","address":"1730 Bur Oak Avenue","city":"Markham, ON","postal_code":"L6E 0H8"},{"pharmacy":"Shoppers Drug Mart","address":"2920 Major MacKenzie Drive East","city":"Markham, ON","postal_code":"L6C 0G6"},{"pharmacy":"Swan Lake Pharmacy","address":"5 Swan Lake Boulevard","city":"Markham, ON","postal_code":"L6E 0K7"},{"pharmacy":"Wal-Mart Pharmacy","address":"5000 Highway 7","city":"Markham, ON","postal_code":"L3R 4M9"},{"pharmacy":"Wal-Mart Pharmacy","address":"500 Copper Creek Drive","city":"Markham, ON","postal_code":"L6B 0S1"},{"pharmacy":"Nickle's Pharmacy","address":"26 Forsyth Street","city":"Marmora, ON","postal_code":"K0K 2M0"},{"pharmacy":"Merrickville Drug Mart","address":"112 Wellington Street East","city":"Merrickville, ON","postal_code":"K0G 1N0"},{"pharmacy":"Arcade And Jory Guardian Pharmacy","address":"286 King Street","city":"Midland, ON","postal_code":"L4R 3M6"},{"pharmacy":"Real Canadian Superstore","address":"9292 Highway 93","city":"Midland, ON","postal_code":"L4R 4K4"},{"pharmacy":"Shoppers Drug Mart","address":"9186 Highway 93","city":"Midland, ON","postal_code":"L4R 4K4"},{"pharmacy":"Holly Pharmacy","address":"611 Holly Avenue, Unit 104","city":"Milton, ON","postal_code":"L9T 0R3"},{"pharmacy":"Metro Pharmacy","address":"1050 Kennedy Circle","city":"Milton, ON","postal_code":"L9T 0J9"},{"pharmacy":"Miltowne Pharmacy","address":"311 Commercial Street, Unit 210","city":"Milton, ON","postal_code":"L9T 3Z9"},{"pharmacy":"Origins Pharmacy Milton","address":"725 Bronte Street South, Units 2 & 3","city":"Milton, ON","postal_code":"L9T 9K1"},{"pharmacy":"Real Canadian Superstore","address":"820 Main Street East","city":"Milton, ON","postal_code":"L9T 0J4"},{"pharmacy":"Rexall","address":"6541 Derry Road","city":"Milton, ON","postal_code":"L9T 7W1"},{"pharmacy":"Shoppers Drug Mart","address":"75 Nipissing Road","city":"Milton, ON","postal_code":"L9T 1R3"},{"pharmacy":"Shoppers Drug Mart","address":"1020 Kennedy Circle","city":"Milton, ON","postal_code":"L9T 0J9"},{"pharmacy":"Shoppers Drug Mart","address":"6951 Derry Road West","city":"Milton, ON","postal_code":"L9T 7H5"},{"pharmacy":"Shoppers Drug Mart","address":"265 Main Street East, Unit 104","city":"Milton, ON","postal_code":"L9T 1P1"},{"pharmacy":"Sobeys Pharmacy","address":"1035 Bronte Street South","city":"Milton, ON","postal_code":"L9T 8X3"},{"pharmacy":"Total Health Pharmacy","address":"470 Bronte Street South","city":"Milton, ON","postal_code":"L9T 2J4"},{"pharmacy":"Wal-Mart Pharmacy","address":"1280 Steeles Avenue East","city":"Milton, ON","postal_code":"L9T 6R1"},{"pharmacy":"Apple-Hills Medical Pharmacy","address":"1221 Bloor Street East","city":"Mississauga, ON","postal_code":"L4Y 2N8"},{"pharmacy":"Carl's IDA Pharmacy","address":"1207 Hurontario Street","city":"Mississauga, ON","postal_code":"L5G 3H2"},{"pharmacy":"Costco Pharmacy","address":"1570 Dundas Street East","city":"Mississauga, ON","postal_code":"L4X 1L4"},{"pharmacy":"Costco Pharmacy","address":"3180 Laird Road","city":"Mississauga, ON","postal_code":"L5L 6A2"},{"pharmacy":"Costco Pharmacy","address":"5900 Rodeo Drive","city":"Mississauga, ON","postal_code":"L5R 3S9"},{"pharmacy":"Dixie 5 Pharmacy","address":"1185 Dundas Street East","city":"Mississauga, ON","postal_code":"L4Y 2C6"},{"pharmacy":"Drug Store Pharmacy","address":"1250 South Service Road","city":"Mississauga, ON","postal_code":"L5E 1V4"},{"pharmacy":"Drugstore Pharmacy","address":"3050 Argentia Road","city":"Mississauga, ON","postal_code":"L5N 8E1"},{"pharmacy":"Erin Mills IDA Pharmacy","address":"4099 Erin Mills Parkway","city":"Mississauga, ON","postal_code":"L5L 3P9"},{"pharmacy":"Erindale Medical Pharmacy","address":"1101 Mcbride Avenue","city":"Mississauga, ON","postal_code":"L5C 1M6"},{"pharmacy":"Extra Mile Pharmacy","address":"2980 Crosscurrent Drive, Unit 6","city":"Mississauga, ON","postal_code":"L5N 7C7"},{"pharmacy":"Grand Park Pharmacy","address":"719 Central Parkway West, Unit 207","city":"Mississauga, ON","postal_code":"L5B 4L1"},{"pharmacy":"Green Bay Pharmacy & Medical Centre","address":"3015 Winston Churchill Boulevard, Unit 101A","city":"Mississauga, ON","postal_code":"L5L 2V8"},{"pharmacy":"Heritage Hills Pharmacy","address":"4646 Heritage Hills Boulevard, Unit 9-10","city":"Mississauga, ON","postal_code":"L5R 1Y4"},{"pharmacy":"Hooper's Pharmacy","address":"88 Lakeshore Road East","city":"Mississauga, ON","postal_code":"L5G 1E1"},{"pharmacy":"J. C. Pharmacy","address":"888 Dundas Street East, Unit B4-2","city":"Mississauga, ON","postal_code":"L4Y 4G6"},{"pharmacy":"King Medical Arts Pharmacy","address":"71 King Street West","city":"Mississauga, ON","postal_code":"L5B 4A2"},{"pharmacy":"Loblaw","address":"5970 Mclaughlin Road","city":"Mississauga, ON","postal_code":"L5R 3X9"},{"pharmacy":"Loblaw","address":"5010 Glen Erin Drive","city":"Mississauga, ON","postal_code":"L5M 6J3"},{"pharmacy":"Loblaw Pharmacy","address":"250 Lakeshore Road West","city":"Mississauga, ON","postal_code":"L5H 1G3"},{"pharmacy":"Meadowvale Pharmacy","address":"6750 Winston Churchill Boulevard, Unit 9A","city":"Mississauga, ON","postal_code":"L5N 4C4"},{"pharmacy":"Metro Pharmacy","address":"910 Southdown Road","city":"Mississauga, ON","postal_code":"L5G 2Y4"},{"pharmacy":"Metro Pharmacy","address":"2225 Erin Mills Parkway","city":"Mississauga, ON","postal_code":"L5K 1T9"},{"pharmacy":"Metro Pharmacy","address":"3221 Derry Road West","city":"Mississauga, ON","postal_code":"L5N 7L7"},{"pharmacy":"NKS Health","address":"130 Dundas Street East, Unit 500","city":"Mississauga, ON","postal_code":"L5A 3V8"},{"pharmacy":"No Frills","address":"2150 Burnhamthorpe Road","city":"Mississauga, ON","postal_code":"L5L 3A2"},{"pharmacy":"No Frills","address":"620 Eglinton Avenue West","city":"Mississauga, ON","postal_code":"L5R 3V2"},{"pharmacy":"No Frills","address":"6085 Creditview Road","city":"Mississauga, ON","postal_code":"L5V 2A8"},{"pharmacy":"Pharmasave Erin Creek Pharmacy","address":"6400 Millcreek Drive","city":"Mississauga, ON","postal_code":"L5N 3E7"},{"pharmacy":"Professional Medical Pharmacy","address":"1420 Burnhamthorpe Road East, Unit 101","city":"Mississauga, ON","postal_code":"L4X 2Z9"},{"pharmacy":"Real Canadian Superstore","address":"3045 Mavis Road","city":"Mississauga, ON","postal_code":"L5C 1T7"},{"pharmacy":"Rexall","address":"3010 Thomas Street","city":"Mississauga, ON","postal_code":"L5M 0R4"},{"pharmacy":"Rexall","address":"3221 Derry Road West, Unit 16","city":"Mississauga, ON","postal_code":"L5N 7L7"},{"pharmacy":"Rexall","address":"1375 Southdown Road, Unit 1","city":"Mississauga, ON","postal_code":"L5J 2Z1"},{"pharmacy":"Rexall","address":"377 Burnamthorpe Road East","city":"Mississauga, ON","postal_code":"L5A 3Y1"},{"pharmacy":"Rexall","address":"1240 Eglinton Avenue West, Unit B7","city":"Mississauga, ON","postal_code":"L5V 1N3"},{"pharmacy":"Rexall","address":"3100 Dixie Road","city":"Mississauga, ON","postal_code":"L4Y 2A0"},{"pharmacy":"Rexall","address":"6045 Creditview Road, Unit F001","city":"Mississauga, ON","postal_code":"L5V 2A8"},{"pharmacy":"Shoppers Drug Mart","address":"100 City Centre Drive, Unit 1","city":"Mississauga, ON","postal_code":"L5B 2C9"},{"pharmacy":"Shoppers Drug Mart","address":"1891 Rathburn Road East","city":"Mississauga, ON","postal_code":"L4W 3Z3"},{"pharmacy":"Shoppers Drug Mart","address":"6040 Glen Erin Drive","city":"Mississauga, ON","postal_code":"L5N 3M4"},{"pharmacy":"Shoppers Drug Mart","address":"3476 Glen Erin Drive","city":"Mississauga, ON","postal_code":"L5L 3R4"},{"pharmacy":"Shoppers Drug Mart","address":"1077 North Service Road","city":"Mississauga, ON","postal_code":"L4Y 1A6"},{"pharmacy":"Shoppers Drug Mart","address":"1125 Bloor Street East","city":"Mississauga, ON","postal_code":"L4Y 2N6"},{"pharmacy":"Shoppers Drug Mart","address":"321 Lakeshore Road West","city":"Mississauga, ON","postal_code":"L5H 1G9"},{"pharmacy":"Shoppers Drug Mart","address":"3163 Winston Churchill Boulevard","city":"Mississauga, ON","postal_code":"L5L 2W1"},{"pharmacy":"Shoppers Drug Mart","address":"920 Southdown Road","city":"Mississauga, ON","postal_code":"L5J 2Y4"},{"pharmacy":"Shoppers Drug Mart","address":"128 Queen Street South","city":"Mississauga, ON","postal_code":"L5M 1K8"},{"pharmacy":"Shoppers Drug Mart","address":"5100 Erin Mills Parkway","city":"Mississauga, ON","postal_code":"L5M 4Z5"},{"pharmacy":"Shoppers Drug Mart","address":"2000 Credit Valley Road","city":"Mississauga, ON","postal_code":"L5M 4N4"},{"pharmacy":"Shoppers Drug Mart","address":"700 Burnhamthorpe Road East","city":"Mississauga, ON","postal_code":"L4Y 2X3"},{"pharmacy":"Shoppers Drug Mart","address":"579A Lakeshore Road East","city":"Mississauga, ON","postal_code":"L5G 1H9"},{"pharmacy":"Shoppers Drug Mart","address":"2225 Erin Mills Parkway","city":"Mississauga, ON","postal_code":"L5K 1T9"},{"pharmacy":"Shoppers Drug Mart","address":"1585 Mississauga Valley Boulevard","city":"Mississauga, ON","postal_code":"L5A 3W9"},{"pharmacy":"Shoppers Drug Mart","address":"5035 Hurontario Street","city":"Mississauga, ON","postal_code":"L4Z 3X7"},{"pharmacy":"Shoppers Drug Mart","address":"4141 Dixie Road","city":"Mississauga, ON","postal_code":"L4W 1V5"},{"pharmacy":"Shoppers Drug Mart","address":"7205 Goreway Drive","city":"Mississauga, ON","postal_code":"L4T 2T9"},{"pharmacy":"Shoppers Drug Mart","address":"7235 Bellshire Gate","city":"Mississauga, ON","postal_code":"L5N 8A2"},{"pharmacy":"Shoppers Drug Mart","address":"720 Bristol Road West","city":"Mississauga, ON","postal_code":"L5R 4A3"},{"pharmacy":"Shoppers Drug Mart","address":"3029 Clayhill Road","city":"Mississauga, ON","postal_code":"L5B 4L2"},{"pharmacy":"Shoppers Drug Mart","address":"2470 Hurontario Street","city":"Mississauga, ON","postal_code":"L5B 0H2"},{"pharmacy":"Shoppers Drug Mart","address":"3980 Grand Park Drive","city":"Mississauga, ON","postal_code":"L5B 4M6"},{"pharmacy":"Shoppers Drug Mart","address":"7070 Mclaughlin Road","city":"Mississauga, ON","postal_code":"L5W 1W7"},{"pharmacy":"Shoppers Drug Mart","address":"5425 Creditview Road, Unit 1","city":"Mississauga, ON","postal_code":"L5V 2P3"},{"pharmacy":"Shoppers Drug Mart","address":"5602 Tenth Line West, Unit 101","city":"Mississauga, ON","postal_code":"L5M 5S5"},{"pharmacy":"Shoppers Drug Mart","address":"6975 Meadowvale Town Centre Circle","city":"Mississauga, ON","postal_code":"L5N 2W7"},{"pharmacy":"Shoppers Simply Pharmacy","address":"3530 Derry Road East","city":"Mississauga, ON","postal_code":"L4T 4E3"},{"pharmacy":"Sobeys Pharmacy","address":"5602 Tenth Line West","city":"Mississauga, ON","postal_code":"L5M 7L9"},{"pharmacy":"Surecare Pharmacy","address":"2575 Dundas Street West, Unit 15","city":"Mississauga, ON","postal_code":"L5K 2M6"},{"pharmacy":"Truscott Pharmacy","address":"2425 Truscott Drive","city":"Mississauga, ON","postal_code":"L5J 2B4"},{"pharmacy":"Unicare Pharmacy Of Mississauga","address":"325 Central Parkway West, Unit 29","city":"Mississauga, ON","postal_code":"L5B 3X9"},{"pharmacy":"Village Square Pharmacy","address":"10 Main Street","city":"Mississauga, ON","postal_code":"L5M 1X3"},{"pharmacy":"Wal-Mart Pharmacy","address":"800 Matheson Boulevard West","city":"Mississauga, ON","postal_code":"L5V 2N6"},{"pharmacy":"Wal-Mart Pharmacy","address":"2160 Burnamthorpe Road West","city":"Mississauga, ON","postal_code":"L5L 5Z5"},{"pharmacy":"Wal-Mart Pharmacy","address":"3155 Argentia Road","city":"Mississauga, ON","postal_code":"L5N 8E1"},{"pharmacy":"Wal-Mart Pharmacy","address":"5100 Erin Mills Parkway","city":"Mississauga, ON","postal_code":"L5M 4Z5"},{"pharmacy":"Wal-Mart Pharmacy","address":"100 City Centre Drive","city":"Mississauga, ON","postal_code":"L5B 2C9"},{"pharmacy":"Walmart","address":"1500 Dundas Street East","city":"Mississauga, ON","postal_code":"L4X 1L4"},{"pharmacy":"Wellness Healthcare Pharmacy","address":"1170 Burnhamthorpe Road West, Unit 8","city":"Mississauga, ON","postal_code":"L5C 4E6"},{"pharmacy":"Woodland Village Pharmacy","address":"3353 The Credit Woodlands","city":"Mississauga, ON","postal_code":"L5C 2K1"},{"pharmacy":"Walther's IDA Pharmacy","address":"40 Ontario Road","city":"Mitchell, ON","postal_code":"N0K 1N0"},{"pharmacy":"Walsh's IDA Pharmacy Mount Forest","address":"129 Main Street South","city":"Mount Forest, ON","postal_code":"N0G 2L0"},{"pharmacy":"Pharmasave","address":"77 Anishnabeg Drive","city":"Muncey, ON","postal_code":"N0L 1Y0"},{"pharmacy":"Nofrills","address":"450 Centre Street North","city":"Napanee, ON","postal_code":"K7R 1P8"},{"pharmacy":"Rexall","address":"470 Centre Street North","city":"Napanee, ON","postal_code":"K7R 1P8"},{"pharmacy":"Shoppers Drug Mart","address":"10 Alkenbrack Street, Unit 2","city":"Napanee, ON","postal_code":"K7R 0A6"},{"pharmacy":"Wal-Mart Pharmacy","address":"89 Jim Kimmett Boulevard","city":"Napanee, ON","postal_code":"K7R 3L1"},{"pharmacy":"Pharmacie Medici Pharmacy","address":"1200 Colonial Road, Unit 100","city":"Navan, ON","postal_code":"K4B 1J5"},{"pharmacy":"Cedarview Guardian Pharmacy","address":"4100 Strandherd Drive, Unit 112","city":"Nepean, ON","postal_code":"K2J 0V2"},{"pharmacy":"Centrepointe Gabriel Drugs","address":"117 Centrepointe Drive","city":"Nepean, ON","postal_code":"K2G 5X3"},{"pharmacy":"Costco Pharmacy","address":"4315 Strandherd Drive","city":"Nepean, ON","postal_code":"K2J 6E5"},{"pharmacy":"Loblaw Pharmacy","address":"200 Grant Carman Drive","city":"Nepean, ON","postal_code":"K2E 7Z8"},{"pharmacy":"Loblaw Pharmacy","address":"1980 Baseline Road","city":"Nepean, ON","postal_code":"K2C 0C6"},{"pharmacy":"Rexall","address":"1363B Woodroffe Avenue","city":"Nepean, ON","postal_code":"K2G 1V7"},{"pharmacy":"Rexall","address":"2144 Robertson Road","city":"Nepean, ON","postal_code":"K2H 5Z1"},{"pharmacy":"Rexall","address":"900 Greenbank Road","city":"Nepean, ON","postal_code":"K2J 1S8"},{"pharmacy":"Shoppers Drug Mart","address":"181 Greenbank Road","city":"Nepean, ON","postal_code":"K2H 5V6"},{"pharmacy":"Shoppers Drug Mart","address":"3151 Strandherd Drive","city":"Nepean, ON","postal_code":"K2J 5N1"},{"pharmacy":"Shoppers Drug Mart","address":"3781 Strandherd Drive","city":"Nepean, ON","postal_code":"K2J 5M4"},{"pharmacy":"The Drug Store Pharmacy","address":"59A Robertson Road","city":"Nepean, ON","postal_code":"K2H 5Y9"},{"pharmacy":"Wal-Mart Pharmacy","address":"100 Bayshore Drive, Unit 10","city":"Nepean, ON","postal_code":"K2B 8C1"},{"pharmacy":"Wal-Mart Pharmacy","address":"3651 Strandherd Drive","city":"Nepean, ON","postal_code":"K2J 4G8"},{"pharmacy":"Your Independent Grocer","address":"3777 Strandherd Drive","city":"Nepean, ON","postal_code":"K2J 4B1"},{"pharmacy":"No Frills","address":"1540 Haysville Road","city":"New Hamburg, ON","postal_code":"N3A 0A2"},{"pharmacy":"Findlay's Drugstore","address":"247 Whitewood Avenue","city":"New Liskeard, ON","postal_code":"P0J 1P0"},{"pharmacy":"Shoppers Drug Mart","address":"1 King Avenue East","city":"Newcastle, ON","postal_code":"L1B 1H3"},{"pharmacy":"Wilmot Creek Pharmacy","address":"1 Wheelhouse Drive, Unit 2","city":"Newcastle, ON","postal_code":"L1B 1B9"},{"pharmacy":"Dixon Medical Pharmacy","address":"531 Davis Drive, Unit 106","city":"Newmarket, ON","postal_code":"L3Y 6P5"},{"pharmacy":"Loblaw Pharmacy","address":"18120 Yonge Street","city":"Newmarket, ON","postal_code":"L3Y 8V1"},{"pharmacy":"Metro Pharmacy","address":"1111 Davis Drive","city":"Newmarket, ON","postal_code":"L3Y 8X2"},{"pharmacy":"Mulock Medical Pharmacy","address":"16700 Bayview Avenue","city":"Newmarket, ON","postal_code":"L3X 1W1"},{"pharmacy":"New Care Pharmacy","address":"17730 Leslie Street","city":"Newmarket, ON","postal_code":"L3Y 3E4"},{"pharmacy":"Newmarket Pharmacy","address":"130 Davis Drive, Unit 24","city":"Newmarket, ON","postal_code":"L3Y 2N1"},{"pharmacy":"Rexall","address":"16900 Yonge Street","city":"Newmarket, ON","postal_code":"L3Y 0A3"},{"pharmacy":"Robins Pharmacy","address":"191 Main Street","city":"Newmarket, ON","postal_code":"L3Y 4X1"},{"pharmacy":"Shoppers Drug Mart","address":"665 Stone Haven Avenue","city":"Newmarket, ON","postal_code":"L3X 2G2"},{"pharmacy":"Shoppers Drug Mart","address":"20 Davis Drive","city":"Newmarket, ON","postal_code":"L3Y 2M7"},{"pharmacy":"Shoppers Drug Mart","address":"1111 Davis Drive","city":"Newmarket, ON","postal_code":"L3Y 8X2"},{"pharmacy":"Total Health Pharmacy","address":"17725 Yonge Street, Unit 8","city":"Newmarket, ON","postal_code":"L3Y 7C1"},{"pharmacy":"Wal-Mart Pharmacy","address":"17940 Yonge Street","city":"Newmarket, ON","postal_code":"L3Y 8S4"},{"pharmacy":"Wal-Mart Pharmacy","address":"1111 Davis Drive","city":"Newmarket, ON","postal_code":"L3Y 8X2"},{"pharmacy":"Boggio & Mackinnon Pharmacy","address":"6680 Drummond Road","city":"Niagara Falls, ON","postal_code":"L2G 4P1"},{"pharmacy":"Costco Pharmacy","address":"7500 Pin Oak Drive","city":"Niagara Falls, ON","postal_code":"L2H 2E9"},{"pharmacy":"Falls Pharmacy","address":"6635 Drummond Road","city":"Niagara Falls, ON","postal_code":"L2G 4N4"},{"pharmacy":"Food Basics Pharmacy","address":"3770 Montrose Road","city":"Niagara Falls, ON","postal_code":"L2H 3K3"},{"pharmacy":"Rexall","address":"6484 Lundy's Lane","city":"Niagara Falls, ON","postal_code":"L2G 1T6"},{"pharmacy":"Shoppers Drug Mart","address":"6565 Lundy's Lane","city":"Niagara Falls, ON","postal_code":"L2G 1V1"},{"pharmacy":"Shoppers Drug Mart","address":"5125 Montrose Road","city":"Niagara Falls, ON","postal_code":"L2H 1K7"},{"pharmacy":"Shoppers Drug Mart","address":"3701 Portage Road, Unit 1","city":"Niagara Falls, ON","postal_code":"L2J 2K8"},{"pharmacy":"Wal-Mart Pharmacy","address":"7481 Oakwood Drive","city":"Niagara Falls, ON","postal_code":"L2E 6S5"},{"pharmacy":"Zehrs Markets","address":"6940 Morrison Street","city":"Niagara Falls, ON","postal_code":"L2E 7K5"},{"pharmacy":"Simpson's Apothecary","address":"233 King Street, Unit 2","city":"Niagara On The Lake, ON","postal_code":"L0S 1J0"},{"pharmacy":"Nobleton Guardian Pharmacy","address":"12931 Highway 27","city":"Nobleton, ON","postal_code":"L0G 1N0"},{"pharmacy":"Northern Shores Pharmacy","address":"10 Maplewood Avenue","city":"North Bay, ON","postal_code":"P1B 5H2"},{"pharmacy":"Shoppers Drug Mart","address":"2025 Cassells Street","city":"North Bay, ON","postal_code":"P1B 4E1"},{"pharmacy":"Wal-Mart Pharmacy","address":"1500 Fisher Street","city":"North Bay, ON","postal_code":"P1B 2H3"},{"pharmacy":"North Gower Pharmacy","address":"2333 Church Street, Unit 7","city":"North Gower, ON","postal_code":"K0A 2T0"},{"pharmacy":"Aria Pharmacy","address":"11 Newton Drive","city":"North York, ON","postal_code":"M2M 2M6"},{"pharmacy":"Costco Pharmacy","address":"100 Billy Bishop Way","city":"North York, ON","postal_code":"M3K 2C8"},{"pharmacy":"Dynasty Pharmacy","address":"5460 Yonge Street, Unit 106","city":"North York, ON","postal_code":"M2N 6K7"},{"pharmacy":"Nofrills","address":"6220 Yonge Street","city":"North York, ON","postal_code":"M2M 3X4"},{"pharmacy":"Rexall","address":"5150 Yonge Street","city":"North York, ON","postal_code":"M2N 6L8"},{"pharmacy":"Shoppers Drug Mart","address":"598 Sheppard Avenue West","city":"North York, ON","postal_code":"M3H 2S1"},{"pharmacy":"Shoppers Drug Mart","address":"3110 Bathurst Street","city":"North York, ON","postal_code":"M6A 2A1"},{"pharmacy":"Shoppers Drug Mart","address":"1597 Wilson Avenue","city":"North York, ON","postal_code":"M3L 1A5"},{"pharmacy":"Shoppers Drug Mart","address":"6428 Yonge Street","city":"North York, ON","postal_code":"M2M 3X4"},{"pharmacy":"Shoppers Drug Mart","address":"6205 Bathurst Street","city":"North York, ON","postal_code":"M2R 2A5"},{"pharmacy":"Shoppers Drug Mart","address":"5998 Bathurst Street","city":"North York, ON","postal_code":"M2R 1Z1"},{"pharmacy":"Shoppers Drug Mart","address":"770 Lawrence Avenue West","city":"North York, ON","postal_code":"M6A 3C6"},{"pharmacy":"Shoppers Drug Mart","address":"3975 Jane Street","city":"North York, ON","postal_code":"M3N 2K1"},{"pharmacy":"Shoppers Drug Mart","address":"2550 Finch Avenue West","city":"North York, ON","postal_code":"M9M 2G3"},{"pharmacy":"Shoppers Drug Mart","address":"3874 Bathurst Street","city":"North York, ON","postal_code":"M3H 3N3"},{"pharmacy":"Shoppers Drug Mart","address":"4841 Yonge Street","city":"North York, ON","postal_code":"M2N 5X2"},{"pharmacy":"Whole Health Pharmacy","address":"1575 Jane Street, Unit 7","city":"North York, ON","postal_code":"M9N 2R3"},{"pharmacy":"York Gate IDA Drugmart","address":"1  York Gate Boulevard","city":"North York, ON","postal_code":"M3N 3A1"},{"pharmacy":"Tobia's Guardian Pharmacy","address":"12357 Highway 41","city":"Northbrook, ON","postal_code":"K0H 2G0"},{"pharmacy":"Shoppers Drug Mart","address":"19 Stover Street North","city":"Norwich, ON","postal_code":"N0J 1P0"},{"pharmacy":"Clear View Pharmacy","address":"1140 Winston Churchill Boulevard, Unit A6","city":"Oakville, ON","postal_code":"L6J 0A3"},{"pharmacy":"Dundas Neyagawa Pharmacy","address":"479 Dundas Street West","city":"Oakville, ON","postal_code":"L6M 1L9"},{"pharmacy":"Fortinos","address":"173 Lakeshore Road West","city":"Oakville, ON","postal_code":"L6K 1E7"},{"pharmacy":"Fortinos","address":"493 Dundas Street West","city":"Oakville, ON","postal_code":"L6M 4M2"},{"pharmacy":"Metro Pharmacy","address":"280 North Service Road, Unit 1A","city":"Oakville, ON","postal_code":"L6M 2S2"},{"pharmacy":"Metro Pharmacy","address":"1011 Upper Middle Road East","city":"Oakville, ON","postal_code":"L6H 4L2"},{"pharmacy":"Palermo Pharmacy","address":"2525 Old Bronte Road","city":"Oakville, ON","postal_code":"L6M 4J2"},{"pharmacy":"Real Canadian Superstore","address":"201 Oak Park Boulevard","city":"Oakville, ON","postal_code":"L6H 7T4"},{"pharmacy":"Real Canadian Superstore","address":"201 Oak Walk Drive","city":"Oakville, ON","postal_code":"L6H 7T4"},{"pharmacy":"Rexall","address":"2441 Lakeshore Road West, Unit 2","city":"Oakville, ON","postal_code":"L6L 1H6"},{"pharmacy":"Rexall","address":"523 Maple Grove Road","city":"Oakville, ON","postal_code":"L6J 4W3"},{"pharmacy":"Shoppers Drug Mart","address":"478 Dundas Street West","city":"Oakville, ON","postal_code":"L6H 6Y3"},{"pharmacy":"Shoppers Drug Mart","address":"240 Leighland Avenue, Unit 109A","city":"Oakville, ON","postal_code":"L6H 3H6"},{"pharmacy":"Shoppers Drug Mart","address":"2297 Lakeshore Road West","city":"Oakville, ON","postal_code":"L6L 1H2"},{"pharmacy":"Shoppers Drug Mart","address":"351 Cornwall Road","city":"Oakville, ON","postal_code":"L6J 7Z5"},{"pharmacy":"Shoppers Drug Mart","address":"1011 Upper Middle Road, Unit D5","city":"Oakville, ON","postal_code":"L6H 4L3"},{"pharmacy":"Shoppers Drug Mart","address":"1515 Rebecca Street","city":"Oakville, ON","postal_code":"L6L 5H8"},{"pharmacy":"Shoppers Drug Mart","address":"550 Kerr Street","city":"Oakville, ON","postal_code":"L6K 3C7"},{"pharmacy":"Shoppers Drug Mart","address":"2525 Prince Michael Drive","city":"Oakville, ON","postal_code":"L6H 0E9"},{"pharmacy":"Shoppers Drug Mart","address":"2501 Third Line, Building B","city":"Oakville, ON","postal_code":"L6M 5A9"},{"pharmacy":"Sobeys Pharmacy","address":"511 Maple Grove Drive","city":"Oakville, ON","postal_code":"L6J 4W3"},{"pharmacy":"Sobeys Pharmacy","address":"1500 Upper Middle Road","city":"Oakville, ON","postal_code":"L6J 4L3"},{"pharmacy":"Wal-Mart Pharmacy","address":"235 Hays Boulevard","city":"Oakville, ON","postal_code":"L6H 6M8"},{"pharmacy":"White Oaks Pharmacy","address":"360 Dundas Street East, Unit B6","city":"Oakville, ON","postal_code":"L6H 6Z9"},{"pharmacy":"Jeffers Pharmacy Limited","address":"1 Elizabeth Street","city":"Orangeville, ON","postal_code":"L9W 7N7"},{"pharmacy":"Rexall","address":"520 Riddell Road","city":"Orangeville, ON","postal_code":"L9W 5L1"},{"pharmacy":"Shoppers Drug Mart","address":"150 First Street","city":"Orangeville, ON","postal_code":"L9W 3T7"},{"pharmacy":"Shoppers Drug Mart","address":"25 Broadway Avenue","city":"Orangeville, ON","postal_code":"L9W 1J6"},{"pharmacy":"Zehrs Markets","address":"50 Fourth Avenue","city":"Orangeville, ON","postal_code":"L9W 3W8"},{"pharmacy":"Costo Pharmacy","address":"625 University Avenue","city":"Orillia, ON","postal_code":"L3V 0Y7"},{"pharmacy":"Drugstore Pharmacy","address":"289 Coldwater Road","city":"Orillia, ON","postal_code":"L3V 6J3"},{"pharmacy":"Shoppers Drug Mart","address":"55 Front Street North","city":"Orillia, ON","postal_code":"L3V 1W7"},{"pharmacy":"Shoppers Drug Mart","address":"149 Westmount Drive North","city":"Orillia, ON","postal_code":"L3V 6C7"},{"pharmacy":"Crown Pointe Pharmacy","address":"900 Watters Road, Unit 13","city":"Orleans, ON","postal_code":"K4A 0B4"},{"pharmacy":"Innes Ideal Pharmacy","address":"4473 Innes Road, Unit 101","city":"Orleans, ON","postal_code":"K4A 1A7"},{"pharmacy":"Rexall","address":"110 Place D'Orleans Drive, Unit 160","city":"Orleans, ON","postal_code":"K1C 2L9"},{"pharmacy":"Rexall","address":"1615 Orleans Boulevard","city":"Orleans, ON","postal_code":"K1C 7E2"},{"pharmacy":"Shoppers Drug Mart","address":"6491 Jeanne D'Arc Boulevard","city":"Orleans, ON","postal_code":"K1C 2R1"},{"pharmacy":"Shoppers Drug Mart","address":"1937 Portobello Boulevard","city":"Orleans, ON","postal_code":"K4A 4W9"},{"pharmacy":"Shoppers Drug Mart","address":"3940 Innes Road","city":"Orleans, ON","postal_code":"K1W 1K9"},{"pharmacy":"Sobeys Pharmacy","address":"5150 Innes Road","city":"Orleans, ON","postal_code":"K4A 0G4"},{"pharmacy":"Osgoode Pharmacy","address":"3192 Logan Farm Drive","city":"Osgoode, ON","postal_code":"K0A 2W0"},{"pharmacy":"Clinic Pharmacy","address":"117 King Street East","city":"Oshawa, ON","postal_code":"L1H 1B9"},{"pharmacy":"Costco Pharmacy","address":"130 Ritson Road","city":"Oshawa, ON","postal_code":"L1G 0A6"},{"pharmacy":"Intrepid Pharmacy","address":"379 Bond Street West, Unit 500","city":"Oshawa, ON","postal_code":"L1J 8R7"},{"pharmacy":"Lovell Drugs","address":"8 King Street East","city":"Oshawa, ON","postal_code":"L1H 1A9"},{"pharmacy":"Lovell Drugs Ltd.","address":"500 Rossland Road West","city":"Oshawa, ON","postal_code":"L1J 3H2"},{"pharmacy":"Lovell Drugs Whitby","address":"600 Grandview Street South","city":"Oshawa, ON","postal_code":"L1H 8P4"},{"pharmacy":"Oshawa Discount Pharmacy","address":"44 Simcoe Street North, Unit 2","city":"Oshawa, ON","postal_code":"L1G 4S1"},{"pharmacy":"Oshawa Lakeview Pharmacy","address":"799 Park Road South, Unit 5","city":"Oshawa, ON","postal_code":"L1J 4K1"},{"pharmacy":"Prescription Pharmacy","address":"11 Gibb Street","city":"Oshawa, ON","postal_code":"L1H 2J9"},{"pharmacy":"Real Canadian Superstore","address":"481 Gibb Street","city":"Oshawa, ON","postal_code":"L1J 1Z4"},{"pharmacy":"Rexall Pharma Plus","address":"438 King Street West","city":"Oshawa, ON","postal_code":"L1J 2K9"},{"pharmacy":"Shoppers Drug Mart","address":"2045 Simcoe Street North","city":"Oshawa, ON","postal_code":"L1H 7K4"},{"pharmacy":"Shoppers Drug Mart","address":"199 Wentworth Street West","city":"Oshawa, ON","postal_code":"L1J 6P4"},{"pharmacy":"Shoppers Drug Mart","address":"20 Warren Avenue","city":"Oshawa, ON","postal_code":"L1J 0A1"},{"pharmacy":"Shoppers Drug Mart","address":"784 Taunton Road East","city":"Oshawa, ON","postal_code":"L1K 1B7"},{"pharmacy":"Simcoe North Pharmacy","address":"1053 Simcoe Street North, Unit 7A","city":"Oshawa, ON","postal_code":"L1G 4X1"},{"pharmacy":"Sobeys Pharmacy","address":"1377 Wilson Road North","city":"Oshawa, ON","postal_code":"L1K 2Z5"},{"pharmacy":"Walmart Pharmacy","address":"1300 King Street East","city":"Oshawa, ON","postal_code":"L1H 8J4"},{"pharmacy":"Apothe Sos Pharmacy","address":"314 Central Park Drive, Unit 8","city":"Ottawa, ON","postal_code":"K2C 0R2"},{"pharmacy":"Bank Street Medical Pharmacy","address":"1935 Bank Street","city":"Ottawa, ON","postal_code":"K1V 8A3"},{"pharmacy":"Bank Street Pharmacy","address":"2531 Bank Street","city":"Ottawa, ON","postal_code":"K1V 8R9"},{"pharmacy":"Blossom Park Pharmacy","address":"2928 Bank Street","city":"Ottawa, ON","postal_code":"K1T 1N6"},{"pharmacy":"Carling IDA Pharmacy","address":"1320 Carling Avenue","city":"Ottawa, ON","postal_code":"K1Z 7K8"},{"pharmacy":"Costco Pharmacy","address":"1849 Merivale Road","city":"Ottawa, ON","postal_code":"K2G 1E3"},{"pharmacy":"Evans Medical Pharmacy","address":"1194 Karn Place","city":"Ottawa, ON","postal_code":"K1H 7Z8"},{"pharmacy":"Fallowfield Pharmacy","address":"3500 Fallowfield Road, Unit 1B","city":"Ottawa, ON","postal_code":"K2J 4A7"},{"pharmacy":"Glebe Apothecary","address":"778 Bank Street","city":"Ottawa, ON","postal_code":"K1S 3V6"},{"pharmacy":"Greenbank Hunt Club Pharmacy","address":"250 Greenbank Road","city":"Ottawa, ON","postal_code":"K2H 8X4"},{"pharmacy":"Hybrid Pharm","address":"318 Richmond Road, Unit 100","city":"Ottawa, ON","postal_code":"K1Z 6X6"},{"pharmacy":"Loblaw","address":"1980 Ogilvie Road","city":"Ottawa, ON","postal_code":"K1J 9L3"},{"pharmacy":"Loblaw","address":"1460 Merivale Road","city":"Ottawa, ON","postal_code":"K2E 5P2"},{"pharmacy":"Loblaw","address":"2210C Bank Street","city":"Ottawa, ON","postal_code":"K1V 1J5"},{"pharmacy":"Loblaw Pharmacy","address":"4270 Innes Road","city":"Ottawa, ON","postal_code":"K4A 5E6"},{"pharmacy":"Metro Pharmacy","address":"4510 Innes Road","city":"Ottawa, ON","postal_code":"K4A 4C5"},{"pharmacy":"Mooney's Bay Pharmacy","address":"743 Ridgewood Avenue","city":"Ottawa, ON","postal_code":"K1V 6M8"},{"pharmacy":"Pharmasave Cyril Pharmacy","address":"1795 Kilborn Avenue","city":"Ottawa, ON","postal_code":"K1H 6N1"},{"pharmacy":"Proactive Pharmacy","address":"1645 Bank Street","city":"Ottawa, ON","postal_code":"K1V 7Z1"},{"pharmacy":"Promed Pharmacy","address":"2706 Alta Vista Drive","city":"Ottawa, ON","postal_code":"K1V 7T4"},{"pharmacy":"Real Canadian Superstore","address":"190 Richmond Road","city":"Ottawa, ON","postal_code":"K1Z 6W6"},{"pharmacy":"Rexall","address":"2950 Carling Avenue","city":"Ottawa, ON","postal_code":"K2B 7J7"},{"pharmacy":"Rexall","address":"753 Montreal Road","city":"Ottawa, ON","postal_code":"K1K 0T1"},{"pharmacy":"Rexall","address":"160 Elgin Street","city":"Ottawa, ON","postal_code":"K2P 2C4"},{"pharmacy":"Rexall","address":"1725 Walkley Road, Unit C","city":"Ottawa, ON","postal_code":"K1V 2P6"},{"pharmacy":"Rexall","address":"2525 Carling Avenue","city":"Ottawa, ON","postal_code":"K2B 7Z2"},{"pharmacy":"Rexall","address":"240 Sparks Street","city":"Ottawa, ON","postal_code":"K1P 6C9"},{"pharmacy":"Shas Pharmacy","address":"1428 Walkley Road","city":"Ottawa, ON","postal_code":"K1V 6P5"},{"pharmacy":"Shoppers Drug Mart","address":"1559 Alta Vista Drive","city":"Ottawa, ON","postal_code":"K1G 0E9"},{"pharmacy":"Shoppers Drug Mart","address":"888 Meadowlands Drive East","city":"Ottawa, ON","postal_code":"K2C 3R2"},{"pharmacy":"Shoppers Drug Mart","address":"3080 Carling Avenue","city":"Ottawa, ON","postal_code":"K2B 7K2"},{"pharmacy":"Shoppers Drug Mart","address":"2446 Bank Street, Unit 115","city":"Ottawa, ON","postal_code":"K1V 1A4"},{"pharmacy":"Shoppers Drug Mart","address":"3310 Mccarthy Road","city":"Ottawa, ON","postal_code":"K1V 9S1"},{"pharmacy":"Shoppers Drug Mart","address":"1200 St. Laurent Boulevard","city":"Ottawa, ON","postal_code":"K1K 3B8"},{"pharmacy":"Shoppers Drug Mart","address":"1582 Bank Street","city":"Ottawa, ON","postal_code":"K1H 7Z5"},{"pharmacy":"Shoppers Drug Mart","address":"702 Bank Street, Unit 700","city":"Ottawa, ON","postal_code":"K1S 3V2"},{"pharmacy":"Shoppers Drug Mart","address":"4744 Bank Street, Unit 1","city":"Ottawa, ON","postal_code":"K1T 0K8"},{"pharmacy":"Shoppers Drug Mart","address":"174 Bank Street","city":"Ottawa, ON","postal_code":"K2P 1W6"},{"pharmacy":"Shoppers Drug Mart","address":"1080 Bank Street","city":"Ottawa, ON","postal_code":"K1S 3X3"},{"pharmacy":"Shoppers Drug Mart","address":"2515 Bank Street, Unit 15","city":"Ottawa, ON","postal_code":"K1V 8R9"},{"pharmacy":"Shoppers Drug Mart","address":"322 Rideau Street","city":"Ottawa, ON","postal_code":"K1N 5Y5"},{"pharmacy":"Shoppers Drug Mart","address":"410 Richmond Road","city":"Ottawa, ON","postal_code":"K2A 4C4"},{"pharmacy":"Shoppers Drug Mart","address":"1309 Carling Avenue","city":"Ottawa, ON","postal_code":"K1Z 7L3"},{"pharmacy":"Shoppers Drug Mart","address":"2148 Carling Avenue, Unit 1","city":"Ottawa, ON","postal_code":"K2A 1H1"},{"pharmacy":"Shoppers Drug Mart","address":"541 Montreal Road","city":"Ottawa, ON","postal_code":"K1K 0V1"},{"pharmacy":"Shoppers Drug Mart","address":"647 Earl Armstrong Road","city":"Ottawa, ON","postal_code":"K1V 2G2"},{"pharmacy":"Shoppers Drug Mart","address":"1180 Walkley Road","city":"Ottawa, ON","postal_code":"K1V 2M5"},{"pharmacy":"Southkeys Pharmacy","address":"1883 Bank Street","city":"Ottawa, ON","postal_code":"K1V 7Z9"},{"pharmacy":"Stittsville Whole Health Pharmacy","address":"1609 Stittsville Main Street, Unit C","city":"Ottawa, ON","postal_code":"K2S 1B8"},{"pharmacy":"The Drug Store Pharmacy","address":"3201 Greenbank Road","city":"Ottawa, ON","postal_code":"K2J 4H9"},{"pharmacy":"The Drugstore Pharmacy","address":"2681 Alta Vista Drive","city":"Ottawa, ON","postal_code":"K1V 7T5"},{"pharmacy":"Wal-Mart Pharmacy","address":"450 Terminal Avenue","city":"Ottawa, ON","postal_code":"K1G 0Z3"},{"pharmacy":"Wal-Mart Pharmacy","address":"2210 Bank Street","city":"Ottawa, ON","postal_code":"K1V 0Y5"},{"pharmacy":"Wal-Mart Pharmacy","address":"2277 Riverside Drive","city":"Ottawa, ON","postal_code":"K1H 7X6"},{"pharmacy":"Westboro Pharmasave","address":"421 Richmond Road","city":"Ottawa, ON","postal_code":"K2A 4H1"},{"pharmacy":"Whole Health Pharmacy Glebe","address":"857A Bank Street","city":"Ottawa, ON","postal_code":"K1S 3W2"},{"pharmacy":"Rexall","address":"1507 Ninth Avenue East","city":"Owen Sound, ON","postal_code":"N4K 3E9"},{"pharmacy":"Shoppers Drug Mart","address":"100 10th Street West","city":"Owen Sound, ON","postal_code":"N4K 3P9"},{"pharmacy":"Zehrs Markets","address":"1150 16th Street East","city":"Owen Sound, ON","postal_code":"N4K 1Z3"},{"pharmacy":"Pakenham Pharmacy","address":"2547 County Road 29","city":"Pakenham, ON","postal_code":"K0A 2X0"},{"pharmacy":"The Prescription Shoppe","address":"261 Main Street West","city":"Palmerston, ON","postal_code":"N0G 2P0"},{"pharmacy":"Rexall","address":"72 Grand River Street North","city":"Paris, ON","postal_code":"N3L 2M2"},{"pharmacy":"Sobeys Pharmacy","address":"307 Grand River Street North","city":"Paris, ON","postal_code":"N3L 2N9"},{"pharmacy":"Mcintyre Pharmacy","address":"238 Main Street","city":"Parkhill, ON","postal_code":"N0M 2K0"},{"pharmacy":"Pollard IDA Pharmacy","address":"37 Seguin Street","city":"Parry Sound, ON","postal_code":"P2A 1B2"},{"pharmacy":"Shoppers Drug Mart","address":"90 Bowes Street","city":"Parry Sound, ON","postal_code":"P2A 2L7"},{"pharmacy":"Rexall","address":"215 Pembroke Street East","city":"Pembroke, ON","postal_code":"K8A 3J8"},{"pharmacy":"Rexall","address":"1100 Pembroke Street East","city":"Pembroke, ON","postal_code":"K8A 6Y7"},{"pharmacy":"Shoppers Drug Mart","address":"811 Pembroke Street East","city":"Pembroke, ON","postal_code":"K8A 3M3"},{"pharmacy":"Wal-Mart Pharmacy","address":"1108 Pembroke Street East","city":"Pembroke, ON","postal_code":"K8A 7R4"},{"pharmacy":"Perth Downtown Pharmasave","address":"57 Foster Street","city":"Perth, ON","postal_code":"K7H 1R9"},{"pharmacy":"Perth Mews Pharmacy","address":"80 Dufferin Street, Unit 095","city":"Perth, ON","postal_code":"K7H 3A7"},{"pharmacy":"Shoppers Drug Mart","address":"50 Dufferin Street","city":"Perth, ON","postal_code":"K7H 3A6"},{"pharmacy":"Rexall","address":"1011 Victoria Street","city":"Petawawa, ON","postal_code":"K8H 2E2"},{"pharmacy":"Shoppers Drug Mart","address":"25 Civic Centre Road","city":"Petawawa, ON","postal_code":"K8H 0B1"},{"pharmacy":"Costco Pharmacy","address":"485 The Parkway","city":"Peterborough, ON","postal_code":"K9J 2A1"},{"pharmacy":"High St. Guardian Pharmacy","address":"815 High Street, Unit 9","city":"Peterborough, ON","postal_code":"K9J 8J9"},{"pharmacy":"Rexall","address":"1154 Chemong Road","city":"Peterborough, ON","postal_code":"K9H 7J6"},{"pharmacy":"Wal-Mart Pharmacy","address":"1002 Chemong Road","city":"Peterborough, ON","postal_code":"K9H 7E2"},{"pharmacy":"Durham Drug Store","address":"780 Kingston Road","city":"Pickering, ON","postal_code":"L1V 0C5"},{"pharmacy":"Loblaw","address":"1792 Liverpool Road","city":"Pickering, ON","postal_code":"L1V 1V9"},{"pharmacy":"People's Choice Drug Mart","address":"1755 Pickering Parkway, Unit A2","city":"Pickering, ON","postal_code":"L1V 6K5"},{"pharmacy":"Phaily Guardian Pharmacy","address":"1477 Bayly Street, Unit 9A","city":"Pickering, ON","postal_code":"L1W 3R5"},{"pharmacy":"Rexall","address":"1822 Whites Road, Unit 28","city":"Pickering, ON","postal_code":"L1V 4M1"},{"pharmacy":"Rexall","address":"1900 Dixie Road","city":"Pickering, ON","postal_code":"L1V 6M4"},{"pharmacy":"Shoppers Drug Mart","address":"1355 Kingston Road","city":"Pickering, ON","postal_code":"L1V 1B8"},{"pharmacy":"Shoppers Drug Mart","address":"1105 Kingston Road","city":"Pickering, ON","postal_code":"L1V 1B5"},{"pharmacy":"Shoppers Drug Mart","address":"650 Kingston Road","city":"Pickering, ON","postal_code":"L1V 3N7"},{"pharmacy":"Super Rx Pharmacy","address":"1725 Kingston Road, Unit 9","city":"Pickering, ON","postal_code":"L1V 4L9"},{"pharmacy":"Superseven Pharmacy","address":"2200 Brock Road, Unit 15","city":"Pickering, ON","postal_code":"L1X 2R2"},{"pharmacy":"Wal-Mart Pharmacy","address":"1899 Brock Road","city":"Pickering, ON","postal_code":"L1V 4H7"},{"pharmacy":"No Frills","address":"13311 Loyalist Parkway","city":"Picton, ON","postal_code":"K0K 2T0"},{"pharmacy":"Pharma Plus","address":"97 Main Street","city":"Picton, ON","postal_code":"K0K 2T0"},{"pharmacy":"Boggio Pharmacy Ltd","address":"200 Catharine Street","city":"Port Colborne, ON","postal_code":"L3K 4K8"},{"pharmacy":"Your Independent Grocer","address":"1244 Highway 21","city":"Port Elgin, ON","postal_code":"N0H 2C0"},{"pharmacy":"Port Hope Pharmasave","address":"60 Ontario Street","city":"Port Hope, ON","postal_code":"L1A 2T8"},{"pharmacy":"Shoppers Drug Mart","address":"249 Ontario Street","city":"Port Hope, ON","postal_code":"L1A 3Y9"},{"pharmacy":"Your Independent Grocer","address":"20 Jocelyn Street","city":"Port Hope, ON","postal_code":"L1A 3V7"},{"pharmacy":"Durham Pharmacy","address":"462 Paxton Street","city":"Port Perry, ON","postal_code":"L9L 1L9"},{"pharmacy":"Pharmacy Associates Of Port Perry","address":"11 Water Street, Unit B","city":"Port Perry, ON","postal_code":"L9L 1H9"},{"pharmacy":"Port Perry Remedy's Rx","address":"1893 Scugog Street","city":"Port Perry, ON","postal_code":"L9L 1H9"},{"pharmacy":"Shoppers Drug Mart","address":"1865 Scugog Street","city":"Port Perry, ON","postal_code":"L9L 1J3"},{"pharmacy":"Wal-Mart Pharmacy","address":"1535 Highway 7A","city":"Port Perry, ON","postal_code":"L9L 1B5"},{"pharmacy":"Shoppers Drug Mart","address":"231 King Street West","city":"Prescott, ON","postal_code":"K0E 1T0"},{"pharmacy":"No Frills","address":"680 O'Brien Road","city":"Renfrew, ON","postal_code":"K7V 3Z4"},{"pharmacy":"Rexall","address":"339 Raglan Street","city":"Renfrew, ON","postal_code":"K7V 1R6"},{"pharmacy":"Wal-Mart Pharmacy","address":"980 O'Brien Road RR 1","city":"Renfrew, ON","postal_code":"K7V 3Z4"},{"pharmacy":"Shih Pharmacy","address":"2700 Kipling Avenue, Unit 9","city":"Rexdale, ON","postal_code":"M9V 4P2"},{"pharmacy":"Richmond IDA Pharmacy","address":"6265 Perth Street, Unit 1","city":"Richmond, ON","postal_code":"K0A 2Z0"},{"pharmacy":"Richmond Village Pharmacy","address":"6146 Perth Street","city":"Richmond, ON","postal_code":"K0A 2Z0"},{"pharmacy":"Atlas Pharmacy","address":"1383 16th Avenue, Unit 1A","city":"Richmond Hill, ON","postal_code":"L4B 0E2"},{"pharmacy":"Beverly Med Pharmacy","address":"9201 Yonge Street, Unit NW-6","city":"Richmond Hill, ON","postal_code":"L4C 1H9"},{"pharmacy":"Costco Pharmacy","address":"35 John Birchall Road","city":"Richmond Hill, ON","postal_code":"L4S 0B2"},{"pharmacy":"Food Basics Pharmacy","address":"1070 Major Mackenzie Drive East","city":"Richmond Hill, ON","postal_code":"L4S 1P3"},{"pharmacy":"Freshco Pharmacy","address":"1430 Major Mackenzie Drive East","city":"Richmond Hill, ON","postal_code":"L4S 0A1"},{"pharmacy":"Loblaw","address":"301 High Tech Road","city":"Richmond Hill, ON","postal_code":"L4B 4R2"},{"pharmacy":"Neighbourhood Pharmacy","address":"10323 Yonge Street","city":"Richmond Hill, ON","postal_code":"L4C 3C1"},{"pharmacy":"No Frills","address":"9325 Yonge Street","city":"Richmond Hill, ON","postal_code":"L4C 1V4"},{"pharmacy":"Pharmacare Medical Group","address":"13311 Yonge Street, Unit 107","city":"Richmond Hill, ON","postal_code":"L4E 3L6"},{"pharmacy":"Rexall","address":"13291 Yonge Street","city":"Richmond Hill, ON","postal_code":"L4E 4L6"},{"pharmacy":"Rexall","address":"9625 Yonge Street","city":"Richmond Hill, ON","postal_code":"L4C 5T2"},{"pharmacy":"Richmond Hill Medical Pharmacy","address":"10243 Yonge Street","city":"Richmond Hill, ON","postal_code":"L4C 3B2"},{"pharmacy":"Richmond Pharmacy","address":"9206 Yonge Street","city":"Richmond Hill, ON","postal_code":"L4C 7A2"},{"pharmacy":"Shoppers Drug Mart","address":"9350 Yonge Street","city":"Richmond Hill, ON","postal_code":"L4C 5G2"},{"pharmacy":"Shoppers Drug Mart","address":"10800 Bayview Avenue","city":"Richmond Hill, ON","postal_code":"L4S 0A6"},{"pharmacy":"Shoppers Drug Mart","address":"8865 Yonge Street","city":"Richmond Hill, ON","postal_code":"L4C 6Z1"},{"pharmacy":"Shoppers Drug Mart","address":"9651 Yonge Street","city":"Richmond Hill, ON","postal_code":"L4C 1V7"},{"pharmacy":"Shoppers Drug Mart","address":"13070 Yonge Street","city":"Richmond Hill, ON","postal_code":"L4E 2T2"},{"pharmacy":"Shoppers Drug Mart","address":"118 Tower Road, Building C1","city":"Richmond Hill, ON","postal_code":"L4E 0K6"},{"pharmacy":"Sobeys Pharmacy","address":"11700 Yonge Street","city":"Richmond Hill, ON","postal_code":"L4E 3N6"},{"pharmacy":"Times Pharmacy","address":"550 Highway 7 East, Unit 95D","city":"Richmond Hill, ON","postal_code":"L4B 3Z4"},{"pharmacy":"Uptown Apothecary","address":"9325 Yonge Street","city":"Richmond Hill, ON","postal_code":"L4C 0A8"},{"pharmacy":"Walmart","address":"255 Silver Linden Drive","city":"Richmond Hill, ON","postal_code":"L4B 4V5"},{"pharmacy":"Walmart","address":"1070 Major Mackenzie Drive East","city":"Richmond Hill, ON","postal_code":"L4S 1P3"},{"pharmacy":"Boggio & Edwards Ridgeway IDA","address":"307 Ridge Road North","city":"Ridgeway, ON","postal_code":"L0S 1N0"},{"pharmacy":"Wal-Mart Pharmacy","address":"3001 Richeliue Street","city":"Rockland, ON","postal_code":"K4K 0B5"},{"pharmacy":"Loblaw Pharmacy","address":"600 Murphy Road","city":"Sarnia, ON","postal_code":"N7S 2X1"},{"pharmacy":"Rexall","address":"697 Cathcart Boulevard","city":"Sarnia, ON","postal_code":"N7V 2N6"},{"pharmacy":"Shoppers Drug Mart","address":"510 Exmouth Street","city":"Sarnia, ON","postal_code":"N7T 5P3"},{"pharmacy":"Loblaw Pharmacy","address":"44 Great Northern Road, Unit 50","city":"Sault Ste Marie, ON","postal_code":"P6B 4Y5"},{"pharmacy":"West End Pharmacy","address":"658 Second Line West, Unit 3","city":"Sault Ste Marie, ON","postal_code":"P6C 2K9"},{"pharmacy":"Birchmount Pharmasave","address":"462 Birchmount Road","city":"Scarborough, ON","postal_code":"M1K 1N8"},{"pharmacy":"Costco Pharmacy","address":"1411 Warden Avenue","city":"Scarborough, ON","postal_code":"M1R 2S3"},{"pharmacy":"Drugstore Pharmacy","address":"70 Island Road","city":"Scarborough, ON","postal_code":"M1C 2P5"},{"pharmacy":"Food Basics Pharmacy","address":"1571 Sandhurst Circle","city":"Scarborough, ON","postal_code":"M1V 1V2"},{"pharmacy":"FreshCo Pharmacy Gerrard & Victoria","address":"2490 Gerrard Street East","city":"Scarborough, ON","postal_code":"M1N 1W8"},{"pharmacy":"FreshCo Pharmacy Lawrence/Midland","address":"2650 Lawrence Avenue East","city":"Scarborough, ON","postal_code":"M1P 2S1"},{"pharmacy":"Health Check Pharmacy Pharmasave","address":"2826A Markham Road","city":"Scarborough, ON","postal_code":"M1X 1E6"},{"pharmacy":"Health Corner Pharmacy","address":"2167 Victoria Park Avenue, Unit 3","city":"Scarborough, ON","postal_code":"M1R 1V5"},{"pharmacy":"HealthSmart Pharmasave","address":"2425 Eglinton Avenue East, Unit 10","city":"Scarborough, ON","postal_code":"M1K 5G8"},{"pharmacy":"Kennedy Road Pharmacy","address":"2 Antrim Crescent, Unit 4","city":"Scarborough, ON","postal_code":"M1P 2N3"},{"pharmacy":"Lawrence Pharmacy","address":"2683 Lawrence Avenue East","city":"Scarborough, ON","postal_code":"M1P 2S2"},{"pharmacy":"Markham Corners Pharmacy","address":"5113 Sheppard Avenue East","city":"Scarborough, ON","postal_code":"M1S 4N8"},{"pharmacy":"Medical Pharmacy","address":"1333 Neilson Road, Unit 110","city":"Scarborough, ON","postal_code":"M1B 4Y9"},{"pharmacy":"Nofrills","address":"1450 Lawrence Avenue East","city":"Scarborough, ON","postal_code":"M4A 2S8"},{"pharmacy":"Nofrills","address":"3401 Lawrence Avenue East","city":"Scarborough, ON","postal_code":"M1H 1B2"},{"pharmacy":"Nofrills","address":"681 Silver Star Boulevard","city":"Scarborough, ON","postal_code":"M1V 5N1"},{"pharmacy":"Orton Park Guardian Pharmacy","address":"136 Orton Park Road","city":"Scarborough, ON","postal_code":"M1G 3H1"},{"pharmacy":"People's Choice Remedy's Rx","address":"1145 Morningside Avenue, Unit 16","city":"Scarborough, ON","postal_code":"M1B 0A7"},{"pharmacy":"Pharmasave Cedarcourt Pharmacy","address":"3480 Lawrence Avenue East","city":"Scarborough, ON","postal_code":"M1H 1A9"},{"pharmacy":"Rexall","address":"2682 Eglinton Avenue East","city":"Scarborough, ON","postal_code":"M1K 2S3"},{"pharmacy":"Rexall","address":"4040 Finch Avenue East","city":"Scarborough, ON","postal_code":"M1S 4V5"},{"pharmacy":"Rexall","address":"3607 Sheppard Avenue East","city":"Scarborough, ON","postal_code":"M1T 3K8"},{"pharmacy":"Rexall","address":"1127 Markham Road","city":"Scarborough, ON","postal_code":"M1H 2Y5"},{"pharmacy":"Rexall","address":"4459 Kingston Road","city":"Scarborough, ON","postal_code":"M1E 2N7"},{"pharmacy":"Shoppers Drug Mart","address":"2863 Ellesmere Road","city":"Scarborough, ON","postal_code":"M1E 5E9"},{"pharmacy":"Shoppers Drug Mart","address":"685 McCowan Road","city":"Scarborough, ON","postal_code":"M1J 1K2"},{"pharmacy":"Shoppers Drug Mart","address":"2900 Warden Avenue","city":"Scarborough, ON","postal_code":"M1W 2S8"},{"pharmacy":"Shoppers Drug Mart","address":"2355 Warden Avenue","city":"Scarborough, ON","postal_code":"M1T 1V7"},{"pharmacy":"Shoppers Drug Mart","address":"1400 Neilson Road","city":"Scarborough, ON","postal_code":"M1B 0C2"},{"pharmacy":"Shoppers Drug Mart","address":"2251 Lawrence Avenue East","city":"Scarborough, ON","postal_code":"M1P 2P5"},{"pharmacy":"Shoppers Drug Mart","address":"300 Borough Drive","city":"Scarborough, ON","postal_code":"M1P 4P5"},{"pharmacy":"Shoppers Drug Mart","address":"2901 Sheppard Avenue East","city":"Scarborough, ON","postal_code":"M1T 3J3"},{"pharmacy":"Shoppers Drug Mart","address":"2999 Kingston Road","city":"Scarborough, ON","postal_code":"M1M 1P1"},{"pharmacy":"Shoppers Drug Mart","address":"85 Ellesmere Road, Unit 31","city":"Scarborough, ON","postal_code":"M1R 4B7"},{"pharmacy":"Shoppers Drug Mart","address":"265 Port Union Road","city":"Scarborough, ON","postal_code":"M1C 2L3"},{"pharmacy":"Shoppers Drug Mart","address":"5671 Steeles Avenue East","city":"Scarborough, ON","postal_code":"M1V 5P6"},{"pharmacy":"Shoppers Drug Mart","address":"2330 Kennedy Road","city":"Scarborough, ON","postal_code":"M1T 3H1"},{"pharmacy":"Shoppers Drug Mart","address":"1571 Sandhurst Circle","city":"Scarborough, ON","postal_code":"M1V 1V2"},{"pharmacy":"Shoppers Drug Mart","address":"1235 McCowan Road","city":"Scarborough, ON","postal_code":"M1H 3K3"},{"pharmacy":"Shoppers Drug Mart","address":"91 Rylander Boulevard, Unit 1022","city":"Scarborough, ON","postal_code":"M1B 5M5"},{"pharmacy":"Shoppers Drug Mart","address":"255 Morningside Avenue","city":"Scarborough, ON","postal_code":"M1E 3E6"},{"pharmacy":"Shoppers Drug Mart","address":"1780 Markham Road","city":"Scarborough, ON","postal_code":"M1B 2W2"},{"pharmacy":"Shoppers Drug Mart","address":"629 Markham Road","city":"Scarborough, ON","postal_code":"M1H 2A4"},{"pharmacy":"Shoppers Drug Mart","address":"2751 Eglinton Avenue East","city":"Scarborough, ON","postal_code":"M1J 2C7"},{"pharmacy":"Victoria Commons Pharmacy","address":"2555 Victoria Park Avenue, Unit 6","city":"Scarborough, ON","postal_code":"M1T 1A3"},{"pharmacy":"Village Square Pharmacy","address":"2942 Finch Avenue East","city":"Scarborough, ON","postal_code":"M1W 2T4"},{"pharmacy":"Wal-Mart Pharmacy","address":"300 Borough Drive","city":"Scarborough, ON","postal_code":"M1P 4P5"},{"pharmacy":"Wal-Mart Pharmacy","address":"5995 Steeles Avenue East","city":"Scarborough, ON","postal_code":"M1V 5P6"},{"pharmacy":"Wal-Mart Pharmacy","address":"3850 Sheppard Avenue East","city":"Scarborough, ON","postal_code":"M1T 3L4"},{"pharmacy":"Wal-Mart Pharmacy","address":"1900 Eglinton Avenue East","city":"Scarborough, ON","postal_code":"M1L 2L9"},{"pharmacy":"Walmart","address":"799 Milner Avenue","city":"Scarborough, ON","postal_code":"M1B 3C3"},{"pharmacy":"Schomberg Village Pharmacy","address":"50 Dr. Kay Drive, Units 11A & 11B","city":"Schomberg, ON","postal_code":"L0G 1T0"},{"pharmacy":"Pharma Well Drugmart","address":"106 Drynan Way, Unit 4","city":"Seeley's Bay, ON","postal_code":"K0H 2N0"},{"pharmacy":"Pharmasave Sharbot Lake","address":"1036 Elizabeth Street","city":"Sharbot Lake, ON","postal_code":"K0H 2P0"},{"pharmacy":"Caravaggio IDA Drugs","address":"128 Main Street East","city":"Shelburne, ON","postal_code":"L9V 3K5"},{"pharmacy":"Drugstore Pharmacy","address":"101 Second Line","city":"Shelburne, ON","postal_code":"L9V 3J4"},{"pharmacy":"Shelburne Town Pharmacy","address":"712 Main Street East, Unit 103","city":"Shelburne, ON","postal_code":"L9V 2Z4"},{"pharmacy":"Shoppers Drug Mart","address":"470 Norfolk Street","city":"Simcoe, ON","postal_code":"N3Y 3P7"},{"pharmacy":"Wal-Mart Pharmacy","address":"160 Queensway East","city":"Simcoe, ON","postal_code":"N3Y 0A8"},{"pharmacy":"Shoppers Drug Mart","address":"54 Beckwith Street North","city":"Smiths Falls, ON","postal_code":"K7A 2B5"},{"pharmacy":"Smiths Falls Family Pharmacy","address":"207 Brockville Street, Unit 2","city":"Smiths Falls, ON","postal_code":"K7A 3Z3"},{"pharmacy":"Your Independent Grocer","address":"25 Ferrara Drive","city":"Smiths Falls, ON","postal_code":"K7A 5K6"},{"pharmacy":"Rx Drug Mart","address":"144 Griffin Street","city":"Smithville, ON","postal_code":"L0R 2A0"},{"pharmacy":"Kristen's Pharmacy","address":"197 Albert Street South, Unit 3","city":"Southampton, ON","postal_code":"N0H 2L0"},{"pharmacy":"Rexall","address":"174 Albert Street South","city":"Southampton, ON","postal_code":"N0H 2L0"},{"pharmacy":"First Ave Pharmacy","address":"24 First Avenue, Unit 4","city":"St Thomas, ON","postal_code":"N5R 4M5"},{"pharmacy":"HealthMax Pharmacy","address":"366 Bunting Road, Unit 1","city":"St. Catharines, ON","postal_code":"L2M 3Y6"},{"pharmacy":"Loblaw Pharmacy","address":"221 Glendale Avenue","city":"St. Catharines, ON","postal_code":"L2T 2K9"},{"pharmacy":"Real Canadian Superstore","address":"411 Louth Street","city":"St. Catharines, ON","postal_code":"L2S 4A2"},{"pharmacy":"Shoppers Drug Mart","address":"275 Fourth Avenue","city":"St. Catharines, ON","postal_code":"L2R 6P9"},{"pharmacy":"Shoppers Drug Mart","address":"387 Scott Street, Unit 1","city":"St. Catharines, ON","postal_code":"L2M 3W2"},{"pharmacy":"Sobeys Pharmacy","address":"343 Glendale Avenue","city":"St. Catharines, ON","postal_code":"L2T 0A1"},{"pharmacy":"Wal-Mart Pharmacy","address":"221 Glendale Avenue","city":"St. Catharines, ON","postal_code":"L2T 2K9"},{"pharmacy":"Wal-Mart Pharmacy","address":"420 Vansickle Road","city":"St. Catharines, ON","postal_code":"L2R 6P9"},{"pharmacy":"Zehrs","address":"400 Manning Road","city":"St. Clair Beach, ON","postal_code":"N8N 4Z4"},{"pharmacy":"Jackson's Guardian Pharmacy","address":"32 Wellington Street South","city":"St. Marys, ON","postal_code":"N4X 1B2"},{"pharmacy":"Health Centre Pharmacy","address":"230 First Avenue","city":"St. Thomas, ON","postal_code":"N5R 4P5"},{"pharmacy":"Pharmasave Elgin Mall","address":"417 Wellington Street, Unit 109","city":"St. Thomas, ON","postal_code":"N5R 5J5"},{"pharmacy":"Real Canadian Superstore","address":"1063 Talbot Street, Unit 50","city":"St. Thomas, ON","postal_code":"N5P 1G4"},{"pharmacy":"Shoppers Drug Mart","address":"410 Talbot Street","city":"St. Thomas, ON","postal_code":"N5P 1B9"},{"pharmacy":"Shoppers Drug Mart","address":"204 First Avenue","city":"St. Thomas, ON","postal_code":"N5R 4P5"},{"pharmacy":"Shoppers Drug Mart","address":"107 Edward Street","city":"St. Thomas, ON","postal_code":"N5P 1Y8"},{"pharmacy":"Wal-Mart Pharmacy","address":"1063 Talbot Street, Unit 60","city":"St. Thomas, ON","postal_code":"N5P 1G4"},{"pharmacy":"Yurek Pharmacy Ltd.","address":"519 Talbot Street","city":"St. Thomas, ON","postal_code":"N5P 1C3"},{"pharmacy":"Stirling Pharmacy","address":"9 Tuftsville Road, Unit D","city":"Stirling, ON","postal_code":"K0K 3E0"},{"pharmacy":"Hazeldean Pharmacy","address":"6150 Hazeldean Road","city":"Stittsville, ON","postal_code":"K2S 1B9"},{"pharmacy":"Shoppers Drug Mart","address":"5709 Hazeldean Road","city":"Stittsville, ON","postal_code":"K2S 0P6"},{"pharmacy":"Shoppers Drug Mart","address":"1300 Stittsville Main Street","city":"Stittsville, ON","postal_code":"K2S 1A3"},{"pharmacy":"Stittsville Drug Mart","address":"1250 Main Street, Unit 4","city":"Stittsville, ON","postal_code":"K2S 1S9"},{"pharmacy":"Costco Pharmacy","address":"1330 South Service Road","city":"Stoney Creek, ON","postal_code":"L8E 5C5"},{"pharmacy":"Fortinos","address":"102 Highway 8","city":"Stoney Creek, ON","postal_code":"L8G 4H3"},{"pharmacy":"Paramount Pharmasave","address":"1795 Stone Church Road East, Unit 5001","city":"Stoney Creek, ON","postal_code":"L8J 0B4"},{"pharmacy":"Supercare Pharmacy","address":"410 Highway 8","city":"Stoney Creek, ON","postal_code":"L8G 1G2"},{"pharmacy":"Wal-Mart Pharmacy","address":"500 Centennial Parkway North","city":"Stoney Creek, ON","postal_code":"L8E 0G2"},{"pharmacy":"Healthpoint Pharmacy and Clinic","address":"7034 Tecumseh Road","city":"Stoney Point, ON","postal_code":"N0R 1N0"},{"pharmacy":"Great North Pharmacy","address":"155 Mostar Street, Unit 4","city":"Stouffville, ON","postal_code":"L4A 0Y2"},{"pharmacy":"Metro Pharmacy","address":"5612 Main Street","city":"Stouffville, ON","postal_code":"L4A 8B7"},{"pharmacy":"Rexall","address":"5779 Main Street, Unit 101","city":"Stouffville, ON","postal_code":"L4A 4R2"},{"pharmacy":"Shoppers Drug Mart","address":"5710 Main Street","city":"Stouffville, ON","postal_code":"L4A 8A9"},{"pharmacy":"Shoppers Drug Mart","address":"12277 10th Line","city":"Stouffville, ON","postal_code":"L4A 7W6"},{"pharmacy":"Stouffville IDA Pharmacy","address":"6212 Main Street, Suite 102","city":"Stouffville, ON","postal_code":"L4A 2S5"},{"pharmacy":"Stouffville Pharmasave","address":"5892 Main Street, Unit 208","city":"Stouffville, ON","postal_code":"L4A 2S8"},{"pharmacy":"Wal-Mart Pharmacy","address":"1050 Hoover Park Drive","city":"Stouffville, ON","postal_code":"L4A 0K2"},{"pharmacy":"West End Pharmacy","address":"426 Huron Street","city":"Stratford, ON","postal_code":"N5A 5T7"},{"pharmacy":"Bossons Pharmacy","address":"35 Front Street West","city":"Strathroy, ON","postal_code":"N7G 1X5"},{"pharmacy":"Real Canadian Superstore","address":"626 Victoria Street","city":"Strathroy, ON","postal_code":"N7G 3C1"},{"pharmacy":"Shoppers Drug Mart","address":"78 Front Street East","city":"Strathroy, ON","postal_code":"N7G 1Y7"},{"pharmacy":"Wal-Mart Pharmacy","address":"150 Carroll Street East","city":"Strathroy, ON","postal_code":"N7G 3H3"},{"pharmacy":"Robinson's IDA Pharmacy","address":"181 Queen Street South","city":"Streetsville, ON","postal_code":"L5M 1L2"},{"pharmacy":"Loblaw Pharmacy","address":"12035 Highway 17","city":"Sturgeon Falls, ON","postal_code":"P2B 2S6"},{"pharmacy":"Rexall","address":"1975 Bancroft Drive","city":"Sudbury, ON","postal_code":"P3B 1T1"},{"pharmacy":"Shoppers Drug Mart","address":"2015 Long Lake Road","city":"Sudbury, ON","postal_code":"P3E 4M8"},{"pharmacy":"Wal-Mart Pharmacy","address":"1349 Lasalle Boulevard","city":"Sudbury, ON","postal_code":"P3A 1Z2"},{"pharmacy":"Sunderland Pharmacy","address":"103 River Street","city":"Sunderland, ON","postal_code":"L0C 1H0"},{"pharmacy":"Sutton Apothecary","address":"121 High Street","city":"Sutton, ON","postal_code":"L0E 1R0"},{"pharmacy":"Shoppers Drug Mart","address":"500 Manning Road, Unit 1","city":"Tecumseh, ON","postal_code":"N8N 5H3"},{"pharmacy":"Wal-Mart Pharmacy","address":"133 Highway 11","city":"Temiskaming Shores, ON","postal_code":"P0J 1P0"},{"pharmacy":"Thornbury Pharmacy","address":"45 Arthur Street West","city":"Thornbury, ON","postal_code":"N0H 2P0"},{"pharmacy":"Costco Pharmacy","address":"42 Overlea Boulevard","city":"Thorncliffe Park, ON","postal_code":"M4H 1B8"},{"pharmacy":"Bayview IDA Pharmacy","address":"7355 Bayview Avenue","city":"Thornhill, ON","postal_code":"L3T 5Z2"},{"pharmacy":"Dales Pharmacy","address":"8200 Bayview Avenue","city":"Thornhill, ON","postal_code":"L3T 2S2"},{"pharmacy":"Enhanced Care Phcy Thornhill","address":"7335 Yonge Street","city":"Thornhill, ON","postal_code":"L3T 2B2"},{"pharmacy":"FreshCo Pharmacy #7265","address":"800 Steeles Avenue West","city":"Thornhill, ON","postal_code":"L4J 7L2"},{"pharmacy":"Galleria Pharmacy","address":"7040 Yonge Street, Unit E1","city":"Thornhill, ON","postal_code":"L4J 1V7"},{"pharmacy":"Rexall","address":"1 Promenade Circle, Unit 183","city":"Thornhill, ON","postal_code":"L4J 4P8"},{"pharmacy":"Shoppers Drug Mart","address":"10 Royal Orchard Boulevard","city":"Thornhill, ON","postal_code":"L3T 3C3"},{"pharmacy":"Shoppers Drug Mart","address":"2900 Steeles Avenue East, Unit 8","city":"Thornhill, ON","postal_code":"L3T 4X1"},{"pharmacy":"Shoppers Drug Mart","address":"441 Clark Avenue West","city":"Thornhill, ON","postal_code":"L4J 6W8"},{"pharmacy":"Shoppers Drug Mart","address":"298 John Street","city":"Thornhill, ON","postal_code":"L3T 6M8"},{"pharmacy":"Shoppers Drug Mart","address":"8000 Bathurst Street","city":"Thornhill, ON","postal_code":"L4J 0B8"},{"pharmacy":"St Mary Pharmacy","address":"95 Times Avenue, Unit C2","city":"Thornhill, ON","postal_code":"L3T 0A2"},{"pharmacy":"Wal-Mart Pharmacy","address":"700 Centre Street","city":"Thornhill, ON","postal_code":"L4J 0A7"},{"pharmacy":"Dawson Heights Pharmacy","address":"109 Regina Avenue","city":"Thunder Bay, ON","postal_code":"P7B 5B4"},{"pharmacy":"Oak Medical Pharmacy","address":"620 Arthur Street West","city":"Thunder Bay, ON","postal_code":"P7E 5R8"},{"pharmacy":"Safeway Pharmacy","address":"70 North Court Street","city":"Thunder Bay, ON","postal_code":"P7A 4T8"},{"pharmacy":"Shoppers Drug Mart","address":"901 Red River Road","city":"Thunder Bay, ON","postal_code":"P7B 1K3"},{"pharmacy":"Coward Pharmacy","address":"165 Broadway","city":"Tillsonburg, ON","postal_code":"N4G 3P9"},{"pharmacy":"Shoppers Drug Mart","address":"200 Broadway","city":"Tillsonburg, ON","postal_code":"N4G 5A7"},{"pharmacy":"Tillsonburg Care Pharmacy","address":"594 Broadway Street, Unit 1","city":"Tillsonburg, ON","postal_code":"N4G 3S8"},{"pharmacy":"Tillsonburg Remedy's Rx","address":"400 Simcoe Street","city":"Tillsonburg, ON","postal_code":"N4G 4X1"},{"pharmacy":"Wal-Mart Pharmacy","address":"170 Broadway","city":"Tillsonburg, ON","postal_code":"N4G 5A8"},{"pharmacy":"Shoppers Drug Mart","address":"681 Algonquin Boulevard East, Unit 5","city":"Timmins, ON","postal_code":"P4N 8S6"},{"pharmacy":"Allcures Pharmacy","address":"31 St. Dennis Drive, Unit 1","city":"Toronto, ON","postal_code":"M3C 1G7"},{"pharmacy":"Ava Pharmacy","address":"81 St. Clair Avenue East, Unit 220","city":"Toronto, ON","postal_code":"M4T 1M7"},{"pharmacy":"Bathurst Wilson I.D.A. Pharmacy","address":"322 Wilson Avenue","city":"Toronto, ON","postal_code":"M3H 1S8"},{"pharmacy":"Beaches Pharmacy","address":"1967 Queen Street East","city":"Toronto, ON","postal_code":"M4L 1H9"},{"pharmacy":"Canada Chemists","address":"1975 Avenue Road","city":"Toronto, ON","postal_code":"M5M 4A3"},{"pharmacy":"Canadian Compounding Pharmacy","address":"2920 Bloor Street West","city":"Toronto, ON","postal_code":"M8X 1B6"},{"pharmacy":"Care and Health Pharmacy","address":"2928 Danforth Avenue","city":"Toronto, ON","postal_code":"M4C 1M1"},{"pharmacy":"Cassandra Pharmacy","address":"2040 Victoria Park Avenue","city":"Toronto, ON","postal_code":"M1R 1V2"},{"pharmacy":"City Pharmacy Remedy's Rx","address":"238 Danforth Avenue","city":"Toronto, ON","postal_code":"M4K 1N4"},{"pharmacy":"Demarco Pharmacy","address":"2394 Keele Street","city":"Toronto, ON","postal_code":"M6M 4A5"},{"pharmacy":"Drug Store Pharmacy","address":"25 Photography Drive","city":"Toronto, ON","postal_code":"M6M 0A1"},{"pharmacy":"Dundas West Village Pharmacy","address":"2940 Dundas Street West","city":"Toronto, ON","postal_code":"M6P 1Y8"},{"pharmacy":"East York Pharmasave","address":"840 Coxwell Avenue, Unit 102","city":"Toronto, ON","postal_code":"M4C 5T2"},{"pharmacy":"Forest Hill Pharmacy","address":"491 Eglinton Avenue West, Unit 102","city":"Toronto, ON","postal_code":"M5N 1A8"},{"pharmacy":"Friendly Care West King Pharmacy","address":"2077 Weston Road","city":"Toronto, ON","postal_code":"M9N 1X7"},{"pharmacy":"Glen Park Pharmacy","address":"2920 Dufferin Street","city":"Toronto, ON","postal_code":"M6B 3S8"},{"pharmacy":"Green Pharmacy","address":"620A Bloor Street West","city":"Toronto, ON","postal_code":"M6G 1K7"},{"pharmacy":"Greendale Drugs","address":"152 Carlton Street","city":"Toronto, ON","postal_code":"M5A 2K1"},{"pharmacy":"Healing Arts Pharmacy","address":"170 The Donway West, Unit 113","city":"Toronto, ON","postal_code":"M3C 2J2"},{"pharmacy":"Healing Source Pharmacy","address":"2209 Bloor Street West","city":"Toronto, ON","postal_code":"M6S 1N5"},{"pharmacy":"High Park Pharmacy","address":"1938 Bloor Street West","city":"Toronto, ON","postal_code":"M6P 3K8"},{"pharmacy":"Islington Medical Pharmacy","address":"1243 Islington Avenue","city":"Toronto, ON","postal_code":"M8X 1Y9"},{"pharmacy":"Jarvis St. Apothecary","address":"275 Jarvis Street","city":"Toronto, ON","postal_code":"M5B 2C2"},{"pharmacy":"Junction Chemist Pharmacy","address":"17 St Johns Road","city":"Toronto, ON","postal_code":"M6P 1T7"},{"pharmacy":"Junction Pharmacy","address":"3016 Dundas Street West","city":"Toronto, ON","postal_code":"M6P1Z3"},{"pharmacy":"Keele-Ingram Pharmacy","address":"2221 Keele Street","city":"Toronto, ON","postal_code":"M6M 3Z5"},{"pharmacy":"Lapsley Pharmacy","address":"27 Lapsley Road","city":"Toronto, ON","postal_code":"M1B 1K1"},{"pharmacy":"Lawlor Pharmasave","address":"944 Kingston Road","city":"Toronto, ON","postal_code":"M4E 1S7"},{"pharmacy":"Lefko Pharmasave #794","address":"842 Wilson Avenue","city":"Toronto, ON","postal_code":"M3K 1E5"},{"pharmacy":"Lingeman I.D.A. Pharmacy","address":"411 Jane Street","city":"Toronto, ON","postal_code":"M6S 3Z6"},{"pharmacy":"Loblaw Pharmacy","address":"585 Queen Street West","city":"Toronto, ON","postal_code":"M5V 2B7"},{"pharmacy":"Loblaw Pharmacy","address":"51 Gerry Fitzgerald Drive","city":"Toronto, ON","postal_code":"M3J 3N4"},{"pharmacy":"Loblaws","address":"5095 Yonge Street East","city":"Toronto, ON","postal_code":"M2M 3V7"},{"pharmacy":"Loblaws","address":"396 St. Clair Avenue West","city":"Toronto, ON","postal_code":"M5P 3N3"},{"pharmacy":"Loblaws","address":"10 Lower Jarvis Street","city":"Toronto, ON","postal_code":"M5E 1Z2"},{"pharmacy":"Loblaws","address":"2877 Bayview Avenue","city":"Toronto, ON","postal_code":"M2K 2S3"},{"pharmacy":"Loblaws","address":"2280 Dundas Street West","city":"Toronto, ON","postal_code":"M6R1X4"},{"pharmacy":"Loblaws","address":"11 Redway Road","city":"Toronto, ON","postal_code":"M4H 1P6"},{"pharmacy":"Loblaws","address":"60 Carlton Street","city":"Toronto, ON","postal_code":"M5B 1L1"},{"pharmacy":"Loblaws","address":"17 Leslie Street","city":"Toronto, ON","postal_code":"M4M 3H9"},{"pharmacy":"Loblaws","address":"50 Musgrave Street","city":"Toronto, ON","postal_code":"M4E 3W2"},{"pharmacy":"Main Drug Mart","address":"1646 Victoria Park Avenue, Unit 7","city":"Toronto, ON","postal_code":"M1R 1P7"},{"pharmacy":"Markland Wood Pharmacy","address":"4335 Bloor Street West","city":"Toronto, ON","postal_code":"M9C 2A5"},{"pharmacy":"Metro Drugs","address":"129 Dundas Street East","city":"Toronto, ON","postal_code":"M5B 2N6"},{"pharmacy":"Metro Pharmacy","address":"3003 Danforth Avenue","city":"Toronto, ON","postal_code":"M4C 1M9"},{"pharmacy":"Morelli's Pharmacy","address":"15 York Street","city":"Toronto, ON","postal_code":"M5J 0A3"},{"pharmacy":"Mortar + Pestle Compounding Pharmacy","address":"1997 Bloor Street West","city":"Toronto, ON","postal_code":"M6S 1M4"},{"pharmacy":"New Caledonia Pharmacy","address":"600 Caledonia Road","city":"Toronto, ON","postal_code":"M6E 4V5"},{"pharmacy":"Nhatrang Drug Mart","address":"736 Wilson Avenue","city":"Toronto, ON","postal_code":"M3K 1E2"},{"pharmacy":"Nofrills","address":"222 Lansdowne Avenue","city":"Toronto, ON","postal_code":"M6K 3C6"},{"pharmacy":"Nofrills","address":"449 Carlaw Avenue","city":"Toronto, ON","postal_code":"M4K 3H9"},{"pharmacy":"Nofrills","address":"200 Front Street East","city":"Toronto, ON","postal_code":"M5A 4T9"},{"pharmacy":"Nofrills","address":"1020 Islington Avenue","city":"Toronto, ON","postal_code":"M8Z 4R3"},{"pharmacy":"Nor-Arm Pharmacy","address":"1280 Finch Avenue West, Unit 107","city":"Toronto, ON","postal_code":"M3J 3K6"},{"pharmacy":"Northcliffe Pharmacy","address":"1751 Eglinton Avenue West","city":"Toronto, ON","postal_code":"M6E 2H7"},{"pharmacy":"Pharmacare Drug Mart","address":"891 Broadview Avenue","city":"Toronto, ON","postal_code":"M4K 2P9"},{"pharmacy":"Pharmasave","address":"3485 Kingston Road","city":"Toronto, ON","postal_code":"M1M 1R4"},{"pharmacy":"Pharmasave - Spadina's Neighbourhood Pharmacy","address":"720 Spadina Avenue, Unit 100","city":"Toronto, ON","postal_code":"M5S 2T9"},{"pharmacy":"Pharmasave Eagle Manor","address":"1901 Weston Road","city":"Toronto, ON","postal_code":"M9N 3P5"},{"pharmacy":"Pharmasave Keele and Finch Pharmacy","address":"1275 Finch Avenue West","city":"Toronto, ON","postal_code":"M3J 2G5"},{"pharmacy":"Pharmasave Toronto East","address":"825 Coxwell Avenue, Unit C114","city":"Toronto, ON","postal_code":"M4C 3E7"},{"pharmacy":"Premier Pharmacy and Compounding Centre","address":"3323 Bathurst Street","city":"Toronto, ON","postal_code":"M6A 2B7"},{"pharmacy":"Real Canadian Superstore","address":"825 Don Mills Road","city":"Toronto, ON","postal_code":"M3C 1V4"},{"pharmacy":"Real Canadian Superstore","address":"2549 Weston Road","city":"Toronto, ON","postal_code":"M9N 2A7"},{"pharmacy":"Rexall","address":"1235 Wilson Avenue","city":"Toronto, ON","postal_code":"M3M 0B2"},{"pharmacy":"Rexall","address":"325 Moore Avenue","city":"Toronto, ON","postal_code":"M4G 3T6"},{"pharmacy":"Rexall","address":"481 Bloor Street West","city":"Toronto, ON","postal_code":"M5S 1Y2"},{"pharmacy":"Rexall","address":"345 Bloor Street, Unit 3","city":"Toronto, ON","postal_code":"M4W 1H7"},{"pharmacy":"Rexall","address":"285 Spadina Avenue","city":"Toronto, ON","postal_code":"M5T 2E6"},{"pharmacy":"Rexall","address":"3402 Yonge Street","city":"Toronto, ON","postal_code":"M4N 2M9"},{"pharmacy":"Rexall","address":"3701 Lake Shore Boulevard West","city":"Toronto, ON","postal_code":"M8W 1P8"},{"pharmacy":"Rexall","address":"87 Avenue Road","city":"Toronto, ON","postal_code":"M5R 3R9"},{"pharmacy":"Rexall","address":"63 Front Street East","city":"Toronto, ON","postal_code":"M5E 1B3"},{"pharmacy":"Rexall","address":"4789 Yonge Street, Unit 2","city":"Toronto, ON","postal_code":"M2N 0G3"},{"pharmacy":"Rexall","address":"199 Bay Street, Unit C186","city":"Toronto, ON","postal_code":"M5L 1E7"},{"pharmacy":"Rexall","address":"474 Spadina Avenue","city":"Toronto, ON","postal_code":"M5T 2G8"},{"pharmacy":"Rexall","address":"595 Bay Street","city":"Toronto, ON","postal_code":"M5G 2C2"},{"pharmacy":"Rexall","address":"539 Parliament Street","city":"Toronto, ON","postal_code":"M4X 1P7"},{"pharmacy":"Rexall","address":"600 University Avenue","city":"Toronto, ON","postal_code":"M5G 1X5"},{"pharmacy":"Rexall","address":"2 St. Clair Avenue East, Unit C001","city":"Toronto, ON","postal_code":"M4T 2T5"},{"pharmacy":"Rexall","address":"63 Wellesley Street East","city":"Toronto, ON","postal_code":"M4Y 1G7"},{"pharmacy":"Rexall","address":"250 University Avenue, Unit 120","city":"Toronto, ON","postal_code":"M5H 3E5"},{"pharmacy":"Rexall","address":"88 Queens Quay West","city":"Toronto, ON","postal_code":"M5J 0B8"},{"pharmacy":"Rexall","address":"200 Wellington Street West, Unit 200","city":"Toronto, ON","postal_code":"M5V 3C7"},{"pharmacy":"Rexall","address":"120 Adelaide Street West, Unit R28","city":"Toronto, ON","postal_code":"M5H 1T1"},{"pharmacy":"Rexall","address":"2300 Yonge Street","city":"Toronto, ON","postal_code":"M4P 1E4"},{"pharmacy":"Rexall","address":"1245 Dupont Street","city":"Toronto, ON","postal_code":"M6H 2A6"},{"pharmacy":"Rexall","address":"777 Bay Street, Unit C 216","city":"Toronto, ON","postal_code":"M5G 2C8"},{"pharmacy":"Rexall","address":"1 First Canadian Place, Unit CN1038","city":"Toronto, ON","postal_code":"M5X 1C8"},{"pharmacy":"Rexall","address":"1115 Wilson Avenue","city":"Toronto, ON","postal_code":"M3M 1H2"},{"pharmacy":"Rexall","address":"901 Eglinton Avenue West","city":"Toronto, ON","postal_code":"M6C 2C1"},{"pharmacy":"Rylander Pharmasave","address":"6758 Kingston Road, Unit 8","city":"Toronto, ON","postal_code":"M1B 1G8"},{"pharmacy":"Sam's I.D.A. Pharmacy","address":"1920 Yonge Street","city":"Toronto, ON","postal_code":"M4S 3E2"},{"pharmacy":"Sanomed Pharmacy & Compounding Centre","address":"1000 Bay Street","city":"Toronto, ON","postal_code":"M5S 3A8"},{"pharmacy":"Shoppers Drug Mart","address":"1533 Jane Street","city":"Toronto, ON","postal_code":"M9N 2R2"},{"pharmacy":"Shoppers Drug Mart","address":"1515 Steeles Avenue East","city":"Toronto, ON","postal_code":"M2M 3Y7"},{"pharmacy":"Shoppers Drug Mart","address":"4865 Leslie Street","city":"Toronto, ON","postal_code":"M2J 2K8"},{"pharmacy":"Shoppers Drug Mart","address":"70 Eglinton Square Boulevard","city":"Toronto, ON","postal_code":"M1L 2K1"},{"pharmacy":"Shoppers Drug Mart","address":"1473 Queen Street West","city":"Toronto, ON","postal_code":"M6R 1A1"},{"pharmacy":"Shoppers Drug Mart","address":"1033 Queen Street West, Unit A","city":"Toronto, ON","postal_code":"M6J 0A6"},{"pharmacy":"Shoppers Drug Mart","address":"18 Jarvis Street","city":"Toronto, ON","postal_code":"M5E 1N1"},{"pharmacy":"Shoppers Drug Mart","address":"333 Bay Street","city":"Toronto, ON","postal_code":"M5H 2R2"},{"pharmacy":"Shoppers Drug Mart","address":"235 Danforth Avenue, Unit 101","city":"Toronto, ON","postal_code":"M4K 1N2"},{"pharmacy":"Shoppers Drug Mart","address":"260 Queen Street West","city":"Toronto, ON","postal_code":"M5V 1Z8"},{"pharmacy":"Shoppers Drug Mart","address":"465 Yonge Street","city":"Toronto, ON","postal_code":"M4Y 1X4"},{"pharmacy":"Shoppers Drug Mart","address":"181 Bay Street","city":"Toronto, ON","postal_code":"M5J 2T3"},{"pharmacy":"Shoppers Drug Mart","address":"55 Bloor Street West","city":"Toronto, ON","postal_code":"M4W 1A5"},{"pharmacy":"Shoppers Drug Mart","address":"812 O'Connor Drive","city":"Toronto, ON","postal_code":"M4B 2S9"},{"pharmacy":"Shoppers Drug Mart","address":"524 Queen Street West","city":"Toronto, ON","postal_code":"M5V 2B5"},{"pharmacy":"Shoppers Drug Mart","address":"2494 Danforth Avenue","city":"Toronto, ON","postal_code":"M4C 1K9"},{"pharmacy":"Shoppers Drug Mart","address":"1840 Eglinton Avenue West","city":"Toronto, ON","postal_code":"M6E 2J4"},{"pharmacy":"Shoppers Drug Mart","address":"2343 Eglinton Avenue West","city":"Toronto, ON","postal_code":"M6E 2L6"},{"pharmacy":"Shoppers Drug Mart","address":"200 Bay Street","city":"Toronto, ON","postal_code":"M5J 2J3"},{"pharmacy":"Shoppers Drug Mart","address":"4700 Keele Street","city":"Toronto, ON","postal_code":"M3J 1P3"},{"pharmacy":"Shoppers Drug Mart","address":"1860 Bayview Avenue, Unit 101","city":"Toronto, ON","postal_code":"M4G 0C3"},{"pharmacy":"Shoppers Drug Mart","address":"3401 Dufferin Street","city":"Toronto, ON","postal_code":"M6A 2T9"},{"pharmacy":"Shoppers Drug Mart","address":"2440 Dundas Street West","city":"Toronto, ON","postal_code":"M6P 1W9"},{"pharmacy":"Shoppers Drug Mart","address":"45 Overlea Boulevard","city":"Toronto, ON","postal_code":"M4H 1C3"},{"pharmacy":"Shoppers Drug Mart","address":"761 King Street West","city":"Toronto, ON","postal_code":"M5V 1N4"},{"pharmacy":"Shoppers Drug Mart","address":"725 College Street","city":"Toronto, ON","postal_code":"M6G 1C5"},{"pharmacy":"Shoppers Drug Mart","address":"2528 Bayview Avenue","city":"Toronto, ON","postal_code":"M2L 1A9"},{"pharmacy":"Shoppers Drug Mart","address":"2047 Avenue Road","city":"Toronto, ON","postal_code":"M5M 4A7"},{"pharmacy":"Shoppers Drug Mart","address":"3366 Yonge Street","city":"Toronto, ON","postal_code":"M4N 2M7"},{"pharmacy":"Shoppers Drug Mart","address":"69 Yonge Street","city":"Toronto, ON","postal_code":"M5E 1K3"},{"pharmacy":"Shoppers Drug Mart","address":"565 Sherbourne Street, Unit 40","city":"Toronto, ON","postal_code":"M4X 1W7"},{"pharmacy":"Shoppers Drug Mart","address":"20 Bloor Street East","city":"Toronto, ON","postal_code":"M4W 3G7"},{"pharmacy":"Shoppers Drug Mart","address":"1859 Leslie Street","city":"Toronto, ON","postal_code":"M3B 2M1"},{"pharmacy":"Shoppers Drug Mart","address":"236 Bloor Street West","city":"Toronto, ON","postal_code":"M5S 1T8"},{"pharmacy":"Shoppers Drug Mart","address":"958 Bloor Street West","city":"Toronto, ON","postal_code":"M6H 1L6"},{"pharmacy":"Shoppers Drug Mart","address":"620 Keele Street","city":"Toronto, ON","postal_code":"M6N 3E2"},{"pharmacy":"Shoppers Drug Mart","address":"292 Dupont Street","city":"Toronto, ON","postal_code":"M5R 1V9"},{"pharmacy":"Shoppers Drug Mart","address":"1015 Lakeshore Boulevard East","city":"Toronto, ON","postal_code":"M4M 1B4"},{"pharmacy":"Shoppers Drug Mart","address":"2000 Queen Street East","city":"Toronto, ON","postal_code":"M4L 1J2"},{"pharmacy":"Shoppers Drug Mart","address":"1507 Yonge Street","city":"Toronto, ON","postal_code":"M4T 1Z2"},{"pharmacy":"Shoppers Drug Mart","address":"759 Mount Pleasant Road","city":"Toronto, ON","postal_code":"M4S 2N4"},{"pharmacy":"Shoppers Drug Mart","address":"755 Danforth Avenue","city":"Toronto, ON","postal_code":"M4J 1L2"},{"pharmacy":"Shoppers Drug Mart","address":"180 Danforth Avenue","city":"Toronto, ON","postal_code":"M4K 1N1"},{"pharmacy":"Shoppers Drug Mart","address":"66 Wellington Street West, Unit 10","city":"Toronto, ON","postal_code":"M5K 1A1"},{"pharmacy":"Shoppers Drug Mart","address":"1500 Woodbine Avenue","city":"Toronto, ON","postal_code":"M4C 4G9"},{"pharmacy":"Shoppers Drug Mart","address":"523 St. Clair Avenue West","city":"Toronto, ON","postal_code":"M6C 1A1"},{"pharmacy":"Shoppers Drug Mart","address":"2223 Bloor Street West","city":"Toronto, ON","postal_code":"M6S 1N7"},{"pharmacy":"Shoppers Drug Mart","address":"1500 Avenue Road","city":"Toronto, ON","postal_code":"M5M 3X2"},{"pharmacy":"Shoppers Drug Mart","address":"1084 Wilson Avenue","city":"Toronto, ON","postal_code":"M3K 1G6"},{"pharmacy":"Shoppers Drug Mart","address":"2345 Yonge Street","city":"Toronto, ON","postal_code":"M4P 1E4"},{"pharmacy":"Shoppers Drug Mart","address":"970 Queen Street East","city":"Toronto, ON","postal_code":"M4M 1J8"},{"pharmacy":"Shoppers Drug Mart","address":"279 Yonge Street","city":"Toronto, ON","postal_code":"M5B 1N8"},{"pharmacy":"Shoppers Drug Mart","address":"388 King Street West","city":"Toronto, ON","postal_code":"M5V 1K2"},{"pharmacy":"Shoppers Drug Mart","address":"390 Queen's Quay West, Unit 110","city":"Toronto, ON","postal_code":"M5V 3A6"},{"pharmacy":"Shoppers Drug Mart","address":"1090 King Street West","city":"Toronto, ON","postal_code":"M6K 0C7"},{"pharmacy":"Shoppers Drug Mart","address":"360A Bloor Street West","city":"Toronto, ON","postal_code":"M5S 1X1"},{"pharmacy":"Shoppers Drug Mart","address":"1400 Dupont Street","city":"Toronto, ON","postal_code":"M6H 2B2"},{"pharmacy":"Shoppers Drug Mart","address":"3446 Dundas Street West","city":"Toronto, ON","postal_code":"M6S 2S1"},{"pharmacy":"Shoppers Drug Mart","address":"1027 Yonge Street","city":"Toronto, ON","postal_code":"M4W 2K9"},{"pharmacy":"Shoppers Drug Mart","address":"1630 Danforth Avenue","city":"Toronto, ON","postal_code":"M4C 1H6"},{"pharmacy":"Snowden Pharmacy","address":"264 Bloor Street West","city":"Toronto, ON","postal_code":"M5S 1V8"},{"pharmacy":"Sobeys Pharmacy Rosebury","address":"145 Marlee Avenue","city":"Toronto, ON","postal_code":"M6B 3H3"},{"pharmacy":"Symington Pharmacy","address":"333 Symington Avenue","city":"Toronto, ON","postal_code":"M6P 3X1"},{"pharmacy":"The Medicine Shoppe Pharmacy","address":"794 Sheppard Avenue East","city":"Toronto, ON","postal_code":"M2K 1C3"},{"pharmacy":"The Medicine Shoppe Pharmacy","address":"2600 Eglinton Avenue West","city":"Toronto, ON","postal_code":"M6M 1T5"},{"pharmacy":"Total Health Pharmacy","address":"997 Gerrard Street East","city":"Toronto, ON","postal_code":"M4M 1Z4"},{"pharmacy":"Uptown Pharmacy","address":"243 Eglinton Avenue West","city":"Toronto, ON","postal_code":"M4R 1B1"},{"pharmacy":"Victoria Park Pharmacy","address":"1314 Victoria Park Avenue","city":"Toronto, ON","postal_code":"M4B 2L4"},{"pharmacy":"Vina Pharmacy","address":"1025 Gerrard Street East","city":"Toronto, ON","postal_code":"M4M 1Z6"},{"pharmacy":"Wal-Mart Pharmacy","address":"2202 Jane Street","city":"Toronto, ON","postal_code":"M3M 1A4"},{"pharmacy":"Wal-Mart Pharmacy","address":"2245 Islington Avenue","city":"Toronto, ON","postal_code":"M9W 3W7"},{"pharmacy":"Wal-Mart Pharmacy","address":"1305 Lawrence Avenue West","city":"Toronto, ON","postal_code":"M6L 1A5"},{"pharmacy":"Wal-Mart Pharmacy","address":"2525 St. Clair Avenue West","city":"Toronto, ON","postal_code":"M6N 4Z5"},{"pharmacy":"Welcome Guardian Drugs (Roncesvalles)","address":"137 Roncesvalles Avenue","city":"Toronto, ON","postal_code":"M6R 2L2"},{"pharmacy":"Welcome Guardian Pharmacy","address":"1881 Yonge Street","city":"Toronto, ON","postal_code":"M4S 3C4"},{"pharmacy":"Well+Good Pharmacy","address":"557 Church Street","city":"Toronto, ON","postal_code":"M4Y 2E2"},{"pharmacy":"Weston Jane Pharmacy","address":"1292 Weston Road","city":"Toronto, ON","postal_code":"M6M 4R3"},{"pharmacy":"Tottenham Pharmacy","address":"55 Queen Street South","city":"Tottenham, ON","postal_code":"L0G 1W0"},{"pharmacy":"Metro Pharmacy","address":"53 Quinte Street","city":"Trenton, ON","postal_code":"K8V 3S8"},{"pharmacy":"Rexall","address":"109 Dundas Street East","city":"Trenton, ON","postal_code":"K8V 1L1"},{"pharmacy":"Shoppers Drug Mart","address":"83 Dundas Street West","city":"Trenton, ON","postal_code":"K8V 3P4"},{"pharmacy":"Wal-Mart Pharmacy","address":"470 Second Dug Hill Road","city":"Trenton, ON","postal_code":"K8V 5P7"},{"pharmacy":"Shoppers Drug Mart","address":"4630 Highway 7","city":"Unionville, ON","postal_code":"L3R 1M5"},{"pharmacy":"Unionville Guardian Pharmacy","address":"9249 Kennedy Road, Unit 101","city":"Unionville, ON","postal_code":"L3R 6H9"},{"pharmacy":"Pharmasave Uxbridge Med Pharm","address":"29 Toronto Street South Suite 1B","city":"Uxbridge, ON","postal_code":"L9P 1V9"},{"pharmacy":"Rexall","address":"2 Elgin Park Drive, Unit C","city":"Uxbridge, ON","postal_code":"L9P 0B1"},{"pharmacy":"Shoppers Drug Mart","address":"232 Toronto Street South","city":"Uxbridge, ON","postal_code":"L9P 0C4"},{"pharmacy":"Trail Capital Pharmacy","address":"2 Douglas Road, Unit A35","city":"Uxbridge, ON","postal_code":"L9P 1S9"},{"pharmacy":"Wal-Mart Pharmacy","address":"6 Welwood Road","city":"Uxbridge, ON","postal_code":"L9P 1X4"},{"pharmacy":"Zehrs Markets","address":"323 Toronto Street South","city":"Uxbridge, ON","postal_code":"L9P 1N2"},{"pharmacy":"Rexall","address":"3080 Highway 69 North","city":"Val Caron, ON","postal_code":"P3N 1N7"},{"pharmacy":"Loblaw","address":"100 McArthur Avenue","city":"Vanier, ON","postal_code":"K1L 6P9"},{"pharmacy":"Fortinos","address":"2911 Major Mackenzie Drive","city":"Vaughan, ON","postal_code":"L6A 3N9"},{"pharmacy":"Peace Medical Pharmacy","address":"9699 Jane Street, Unit 19","city":"Vaughan, ON","postal_code":"L6A 0A4"},{"pharmacy":"Shoppers Drug Mart","address":"1 Bass Pro Mills Drive, Unit 341","city":"Vaughan, ON","postal_code":"L4K 5W4"},{"pharmacy":"Shoppers Drug Mart","address":"3737 Major MacKenzie Drive","city":"Vaughan, ON","postal_code":"L4H 0A2"},{"pharmacy":"Shoppers Drug Mart","address":"9306 Bathurst Street","city":"Vaughan, ON","postal_code":"L6A 4N9"},{"pharmacy":"Shoppers Drug Mart","address":"9200 Dufferin Street","city":"Vaughan, ON","postal_code":"L4K 0C6"},{"pharmacy":"Sobeys Pharmacy","address":"9200 Bathurst Street","city":"Vaughan, ON","postal_code":"L4J 8W1"},{"pharmacy":"Summeridge Guardian Pharmacy","address":"8707 Dufferin Street, Building D Unit 11-12A","city":"Vaughan, ON","postal_code":"L4J 0A2"},{"pharmacy":"Tuscany Guardian Pharmacy","address":"9100 Jane Street, Unit 16","city":"Vaughan, ON","postal_code":"L4K 0A4"},{"pharmacy":"Venice Pharmacy","address":"3530 Rutherford Road, Unit 76","city":"Vaughan, ON","postal_code":"L4H 3T8"},{"pharmacy":"Wal-Mart Pharmacy","address":"3600 Major Mackenzie Drive","city":"Vaughan, ON","postal_code":"L6A 1S1"},{"pharmacy":"Wal-Mart Pharmacy","address":"1900 Major Mackenzie Drive","city":"Vaughan, ON","postal_code":"L6A 4R9"},{"pharmacy":"Wal-Mart Pharmacy","address":"670 Applewood Crescent","city":"Vaughan, ON","postal_code":"L4K 0L4"},{"pharmacy":"Tay Guardian Pharmacy","address":"115 William Street","city":"Victoria Harbour, ON","postal_code":"L0K 2A0"},{"pharmacy":"Simpson's Pharmacy","address":"1882 Niagara Stone Road","city":"Virgil, ON","postal_code":"L0S 1T0"},{"pharmacy":"Stone Road Pharmacy","address":"1630 Niagara Stone Road","city":"Virgil, ON","postal_code":"L0S 1T0"},{"pharmacy":"Pellow Pharmasave","address":"232 Durham Street East","city":"Walkerton, ON","postal_code":"N0G 2V0"},{"pharmacy":"Shoppers Drug Mart","address":"1900 Mosley Street, Unit 4","city":"Wasaga Beach, ON","postal_code":"L9Z 1Z3"},{"pharmacy":"Shoppers Drug Mart","address":"25 Hamilton Street North","city":"Waterdown, ON","postal_code":"L0R 2H6"},{"pharmacy":"Waterdown Pharmacy","address":"145 Hamilton Street North, Unit 4","city":"Waterdown, ON","postal_code":"L8B 0Y7"},{"pharmacy":"Alphamed Pharmacy","address":"460 Albert Street","city":"Waterloo, ON","postal_code":"N2L 6J8"},{"pharmacy":"Carriage Crossing Pharmacy","address":"105 Oak Park Drive, Unit 4","city":"Waterloo, ON","postal_code":"N2K 0B3"},{"pharmacy":"Costco Pharmacy","address":"930 Erb Street West RR 3","city":"Waterloo, ON","postal_code":"N2J 3Z4"},{"pharmacy":"Loblaw Pharmacy","address":"450 Erb Street West","city":"Waterloo, ON","postal_code":"N2T 1H4"},{"pharmacy":"Phamily Pharmacy","address":"98 Weber Street North","city":"Waterloo, ON","postal_code":"N2J 3G8"},{"pharmacy":"Rexall","address":"585 Weber Street North","city":"Waterloo, ON","postal_code":"N2V 1V8"},{"pharmacy":"Rexall","address":"425 University Avenue East","city":"Waterloo, ON","postal_code":"N2K 4C9"},{"pharmacy":"Shoppers Drug Mart","address":"190 Northfield Drive West","city":"Waterloo, ON","postal_code":"N2L 0C7"},{"pharmacy":"Shoppers Drug Mart","address":"75 King Street South, Suite 42-43","city":"Waterloo, ON","postal_code":"N2J 1P2"},{"pharmacy":"Shoppers Drug Mart","address":"658 Erb Street West","city":"Waterloo, ON","postal_code":"N2T 2Z7"},{"pharmacy":"Shoppers Drug Mart","address":"600 Laurelwood Drive","city":"Waterloo, ON","postal_code":"N2V 0A2"},{"pharmacy":"Shoppers Drug Mart","address":"550 King Street North, Major 4A","city":"Waterloo, ON","postal_code":"N2L 5W6"},{"pharmacy":"Sobeys Pharmacy","address":"640 Parkside Drive","city":"Waterloo, ON","postal_code":"N2L 0C7"},{"pharmacy":"Sobeys Pharmacy","address":"450 Columbia Street West","city":"Waterloo, ON","postal_code":"N2T 2W1"},{"pharmacy":"Wal-Mart Pharmacy","address":"335 Farmers Market Road","city":"Waterloo, ON","postal_code":"N2V 0A4"},{"pharmacy":"Westmount Place Pharmacy","address":"50 Westmount Road North","city":"Waterloo, ON","postal_code":"N2L 2R5"},{"pharmacy":"Zehrs Markets","address":"315 Lincoln Road","city":"Waterloo, ON","postal_code":"N2J 4H7"},{"pharmacy":"Loblaw Pharmacy","address":"821 Niagara Street North","city":"Welland, ON","postal_code":"L3C 1M4"},{"pharmacy":"Rexall","address":"399 King Street","city":"Welland, ON","postal_code":"L3B 3K4"},{"pharmacy":"Shoppers Drug Mart","address":"595 South Pelham Road","city":"Welland, ON","postal_code":"L3C 3C7"},{"pharmacy":"Shoppers Drug Mart","address":"800 Niagara Street North, Unit H2","city":"Welland, ON","postal_code":"L3C 5Z4"},{"pharmacy":"Cook's Pharmacy","address":"1201 Queens Bush Road","city":"Wellesley, ON","postal_code":"N0B 2T0"},{"pharmacy":"West Elgin Pharmacy","address":"229 Graham Street","city":"West Lorne, ON","postal_code":"N0L 2P0"},{"pharmacy":"La Rose Pharmacy","address":"140 La Rose Avenue","city":"Weston, ON","postal_code":"M9P 1B2"},{"pharmacy":"Rexall","address":"250 Wincott Drive","city":"Weston, ON","postal_code":"M9R 2R5"},{"pharmacy":"Westport Village Pharmacy","address":"3 Church Street","city":"Westport, ON","postal_code":"K0G 1X0"},{"pharmacy":"Lovell Drugs","address":"617 Victoria Street West, Unit 9","city":"Whitby, ON","postal_code":"L1N 0E4"},{"pharmacy":"Pringle Creek Pharmasave","address":"728 Anderson Street","city":"Whitby, ON","postal_code":"L1N 3V6"},{"pharmacy":"Real Canadian Superstore","address":"200 Taunton Road West","city":"Whitby, ON","postal_code":"L1R 3H8"},{"pharmacy":"Shoppers Drug Mart","address":"4081 Thickson Road North","city":"Whitby, ON","postal_code":"L1R 2X3"},{"pharmacy":"Shoppers Drug Mart","address":"3100 Garden Street","city":"Whitby, ON","postal_code":"L1R 2G8"},{"pharmacy":"Shoppers Drug Mart","address":"910 Dundas Street West","city":"Whitby, ON","postal_code":"L1P 1P7"},{"pharmacy":"Shoppers Drug Mart","address":"1801 Dundas Street East","city":"Whitby, ON","postal_code":"L1N 7C5"},{"pharmacy":"Wal-Mart Pharmacy","address":"4100 Baldwin Street South","city":"Whitby, ON","postal_code":"L1R 3H8"},{"pharmacy":"Whitney Pharmacy","address":"29542 Hwy 60","city":"Whitney, ON","postal_code":"K0J 2M0"},{"pharmacy":"McKenzie's IDA Pharmacy","address":"608 Berford St. Po Box 340","city":"Wiarton, ON","postal_code":"N0H 2T0"},{"pharmacy":"Rexall","address":"3555 Don Mills Road","city":"Willowdale, ON","postal_code":"M2H 3N3"},{"pharmacy":"Rexall","address":"288 Sheppard Avenue East","city":"Willowdale, ON","postal_code":"M2N 3B1"},{"pharmacy":"Shoppers Drug Mart","address":"1800 Sheppard Avenue East","city":"Willowdale, ON","postal_code":"M2J 5A7"},{"pharmacy":"Seaway Valley Pharmacy","address":"507 Main Street","city":"Winchester, ON","postal_code":"K0C 2K0"},{"pharmacy":"Central Drug Mart","address":"5415 Tecumseh Road East, Unit 501","city":"Windsor, ON","postal_code":"N8T 1C5"},{"pharmacy":"Costco Pharmacy","address":"4411 Walker Road","city":"Windsor, ON","postal_code":"N9A 6J3"},{"pharmacy":"Downtown Windsor Pharmacy","address":"100 Park Street West","city":"Windsor, ON","postal_code":"N9A 7A5"},{"pharmacy":"Medica Pharmacy","address":"1210 Erie Street East","city":"Windsor, ON","postal_code":"N9A 3Z5"},{"pharmacy":"Neighborhood Drug Store","address":"439 Wyandotte Street East","city":"Windsor, ON","postal_code":"N9A 3H8"},{"pharmacy":"Novacare Pharmacy","address":"1275 Walker Road","city":"Windsor, ON","postal_code":"N8Y 4X9"},{"pharmacy":"Real Canadian Superstore","address":"4371 Walker Road","city":"Windsor, ON","postal_code":"N8W 3T6"},{"pharmacy":"Real Canadian Superstore","address":"2430 Dougall Avenue","city":"Windsor, ON","postal_code":"N8X 1T2"},{"pharmacy":"Rexall","address":"3840 Howard Avenue","city":"Windsor, ON","postal_code":"N9E 3N9"},{"pharmacy":"Rexall","address":"1215 Ouellette Avenue","city":"Windsor, ON","postal_code":"N8X 1J3"},{"pharmacy":"Shoppers Drug Mart","address":"500 Tecumseh Road East","city":"Windsor, ON","postal_code":"N8X 2S2"},{"pharmacy":"Shoppers Drug Mart","address":"1675 Wyandotte Street West","city":"Windsor, ON","postal_code":"N9B 1H8"},{"pharmacy":"Shoppers Drug Mart","address":"5050 Tecumseh Road East","city":"Windsor, ON","postal_code":"N8T 1C1"},{"pharmacy":"Shoppers Drug Mart","address":"2109 Ottawa Street","city":"Windsor, ON","postal_code":"N8Y 1R8"},{"pharmacy":"Shoppers Drug Mart","address":"3970 Seminole Street","city":"Windsor, ON","postal_code":"N8Y 4T2"},{"pharmacy":"Shoppers Drug Mart","address":"1270 Walker Road","city":"Windsor, ON","postal_code":"N8Y 4T4"},{"pharmacy":"Shoppers Drug Mart","address":"1421 Grand Marais Road West, Unit 100","city":"Windsor, ON","postal_code":"N9E 4V1"},{"pharmacy":"Shoppers Drug Mart","address":"4835 Wyandotte Street East","city":"Windsor, ON","postal_code":"N8Y 1H9"},{"pharmacy":"Shoppers Drug Mart","address":"11500 Tecumseh Road East","city":"Windsor, ON","postal_code":"N8N 1L7"},{"pharmacy":"Shoppers Drug Mart","address":"7980 Menard Street","city":"Windsor, ON","postal_code":"N8S 1V9"},{"pharmacy":"Shoppers Drug Mart","address":"2670 Tecumseh Road West","city":"Windsor, ON","postal_code":"N9B 3P9"},{"pharmacy":"Shoppers Drug Mart","address":"3950 Dougall Avenue, Unit 2","city":"Windsor, ON","postal_code":"N9G 1X2"},{"pharmacy":"Shoppers Drug Mart","address":"600 Ouellette Avenue","city":"Windsor, ON","postal_code":"N9A 6Z3"},{"pharmacy":"Shoppers Drug Mart","address":"1760 Huron Church Road","city":"Windsor, ON","postal_code":"N9C 2L4"},{"pharmacy":"Shoppers Drug Mart","address":"7720 Tecumseh Road East","city":"Windsor, ON","postal_code":"N8T 1E9"},{"pharmacy":"Shoppers Drug Mart","address":"3100 Howard Avenue","city":"Windsor, ON","postal_code":"N8X 3Y8"},{"pharmacy":"Wal-Mart Pharmacy","address":"7100 Tecumseth Road East","city":"Windsor, ON","postal_code":"N8T 1E6"},{"pharmacy":"Wal-Mart Pharmacy","address":"3120 Dougall Road","city":"Windsor, ON","postal_code":"N9E 1S7"},{"pharmacy":"Westminster Pharmacy","address":"5115 Tecumseh Road East","city":"Windsor, ON","postal_code":"N8T 1C2"},{"pharmacy":"Westside Pharmacy Pharmasave","address":"1550 Huron Church Road","city":"Windsor, ON","postal_code":"N9C 3Z3"},{"pharmacy":"Windsor Avenue Pharmacy","address":"1329 Windsor Avenue","city":"Windsor, ON","postal_code":"N8X 3L8"},{"pharmacy":"Zehrs","address":"7201 Tecumseh Road East","city":"Windsor, ON","postal_code":"N8T 3K4"},{"pharmacy":"Ziter Pharmacy","address":"2462 Howard Avenue, Suite 108","city":"Windsor, ON","postal_code":"N8X 3V6"},{"pharmacy":"James Brown Pharmacy","address":"198 Josephine Street","city":"Wingham, ON","postal_code":"N0G 2W0"},{"pharmacy":"Alpha Woodbridge Pharmacy","address":"5731 Highway 7","city":"Woodbridge, ON","postal_code":"L4L 4Y9"},{"pharmacy":"Costco Pharamcy","address":"55 New Huntington Road","city":"Woodbridge, ON","postal_code":"L4H 0P5"},{"pharmacy":"Costco Pharmacy","address":"587 Hanlan Road","city":"Woodbridge, ON","postal_code":"L4L 4R8"},{"pharmacy":"Costco Pharmacy","address":"71 Colossus Drive","city":"Woodbridge, ON","postal_code":"L4L 9J8"},{"pharmacy":"DrugSmart Pharmacy","address":"200 Windflower Gate, Unit 700","city":"Woodbridge, ON","postal_code":"L4L 9L3"},{"pharmacy":"FreshCo Pharmacy","address":"3737 Major Mackenzie Drive","city":"Woodbridge, ON","postal_code":"L4H 0A2"},{"pharmacy":"Medbrands IDA Pharmacy","address":"53 Woodbridge Avenue, Unit 1","city":"Woodbridge, ON","postal_code":"L4L 9K9"},{"pharmacy":"Pharmasave Cityview Pharmacy","address":"551 Cityview Boulevard, Unit 15-16","city":"Woodbridge, ON","postal_code":"L4H 0Z4"},{"pharmacy":"Prima Care Pharmacy","address":"9600 Islington Avenue, Unit 9","city":"Woodbridge, ON","postal_code":"L4H 2T1"},{"pharmacy":"Rexall","address":"3900 Rutherford Road","city":"Woodbridge, ON","postal_code":"L4H 3G8"},{"pharmacy":"Rutherford Guardian Drugs","address":"5283 Rutherford Road, Unit 2","city":"Woodbridge, ON","postal_code":"L4H 2T2"},{"pharmacy":"Shoppers Drug Mart","address":"5694 Highway 7","city":"Woodbridge, ON","postal_code":"L4L 1T8"},{"pharmacy":"Shoppers Drug Mart","address":"4000 Highway 7","city":"Woodbridge, ON","postal_code":"L4L 1A6"},{"pharmacy":"Shoppers Drug Mart","address":"9200 Weston Road, Building C","city":"Woodbridge, ON","postal_code":"L4H 2P8"},{"pharmacy":"Shoppers Drug Mart","address":"5100 Rutherford Road","city":"Woodbridge, ON","postal_code":"L4H 2J2"},{"pharmacy":"Walmart","address":"8300 Highway 27","city":"Woodbridge, ON","postal_code":"L4H 0R9"},{"pharmacy":"Weston Downs Pharmacy","address":"9000 Weston Road, Unit 9","city":"Woodbridge, ON","postal_code":"L4L 1A6"},{"pharmacy":"Lakeview Pharmacy","address":"805 Vansittart Avenue, Unit 2","city":"Woodstock, ON","postal_code":"N4T 0L6"},{"pharmacy":"Rexall","address":"379 Springbank Avenue North","city":"Woodstock, ON","postal_code":"N4T 1H3"},{"pharmacy":"Rexall","address":"706 Dundas Street","city":"Woodstock, ON","postal_code":"N4S 1E7"},{"pharmacy":"Shoppers Drug Mart","address":"959 Dundas Street East","city":"Woodstock, ON","postal_code":"N4S 1H2"},{"pharmacy":"Shoppers Drug Mart","address":"333 Dundas Street","city":"Woodstock, ON","postal_code":"N4S 1B5"},{"pharmacy":"Zehrs Markets","address":"969 Dundas Street","city":"Woodstock, ON","postal_code":"N4S 1H2"}]}